# 2001 9 8 23 46 20.00 30.280 101.340 1.0 0 0 0 0 620098
EMS 36.6 1 P
GDS 9.1 1 P
GDS 15.8 1 S
HMS 48.1342 1 P
HWS 59.638 1 P
JJS 49.5265 1 P
MEK 29.7 1 P
MEK 49 1 S
WMP 45.28 1 P
XJP 30.1 1 P
XJP 49.7 1 S
YGD 42.49 1 P
YZP 34.8 1 P
YZP 58.2 1 S
ZJG 52.1758 1 P
# 2001 9 12 8 38 27.10 29.250 101.030 10.0 0 0 0 0 620099
GDS 19.8 1 P
GDS 32.7 1 S
HMS 52.8165 1 P
MDS 35.4792 1 P
MEK 49.52 1 P
WMP 47.7602 1 P
XJP 29.9 1 P
XJP 49.5 1 S
YZP 48.17 1 P
# 2001 9 14 10 39 18.77 25.406 100.573 9.0 0 0 0 0 620100
YZP 110.644 1 P
# 2001 9 16 20 48 24.70 34.010 102.320 0.0 0 0 0 0 620101
MEK 80.3 1 S
YTS 64.5879 1 P
# 2001 9 20 4 56 5.90 32.420 104.290 0.0 0 0 0 0 620102
HMS 57.54 1 P
YTS 21.1 1 P
YTS 34.8 1 S
# 2001 9 20 5 10 40.40 33.570 102.170 0.0 0 0 0 0 620103
YTS 64.3556 1 P
# 2001 9 20 18 18 35.60 31.360 102.490 13.0 0 0 0 0 620104
EMS 41.1844 1 P
GDS 33.4 1 P
GDS 55.1 1 S
HMS 47.6 1 P
HMS 79.4 1 S
JJS 32.2965 1 P
JJS 55.1 1 S
MEK 10.1064 1 P
MEK 15.9 1 S
XJP 44.8456 1 P
XJP 74.7 1 S
YGD 35.9387 1 P
YGD 60.5 1 S
YTS 48.98 1 P
YZP 20.8 1 P
YZP 33.8 1 S
ZJG 30.1483 1 P
# 2001 9 22 22 34 47.50 31.560 102.020 2.0 0 0 0 0 620105
EMS 51.11 1 P
GDS 36.2 1 P
GDS 62.3 1 S
HMS 59.03 1 P
HWS 66.0629 1 P
JJS 44.0162 1 P
LZZ 75.9951 1 P
MDS 39.55 1 P
MEK 4.7 1 P
MEK 7.9 1 S
WMP 59.4029 1 P
XJP 51.05 1 P
YGD 45.4707 1 P
YTS 59.23 1 P
YZP 33.5354 1 P
YZP 56.6 1 S
ZJG 42.9 1 P
# 2001 9 22 22 41 34.50 31.550 102.040 5.0 0 0 0 0 620106
EMS 51.18 1 P
GDS 36.13 1 P
HMS 58.5363 1 P
JJS 45.69 1 P
MDS 40.29 1 P
MEK 11.8 1 S
YZP 33.7 1 P
YZP 56 1 S
ZJG 43.02 1 P
# 2001 9 24 0 18 0.50 30.550 103.200 12.0 0 0 0 0 620107
EMS 26.43 1 P
GDS 28.5 1 P
GDS 47.4 1 S
HMS 31.2 1 P
HMS 52.1 1 S
HWS 44.491 1 P
JJS 21.6 1 P
JJS 36.2 1 S
MDS 18.88 1 P
MEK 27.2 1 P
MEK 45.3 1 S
WMP 35.77 1 P
XJP 33 1 P
XJP 54.5 1 S
YGD 19.6 1 P
YTS 42.9873 1 P
YZP 5.8 1 P
YZP 9.6 1 S
ZJG 28.1 1 P
ZJG 48.5 1 S
# 2001 9 24 18 5 45.00 33.490 102.300 0.0 0 0 0 0 620108
YTS 62.92 1 P
ZJG 55.3751 1 P
# 2001 9 25 22 48 14.10 29.540 102.450 16.0 0 0 0 0 620109
EMS 14.16 1 P
GDS 14.2 1 P
GDS 23.5 1 S
HMS 27.4 1 P
HMS 46.8 1 S
HWS 39.03 1 P
JJS 36.65 1 P
MDS 7.43 1 P
MEK 38.3119 1 P
WMP 24.3 1 P
WMP 40.3 1 S
XJP 12.7 1 P
XJP 20.5 1 S
YZP 24.5 1 P
# 2001 9 27 22 31 34.40 28.220 104.430 11.0 0 0 0 0 620110
EMS 34.4997 1 P
GDS 53.1 1 P
HMS 27.3 1 P
HMS 45.2 1 S
HWS 8.5 1 P
HWS 13.8 1 S
JJS 48.1528 1 P
LZZ 33.3 1 P
LZZ 55.7 1 S
MDS 43.12 1 P
MEK 70.22 1 P
WMP 23.1 1 P
WMP 37.8 1 S
XJP 40.8 1 P
XJP 67.6 1 S
YGD 38 1 P
YGD 64.1 1 S
YZP 48.96 1 P
ZJG 58.4728 1 P
# 2001 10 1 11 34 25.30 29.190 105.220 9.0 0 0 0 0 620111
EMS 32.7493 1 P
HMS 19.4 1 P
HMS 31.5 1 S
HWS 20.3 1 P
HWS 32.8 1 S
JJS 34.4 1 P
JJS 57.8 1 S
LZZ 11.4 1 P
LZZ 19.6 1 S
MDS 39.17 1 P
WMP 28.4 1 P
WMP 47.7 1 S
XJP 43.39 1 P
YGD 28.3 1 P
YGD 47.7 1 S
YZP 39.42 1 P
ZJG 43.93 1 P
# 2001 10 8 17 32 21.00 29.230 101.050 0.0 0 0 0 0 620112
EMS 40.58 1 P
GDS 19.9 1 P
GDS 32.4 1 S
HMS 52.5038 1 P
MDS 36.09 1 P
MEK 50.0135 1 P
XJP 30.3 1 P
XJP 50.2 1 S
YZP 48.5 1 P
# 2001 10 9 6 7 10.90 31.320 100.260 0.0 0 0 0 0 620113
GDS 40.7278 1 P
MEK 31.7 1 P
MEK 52.8 1 S
# 2001 10 14 13 50 56.90 28.440 103.370 5.0 0 0 0 0 620114
GDS 37 1 P
GDS 61.3 1 S
HMS 21.6 1 P
HWS 19.5 1 P
HWS 32.9 1 S
JJS 42.64 1 P
LZZ 38.99 1 P
MDS 28.45 1 P
MEK 57.6225 1 P
WMP 7.8 1 P
XJP 20.1 1 P
XJP 33.1 1 S
YGD 29.6 1 P
# 2001 10 25 19 29 39.80 29.400 103.140 15.0 0 0 0 0 620115
EMS 6.95 1 P
GDS 22.9 1 P
GDS 38.2 1 S
HMS 20.3 1 P
HMS 33.8 1 S
HWS 31.1 1 P
HWS 53.1 1 S
JJS 33.7 1 P
JJS 56.6 1 S
LZZ 41.0203 1 P
MDS 11.45 1 P
MEK 44.4021 1 P
WMP 16 1 P
WMP 26.2 1 S
XJP 12.4 1 P
XJP 19.5 1 S
YGD 19.55 1 P
YZP 25.4 1 P
YZP 41.6 1 S
ZJG 42.35 1 P
# 2001 10 27 6 6 42.55 27.908 102.159 5.0 0 0 0 0 620116
EMS 46.1313 1 P
HMS 51.9269 1 P
HWS 47.7221 1 P
MDS 48.0748 1 P
WMP 42.5903 1 P
YZP 59.9887 1 P
ZJG 75.5288 1 P
# 2001 10 28 13 48 23.20 29.400 103.140 14.0 0 0 0 0 620117
GDS 22.7 1 P
GDS 37.9 1 S
HMS 20 1 P
HMS 33.5 1 S
HWS 31.9 1 P
HWS 54.3 1 S
JJS 33.33 1 P
LZZ 42.6175 1 P
MDS 10.7 1 P
MEK 43.9781 1 P
WMP 15.8 1 P
WMP 25.9 1 S
XJP 12.1 1 P
XJP 19.2 1 S
YGD 19.2 1 P
YGD 32 1 S
YZP 24.8 1 P
YZP 41.7 1 S
ZJG 42.54 1 P
# 2001 10 30 21 40 22.20 29.170 105.350 11.0 0 0 0 0 620118
HMS 21.6 1 P
HMS 36.1 1 S
HWS 21.8 1 P
HWS 36.9 1 S
JJS 36.39 1 P
LZZ 12.3 1 P
LZZ 20.2 1 S
MDS 42.6963 1 P
WMP 31.4 1 P
WMP 52.4 1 S
ZJG 46.5276 1 P
# 2001 12 1 2 19 52.10 30.470 100.060 5.0 0 0 0 0 620119
GDS 36.2 1 P
GDS 59.4 1 S
MEK 43.1644 1 P
# 2001 12 1 7 25 51.00 32.460 104.130 4.0 0 0 0 0 620120
HMS 56.8636 1 P
JJS 36.4 1 P
MEK 37.6 1 P
MEK 67.2 1 S
YTS 25.1118 1 P
YTS 43.8 1 S
ZJG 24.3 1 P
ZJG 40.2 1 S
# 2001 12 5 19 4 37.10 29.090 104.490 14.0 0 0 0 0 620121
EMS 25.26 1 P
GDS 47.19 1 P
HMS 12.6 1 P
HMS 21.1 1 S
HWS 11.7 1 P
HWS 19.1 1 S
JJS 38.9 1 P
JJS 64.4 1 S
LZZ 26.4 1 P
LZZ 43.8 1 S
MDS 34.68 1 P
MEK 60.9317 1 P
WMP 17.4 1 P
WMP 28.9 1 S
XJP 34 1 P
XJP 56.6 1 S
YGD 25.9 1 P
YGD 42.7 1 S
YZP 39.3 1 P
YZP 64.3 1 S
ZJG 48.0741 1 P
# 2001 12 8 1 0 15.40 29.210 104.040 0.0 0 0 0 0 620122
EMS 13.46 1 P
GDS 36.89 1 P
HMS 9 1 P
HMS 14.7 1 S
HWS 21.2 1 P
HWS 34 1 S
JJS 33.35 1 P
LZZ 33.4 1 P
LZZ 56.1 1 S
MDS 23.37 1 P
WMP 9 1 P
WMP 14.8 1 S
XJP 21.9 1 P
XJP 36.8 1 S
YGD 18.3 1 P
YGD 29.9 1 S
YZP 30.5 1 P
YZP 51.9 1 S
ZJG 43.6788 1 P
# 2001 12 11 23 10 28.00 28.130 103.530 0.0 0 0 0 0 620123
EMS 29.25 1 P
GDS 45.6 1 P
GDS 79.1 1 S
HMS 30.4 1 P
HMS 50.9 1 S
HWS 19.4 1 P
HWS 32.7 1 S
JJS 54.2584 1 P
LZZ 42.2 1 P
LZZ 73.8 1 S
MDS 39.15 1 P
WMP 19.1 1 P
WMP 31.9 1 S
XJP 29.7 1 P
XJP 49.7 1 S
YGD 38.8 1 P
YGD 66.9 1 S
YZP 47.3 1 P
YZP 82.7 1 S
ZJG 61.1135 1 P
# 2001 12 13 3 53 39.10 32.100 101.400 0.0 0 0 0 0 620124
GDS 43.2 1 P
GDS 71.1 1 S
HMS 68.0391 1 P
MDS 47.7148 1 P
MEK 13.2 1 P
MEK 21.5 1 S
XJP 56.5441 1 P
XJP 98.5 1 S
YZP 42.9047 1 P
YZP 72.3 1 S
ZJG 50.1389 1 P
ZJG 86 1 S
# 2001 12 22 22 41 54.30 29.080 104.360 2.0 0 0 0 0 620125
EMS 25.44 1 P
GDS 47.91 1 P
HMS 13.2 1 P
HMS 22.3 1 S
HWS 12.4 1 P
HWS 20.5 1 S
JJS 38.6 1 P
JJS 64.5 1 S
LZZ 27 1 P
LZZ 44.8 1 S
MDS 35.09 1 P
MEK 62.0467 1 P
WMP 17.3 1 P
WMP 28.9 1 S
XJP 34.1 1 P
XJP 56.9 1 S
YGD 26.3 1 P
YGD 43.7 1 S
YTS 59.7274 1 P
YZP 39.7 1 P
YZP 65.8 1 S
ZJG 49.0426 1 P
# 2001 12 27 9 19 52.80 30.290 103.020 12.0 0 0 0 0 620126
EMS 21.12 1 P
GDS 21 1 P
GDS 34.4 1 S
HMS 29 1 P
HMS 48.3 1 S
HWS 41.8 1 P
JJS 27.4 1 P
JJS 45.3 1 S
LZZ 45.731 1 P
MDS 11.37 1 P
MEK 31 1 P
MEK 50.8 1 S
WMP 31.2 1 P
WMP 51.7 1 S
XJP 24.2 1 P
XJP 40 1 S
YGD 20.1 1 P
YGD 33.3 1 S
YZP 13.2 1 P
YZP 21.7 1 S
ZJG 34.19 1 P
# 2001 12 27 10 1 39.30 30.270 103.040 14.0 0 0 0 0 620127
EMS 21.4667 1 P
GDS 20.8 1 P
GDS 34.3 1 S
HMS 29.1 1 P
HMS 48.3 1 S
HWS 41.6272 1 P
JJS 27.2 1 P
JJS 45.3 1 S
MDS 11.43 1 P
MEK 30.6 1 P
MEK 50.8 1 S
WMP 31.3 1 P
WMP 52.2 1 S
XJP 24.2 1 P
XJP 40 1 S
YGD 20.1 1 P
YGD 33.2 1 S
YZP 13.4 1 P
YZP 21.9 1 S
ZJG 34.1 1 P
ZJG 58.6 1 S
# 2002 1 7 2 8 13.40 29.260 101.060 5.0 0 0 0 0 620128
GDS 19.3 1 P
GDS 32.1 1 S
HMS 51.95 1 P
HWS 56.79 1 P
JJS 57.52 1 P
LZZ 69.8087 1 P
MDS 35.24 1 P
MEK 49.29 1 P
WMP 45.72 1 P
XJP 28.7 1 P
XJP 47 1 S
YGD 50.42 1 P
YZP 47.95 1 P
# 2002 1 10 15 39 23.70 27.330 102.480 6.0 0 0 0 0 620129
EMS 41.9029 1 P
GDS 48.7144 1 P
HMS 46.96 1 P
HWS 39.8 1 P
HWS 67.9 1 S
MDS 49.2815 1 P
WMP 35 1 P
WMP 58.3 1 S
XJP 37.4 1 P
XJP 60.7 1 S
# 2002 1 21 13 47 13.20 26.510 102.420 0.0 0 0 0 0 620130
EMS 54.2693 1 P
GDS 59.2725 1 P
HMS 55.8752 1 P
HWS 47.4081 1 P
JJS 72.6581 1 P
MDS 59.3765 1 P
WMP 44.0683 1 P
XJP 48.7465 1 P
XJP 82.5 1 S
YZP 68.8743 1 P
# 2002 1 22 9 10 35.90 29.530 102.470 0.0 0 0 0 0 620131
EMS 14.54 1 P
GDS 14.5 1 P
GDS 23.9 1 S
HMS 27.8 1 P
HMS 46.2 1 S
HWS 39.1 1 P
HWS 65.1 1 S
JJS 36.1592 1 P
LZZ 48.1547 1 P
MDS 7.25 1 P
MEK 38.8 1 P
WMP 23.2454 1 P
WMP 39.1 1 S
XJP 12 1 P
XJP 19.9 1 S
YGD 23.9 1 P
YGD 39.7 1 S
YZP 23.8 1 P
# 2002 1 26 1 14 9.10 31.250 103.040 0.0 0 0 0 0 620132
EMS 37.45 1 P
GDS 33.3 1 P
GDS 54.6 1 S
HMS 40.73 1 P
HWS 53.77 1 P
JJS 27.8 1 P
JJS 47 1 S
LZZ 53.441 1 P
MDS 28.44 1 P
MEK 16.9 1 P
MEK 27.1 1 S
WMP 43.38 1 P
XJP 41.41 1 P
YGD 31.2 1 P
YGD 52.7 1 S
YTS 44.8702 1 P
YZP 16.2 1 P
YZP 27.2 1 S
ZJG 27.2445 1 P
ZJG 45.8 1 S
# 2002 1 31 6 0 52.80 29.510 102.470 1.0 0 0 0 0 620133
EMS 14.6 1 P
GDS 14.7 1 P
GDS 24.2 1 S
HMS 28.236 1 P
HMS 48.3 1 S
HWS 39.98 1 P
JJS 36.05 1 P
LZZ 48.86 1 P
MDS 7.8147 1 P
MEK 39.63 1 P
WMP 24.1 1 P
WMP 40.1 1 S
XJP 12.3 1 P
XJP 20.3 1 S
YGD 23.9 1 P
YGD 40.1 1 S
YTS 57.9999 1 P
YZP 24.6 1 P
YZP 43.4 1 S
ZJG 44.13 1 P
# 2002 3 2 23 4 56.20 32.330 100.480 0.0 0 0 0 0 620134
GDS 50.2455 1 P
GDS 90.2 1 S
HMS 82.3 1 P
HMS 136.8 1 S
JJS 66.8 1 P
MDS 59.9917 1 P
MEK 27.6 1 P
MEK 45.8 1 S
XJP 66.804 1 P
XJP 115.6 1 S
YTS 80.8 1 P
YTS 135.4 1 S
YZP 57.1 1 P
YZP 94.6 1 S
ZJG 64.5 1 P
ZJG 109.2 1 S
# 2002 3 3 0 23 5.00 28.410 102.140 0.0 0 0 0 0 620135
EMS 28.59 1 P
GDS 27.2 1 P
GDS 45.1 1 S
HMS 40.2 1 P
HMS 68.9 1 S
HWS 41.3 1 P
HWS 71.5 1 S
JJS 54.3 1 P
MDS 31.78 1 P
MEK 59.7445 1 P
MEK 102 1 S
WMP 27.9 1 P
WMP 46.5 1 S
XJP 17.6 1 P
XJP 29 1 S
YGD 43 1 P
YGD 72.9 1 S
YTS 76.7 1 P
YZP 46.5 1 P
YZP 79.5 1 S
ZJG 63.1 1 P
# 2002 3 4 3 48 27.02 32.620 100.605 14.0 0 0 0 0 620136
JJS 70.9863 1 P
MDS 62.4994 1 P
YZP 58.7853 1 P
YZP 98.7816 1 S
# 2002 3 13 23 34 2.50 34.150 102.190 0.0 0 0 0 0 620137
MEK 82.7 1 S
YTS 66.7 1 P
YTS 111.6 1 S
YZP 120.2 1 S
ZJG 64.4 1 P
ZJG 107.4 1 S
# 2002 3 20 11 8 50.90 27.160 102.510 0.0 0 0 0 0 620138
EMS 46.0435 1 P
GDS 53.9938 1 P
HMS 47.279 1 P
HMS 86.5 1 S
HWS 42.5938 1 P
HWS 72.2 1 S
MDS 52.65 1 P
MEK 77.2792 1 P
WMP 39.641 1 P
WMP 65.9 1 S
XJP 40.5872 1 P
XJP 68.1 1 S
YTS 94.7347 1 P
YZP 62.7183 1 P
YZP 117.2 1 S
# 2002 3 20 22 26 53.20 27.190 104.190 0.0 0 0 0 0 620139
EMS 52.0939 1 P
GDS 70.2331 1 P
HMS 49.8 1 P
HMS 82.5 1 S
HWS 33.3 1 P
HWS 55.1 1 S
JJS 71.759 1 P
LZZ 50.9709 1 P
LZZ 93.6 1 S
MEK 79.3005 1 P
WMP 39.4 1 P
WMP 65.2 1 S
XJP 50.5 1 P
XJP 83.6 1 S
# 2002 3 31 8 25 6.10 32.160 103.320 0.0 0 0 0 0 620140
GDS 50.9437 1 P
HMS 51.0551 1 P
HWS 64.5721 1 P
JJS 31.91 1 P
LZZ 67.0378 1 P
MDS 43.8544 1 P
MEK 24.4478 1 P
MEK 39.9 1 S
WMP 56.8427 1 P
XJP 55.4122 1 P
YGD 41.935 1 P
YTS 38.24 1 P
YZP 29.67 1 P
ZJG 22.3749 1 P
ZJG 37 1 S
# 2002 5 10 1 5 51.70 29.250 101.030 5.0 0 0 0 0 620141
EMS 42 1 P
GDS 21.241 1 P
GDS 34.7 1 S
HMS 53.78 1 P
HWS 58.0091 1 P
JJS 59.5139 1 P
MDS 36.78 1 P
MEK 51.3188 1 P
WMP 47.1 1 P
XJP 30.6 1 P
XJP 50.8 1 S
YGD 51.0007 1 P
YZP 49.82 1 P
# 2002 5 18 13 1 47.30 32.290 107.110 6.0 0 0 0 0 620142
HMS 68.6959 1 P
JJS 51.2 1 P
MDS 73.1062 1 P
YTS 25 1 P
YTS 41.7 1 S
YZP 60.5607 1 P
ZJG 41.2 1 P
ZJG 76 1 S
# 2002 5 23 3 51 31.10 30.400 102.420 7.0 0 0 0 0 620143
EMS 26.12 1 P
GDS 17.8 1 P
GDS 29.3 1 S
HMS 35.1 1 P
HMS 59.3 1 S
HWS 47.3 1 P
JJS 31.9 1 P
JJS 53.9 1 S
LZZ 51.72 1 P
MDS 14.72 1 P
MEK 25.9 1 P
MEK 42.5 1 S
WMP 36.1 1 P
WMP 60.7 1 S
XJP 26.3 1 P
XJP 43.3 1 S
YGD 26.1 1 P
YGD 43.4 1 S
YZP 16.5003 1 P
YZP 27.1 1 S
ZJG 37.1073 1 P
ZJG 65.1 1 S
# 2002 5 23 14 26 38.00 27.280 102.450 0.0 0 0 0 0 620144
EMS 44.09 1 P
GDS 50.8 1 P
GDS 86.1 1 S
HMS 47.4 1 P
HMS 82 1 S
HWS 41.5 1 P
HWS 70.2 1 S
JJS 65.38 1 P
LZZ 60.08 1 P
MDS 50.4181 1 P
WMP 37.1 1 P
WMP 62 1 S
XJP 38.3 1 P
XJP 64.6 1 S
YGD 53.4 1 P
YTS 88.2359 1 P
YZP 61.1111 1 P
ZJG 74.97 1 P
# 2002 5 30 3 29 33.20 30.390 102.510 15.0 0 0 0 0 620145
GDS 21 1 P
GDS 34.5 1 S
HMS 34.7 1 P
HMS 57.7 1 S
HWS 48.0511 1 P
HWS 81.9 1 S
JJS 31.4 1 P
JJS 52.1 1 S
MDS 15.28 1 P
MEK 25.2089 1 P
MEK 46.8 1 S
WMP 36.5 1 P
WMP 60.5 1 S
XJP 27.2 1 P
XJP 44.9 1 S
YGD 25.7 1 P
YGD 42.4 1 S
YZP 15.2 1 P
YZP 25.1 1 S
ZJG 38.334 1 P
ZJG 65.1 1 S
# 2002 5 31 3 53 0.10 30.190 104.110 0.0 0 0 0 0 620146
EMS 19.8 1 P
GDS 36.4 1 P
GDS 60.5 1 S
HMS 15.4015 1 P
HMS 25.1 1 S
HWS 33.0959 1 P
HWS 54.6 1 S
JJS 17.1 1 P
JJS 28.3 1 S
LZZ 33.5979 1 P
LZZ 55.2 1 S
MDS 20.75 1 P
MEK 43.76 1 P
WMP 24.9336 1 P
WMP 40.8 1 S
XJP 29.3 1 P
XJP 48.3 1 S
YGD 3.7 1 P
YGD 5.8 1 S
YTS 43.8 1 P
YTS 76.4 1 S
YZP 17.1938 1 P
YZP 27.9 1 S
ZJG 30.3 1 P
ZJG 50.2 1 S
# 2002 7 3 11 58 24.40 29.350 103.160 0.0 0 0 0 0 620147
EMS 5.18 1 P
GDS 24.3 1 P
GDS 40 1 S
HMS 20.2309 1 P
HMS 33 1 S
HWS 32.4 1 P
HWS 53.4 1 S
JJS 34.8 1 P
JJS 59.5 1 S
LZZ 43.3331 1 P
LZZ 73.9 1 S
MDS 12.41 1 P
MEK 46.8 1 P
MEK 80.6 1 S
WMP 15.1 1 P
WMP 24.6 1 S
XJP 11.4 1 P
XJP 18.3 1 S
YGD 20.2 1 P
YGD 33.3 1 S
YZP 26.4616 1 P
YZP 43.5 1 S
ZJG 44.1 1 P
ZJG 77.7 1 S
# 2002 7 3 12 29 34.30 32.150 101.360 0.0 0 0 0 0 620148
GDS 44.6078 1 P
GDS 74.8 1 S
HMS 69.631 1 P
HMS 117.9 1 S
JJS 55.9968 1 P
JJS 96.8 1 S
MDS 49.8364 1 P
MEK 15.1735 1 P
MEK 25 1 S
WMP 72.7822 1 P
WMP 120.2 1 S
XJP 59.8254 1 P
XJP 100.9 1 S
YGD 59.2744 1 P
YGD 98.8 1 S
YZP 44.485 1 P
YZP 75.2 1 S
ZJG 51.0996 1 P
ZJG 89.4 1 S
# 2002 7 3 23 48 54.50 30.050 103.340 12.0 0 0 0 0 620149
EMS 12.02 1 P
GDS 27.5 1 P
GDS 45.3 1 S
HMS 18.4 1 P
HMS 30.2 1 S
HWS 34.2901 1 P
HWS 57 1 S
JJS 26.6412 1 P
JJS 44.8 1 S
LZZ 39.541 1 P
LZZ 67.2 1 S
MDS 11.26 1 P
MEK 41.7 1 P
MEK 68.9 1 S
WMP 21.2 1 P
WMP 35.2 1 S
XJP 20.9 1 P
XJP 34.2 1 S
YGD 11.9 1 P
YGD 19.5 1 S
YZP 17.5 1 P
YZP 28.7 1 S
ZJG 36.8711 1 P
ZJG 62.2 1 S
# 2002 7 4 19 22 44.00 27.310 100.540 0.0 0 0 0 0 620150
EMS 57.058 1 P
GDS 54.8918 1 P
MDS 58.2924 1 P
WMP 56.1 1 P
XJP 48.2 1 P
XJP 80.5 1 S
# 2002 7 5 9 27 36.90 29.070 104.350 0.0 0 0 0 0 620151
GDS 45.4049 1 P
GDS 77.8 1 S
HMS 11.3 1 P
HMS 19.7 1 S
HWS 10 1 P
HWS 17.6 1 S
JJS 35.6375 1 P
JJS 61.9 1 S
LZZ 25 1 P
LZZ 42.4 1 S
MDS 32.6285 1 P
WMP 15.1 1 P
WMP 26.1 1 S
XJP 31.8 1 P
XJP 53.7 1 S
YGD 25.3 1 P
YGD 42.5 1 S
# 2002 7 6 10 36 32.10 31.220 99.260 15.0 0 0 0 0 620152
MEK 45.1 1 P
MEK 79.4 1 S
# 2002 7 9 4 59 47.40 31.400 99.060 0.0 0 0 0 0 620153
GDS 57.5 1 P
GDS 98.1 1 S
MDS 70.6499 1 P
MEK 52.2 1 P
MEK 86 1 S
WMP 83.1247 1 P
YZP 74.6084 1 P
# 2002 7 9 23 16 39.60 31.330 99.120 5.0 0 0 0 0 620154
GDS 46.5 1 P
GDS 84 1 S
JJS 68.78 1 P
MEK 41.5 1 P
ZJG 70.6453 1 P
# 2002 7 10 14 5 50.10 31.250 99.130 0.0 0 0 0 0 620155
MEK 49.3 1 P
MEK 84.1 1 S
YZP 72.0688 1 P
# 2002 7 16 17 15 27.20 31.370 104.010 12.0 0 0 0 0 620156
EMS 39.19 1 P
GDS 42.8 1 P
GDS 74.9 1 S
HMS 36.7 1 P
HMS 62.6 1 S
HWS 50.9 1 P
HWS 97.6 1 S
JJS 15.4 1 P
JJS 25.9 1 S
LZZ 45.8 1 P
LZZ 87.5 1 S
MDS 34.06 1 P
MEK 32 1 P
XJP 45.7 1 P
XJP 79.7 1 S
YGD 27.4 1 P
YGD 45.2 1 S
YZP 17.9 1 P
YZP 30.4 1 S
ZJG 12.2 1 P
ZJG 20.1 1 S
# 2002 7 25 0 34 49.88 25.280 101.686 5.0 0 0 0 0 620157
HMS 86.4881 1 P
JJS 103.286 1 P
MDS 86.0327 1 P
WMP 77.2956 1 P
YZP 96.6 1 P
# 2002 7 30 2 10 52.94 31.279 100.733 5.0 0 0 0 0 620158
# 2002 9 1 4 1 36.90 29.100 104.450 14.0 0 0 0 0 620159
EMS 25.0784 1 P
GDS 46.8362 1 P
GDS 80 1 S
HMS 12.3261 1 P
HMS 21.5 1 S
HWS 12.8 1 P
HWS 21.2 1 S
JJS 37.5 1 P
JJS 62.3 1 S
LZZ 27 1 P
LZZ 44.5 1 S
MDS 34.6751 1 P
WMP 17.7 1 P
WMP 29.4 1 S
XJP 34 1 P
XJP 56.1 1 S
YGD 25.4 1 P
YGD 41.9 1 S
YZP 38.6395 1 P
YZP 66 1 S
ZJG 51.3 1 P
ZJG 84.9 1 S
# 2002 9 1 19 23 35.90 29.110 103.540 10.0 0 0 0 0 620160
EMS 12.8056 1 P
GDS 35.8 1 P
GDS 59.3 1 S
HMS 13.8 1 P
HMS 22.6 1 S
HWS 20.7 1 P
HWS 34.2 1 S
JJS 36.9241 1 P
JJS 63.5 1 S
LZZ 36.2508 1 P
LZZ 62.6 1 S
MDS 23.82 1 P
MEK 54.0549 1 P
WMP 4.8 1 P
WMP 7.4 1 S
XJP 19.9 1 P
XJP 32.8 1 S
YGD 21.9 1 P
YGD 35.9 1 S
YZP 33.5618 1 P
YZP 55.7 1 S
ZJG 47.311 1 P
ZJG 82.4 1 S
# 2002 9 10 16 34 43.80 32.560 104.500 3.0 0 0 0 0 620161
EMS 61.45 1 P
GDS 65.9226 1 P
HMS 59.15 1 P
HWS 71.39 1 P
LZZ 60.88 1 P
MDS 57.77 1 P
MEK 46.5705 1 P
WMP 67.47 1 P
XJP 67.6328 1 P
YGD 51.33 1 P
YTS 18.8 1 P
YTS 32.6 1 S
# 2002 9 12 6 31 10.50 29.300 105.410 0.0 0 0 0 0 620162
EMS 38.04 1 P
GDS 63.4333 1 P
HMS 24 1 P
HMS 40.7 1 S
HWS 25.5 1 P
HWS 42.7 1 S
JJS 37.6 1 P
JJS 63.2 1 S
LZZ 12.4 1 P
LZZ 21.2 1 S
MDS 44.4 1 P
WMP 33.61 1 P
XJP 48.5 1 P
XJP 81 1 S
YGD 32.7697 1 P
YGD 54.9 1 S
YTS 54.8 1 P
YTS 91.6 1 S
YZP 43.9 1 P
YZP 73.5 1 S
ZJG 47.3 1 P
ZJG 78.9 1 S
# 2002 9 13 5 36 42.70 30.070 102.080 0.0 0 0 0 0 620163
EMS 26.47 1 P
GDS 5.4 1 P
GDS 8.1 1 S
HMS 38.8 1 P
HMS 66 1 S
HWS 48.9 1 P
HWS 83.7 1 S
JJS 41 1 P
JJS 71.2 1 S
LZZ 56.94 1 P
MDS 16.84 1 P
MEK 32.5 1 P
MEK 53.7 1 S
WMP 36.3 1 P
WMP 59.6 1 S
XJP 20.4 1 P
XJP 34.1 1 S
YGD 33.1889 1 P
YGD 55.8 1 S
YTS 62.35 1 P
YZP 28 1 P
YZP 46.5 1 S
ZJG 47.7 1 P
ZJG 84.2 1 S
# 2002 9 16 19 55 52.60 30.100 102.080 3.0 0 0 0 0 620164
EMS 26.3 1 P
GDS 5.3 1 P
GDS 8 1 S
HMS 38.8 1 P
HMS 66.7 1 S
HWS 49 1 P
JJS 40.9 1 P
JJS 72.1 1 S
MDS 16.72 1 P
MEK 32.7 1 P
MEK 54.1 1 S
WMP 36.1 1 P
WMP 59.5 1 S
XJP 20.3 1 P
XJP 33.9 1 S
YGD 33.4819 1 P
YGD 57.7 1 S
YTS 62.2824 1 P
YZP 27.9 1 P
YZP 46.4 1 S
ZJG 47.8086 1 P
# 2002 9 16 20 47 44.10 32.380 102.400 0.0 0 0 0 0 620165
EMS 58.4553 1 P
GDS 48.4 1 P
GDS 84.3 1 S
HMS 62.6655 1 P
HWS 71.8639 1 P
JJS 43.4 1 P
JJS 75.3 1 S
LZZ 79.1572 1 P
MDS 48.9692 1 P
MEK 16 1 P
MEK 26.4 1 S
WMP 62.0177 1 P
XJP 60.766 1 P
YGD 51.2794 1 P
YGD 88.1 1 S
YTS 46.6 1 P
YTS 84.7 1 S
YZP 37.1 1 P
YZP 63.2 1 S
ZJG 35.8 1 P
ZJG 63 1 S
# 2002 9 21 22 18 26.80 31.520 104.180 5.0 0 0 0 0 620166
EMS 41.45 1 P
GDS 46.8608 1 P
HMS 40.2 1 P
HMS 70 1 S
JJS 18 1 P
JJS 30.6 1 S
LZZ 47.4 1 P
LZZ 79.3 1 S
MDS 38.1221 1 P
WMP 47.69 1 P
XJP 52.2335 1 P
YGD 31.1951 1 P
YGD 52.2 1 S
YTS 26.5 1 P
YTS 44.2 1 S
YZP 23.6 1 P
YZP 40 1 S
ZJG 7.3388 1 P
ZJG 12.2 1 S
# 2002 9 27 13 1 23.31 25.372 100.685 13.0 0 0 0 0 620167
HMS 99.7297 1 P
JJS 114.992 1 P
MDS 96.5195 1 P
# 2002 10 9 2 21 58.30 32.440 104.010 0.0 0 0 0 0 620168
HMS 103.6 1 S
MEK 37.9 1 P
MEK 62.9 1 S
WMP 67.4267 1 P
YTS 32.0079 1 P
YTS 53.5 1 S
# 2002 10 19 11 11 32.20 25.550 102.130 0.0 0 0 0 0 620169
EMS 67.3248 1 P
GDS 70.396 1 P
HMS 69.2 1 P
HWS 64.1 1 P
HWS 112.7 1 S
JJS 86.5673 1 P
MDS 71.3089 1 P
MEK 96.9251 1 P
WMP 59.5091 1 P
WMP 109.4 1 S
XJP 61.9 1 P
YGD 74.7523 1 P
YZP 81.69 1 P
# 2002 10 20 1 19 56.30 29.070 103.540 10.0 0 0 0 0 620170
EMS 12.68 1 P
GDS 35.9651 1 P
GDS 60.2 1 S
JJS 37.5 1 P
JJS 63.7 1 S
YZP 33.4 1 P
YZP 56.6 1 S
ZJG 47.6 1 P
ZJG 81.5 1 S
# 2002 10 23 3 13 9.60 28.430 105.490 0.0 0 0 0 0 620171
HMS 30.4 1 P
HMS 51 1 S
HWS 19.4 1 P
HWS 32.3 1 S
JJS 46.9 1 P
JJS 79.1 1 S
MDS 48.7479 1 P
WMP 34.7 1 P
WMP 58.7 1 S
YGD 38.4017 1 P
YGD 67.5 1 S
# 2002 10 24 20 51 33.60 29.250 101.050 2.0 0 0 0 0 620172
EMS 41.1591 1 P
GDS 21.2 1 P
GDS 34.6 1 S
HMS 53.9643 1 P
JJS 59.07 1 P
MDS 37.5526 1 P
MEK 50.43 1 P
WMP 46.9 1 P
WMP 78.4 1 S
YGD 50.6178 1 P
YZP 49.54 1 P
# 2002 11 11 17 4 42.00 30.510 99.550 0.0 0 0 0 0 620173
GDS 40.4 1 P
GDS 67.1 1 S
JJS 68.6 1 P
JJS 131.2 1 S
MDS 53.3423 1 P
MEK 46 1 P
MEK 76 1 S
WMP 66.9 1 P
WMP 122.9 1 S
XJP 54.5 1 P
XJP 94.4 1 S
YGD 64.3 1 P
YGD 120.3 1 S
YZP 58.3 1 P
YZP 101.2 1 S
# 2002 11 13 15 57 36.45 26.545 106.950 5.0 0 0 0 0 620174
EMS 76.3291 1 P
JJS 90.1635 1 P
MDS 79.4861 1 P
WMP 71.9771 1 P
XJP 73.0217 1 P
YTS 105.133 1 P
ZJG 96.706 1 P
# 2002 11 16 16 17 59.20 31.040 103.370 11.0 0 0 0 0 620175
EMS 29.5 1 P
EMS 49.8 1 S
GDS 34.8 1 P
GDS 60.5 1 S
HMS 31.2 1 P
HMS 52.4 1 S
JJS 16.4 1 P
JJS 28.1 1 S
MDS 23.7496 1 P
MEK 29.3 1 P
MEK 48.7 1 S
WMP 37.2 1 P
WMP 64.4 1 S
XJP 36.8 1 P
XJP 62.6 1 S
YGD 19.8 1 P
YGD 32.9 1 S
YTS 39.2 1 P
YTS 67.9 1 S
YZP 6.6 1 P
YZP 10.7 1 S
ZJG 23.6 1 P
ZJG 39.2 1 S
# 2002 11 20 13 44 56.40 33.550 102.500 0.0 0 0 0 0 620176
JJS 59.5937 1 P
YTS 56.7792 1 P
# 2002 11 25 6 10 39.15 31.137 98.477 5.0 0 0 0 0 620177
EMS 82.0357 1 P
GDS 61.8797 1 P
HMS 91.757 1 P
JJS 90.4174 1 P
JJS 154.029 1 S
LZZ 108.596 1 P
MDS 75.0899 1 P
MEK 97.2908 1 S
WMP 88.3962 1 P
WMP 148.546 1 S
XJP 76.1324 1 P
YGD 85.8092 1 P
YZP 78.4652 1 P
YZP 127.178 1 S
ZJG 92.5805 1 P
ZJG 160.964 1 S
# 2002 11 26 17 55 23.10 30.580 103.220 0.0 0 0 0 0 620178
EMS 29.5 1 P
EMS 48.5 1 S
GDS 30.9 1 P
GDS 50.8 1 S
HMS 33.5 1 P
HMS 55.3 1 S
HWS 47.6334 1 P
JJS 22.7 1 P
JJS 37.3 1 S
LZZ 47.7422 1 P
MEK 28.9348 1 P
MEK 46.1 1 S
WMP 38 1 P
WMP 64.2 1 S
XJP 57.2 1 S
YGD 22.4 1 P
YGD 36.4 1 S
YTS 44.175 1 P
YZP 7 1 P
YZP 10.4 1 S
ZJG 29.1 1 P
ZJG 47.9 1 S
# 2002 12 12 1 9 19.90 33.060 103.560 0.0 0 0 0 0 620179
EMS 68.6163 1 P
HMS 62.2091 1 P
HWS 75.8338 1 P
JJS 42.7 1 P
JJS 72.8 1 S
MDS 61.1 1 P
MEK 38.57 1 P
WMP 68.5884 1 P
XJP 67.0612 1 P
YGD 56 1 P
YGD 92.6 1 S
YTS 32.69 1 P
ZJG 30.64 1 P
