# 2003 10 13 15 44 52.60 28.300 103.180 9.0 0 0 0 0 620258
EMS 23.2 1 P
EMS 37.8 1 S
GDS 37.9 1 P
GDS 63.3 1 S
HMS 29.2 1 P
HMS 48.4 1 S
HWS 26 1 P
HWS 43.1 1 S
JJS 48.41 1 P
LZZ 47.4196 1 P
MDS 33.4 1 P
MEK 62.22 1 P
WMP 15.9 1 P
WMP 26.1 1 S
XJP 20.4 1 P
XJP 33.7 1 S
YGD 35 1 P
YGD 59.2 1 S
YZP 43.6 1 P
YZP 75.4 1 S
ZJG 58.24 1 P
# 2003 10 15 23 18 9.30 27.140 103.060 5.0 0 0 0 0 620259
EMS 45.1 1 P
EMS 74.7 1 S
HMS 46.7 1 P
HMS 78 1 S
HWS 37.6 1 P
HWS 62.6 1 S
JJS 74.59 1 P
MDS 51.8593 1 P
MEK 68.9642 1 P
WMP 37 1 P
WMP 61.7 1 S
XJP 41.6 1 P
XJP 69.5 1 S
YGD 52.3 1 P
YZP 61.2065 1 P
# 2003 10 16 3 56 28.70 26.000 101.160 0.0 0 0 0 0 620260
GDS 70.3 1 P
GDS 120.5 1 S
HMS 76.8144 1 P
JJS 90.7657 1 P
MDS 74.9289 1 P
WMP 65.7 1 P
WMP 112.2 1 S
XJP 64.2 1 P
XJP 109 1 S
YZP 85.65 1 P
# 2003 10 16 12 28 2.00 26.000 101.160 0.0 0 0 0 0 620261
EMS 73.32 1 P
GDS 74.3 1 P
GDS 125.6 1 S
HMS 78.81 1 P
HWS 72.53 1 P
JJS 94.16 1 P
LZZ 90.11 1 P
MDS 77.07 1 P
MEK 98.36 1 P
WMP 67.9 1 P
WMP 115 1 S
XJP 66.3 1 P
XJP 111.6 1 S
YGD 82.33 1 P
YTS 116.49 1 P
YZP 87.69 1 P
ZJG 103.69 1 P
# 2003 10 16 13 7 34.40 26.000 101.160 0.0 0 0 0 0 620262
EMS 69.9363 1 P
GDS 72 1 P
GDS 122.2 1 S
HMS 74.0716 1 P
JJS 90.2164 1 P
MDS 74.35 1 P
WMP 64.6 1 P
XJP 63.1 1 P
XJP 107.7 1 S
YZP 84.8 1 P
ZJG 99.7566 1 P
# 2003 10 16 22 41 31.70 26.050 101.030 13.0 0 0 0 0 620263
EMS 71.3155 1 P
GDS 70.5 1 P
GDS 121.1 1 S
HMS 76.06 1 P
HWS 70.2623 1 P
JJS 92.6418 1 P
LZZ 89.1147 1 P
MDS 75.6 1 P
MEK 96.11 1 P
WMP 65.9 1 P
WMP 113.5 1 S
XJP 64 1 P
XJP 110.5 1 S
YGD 80.2529 1 P
YZP 86.01 1 P
ZJG 101.922 1 P
# 2003 10 17 0 14 38.70 26.000 101.170 0.0 0 0 0 0 620264
EMS 72 1 P
EMS 122.4 1 S
HMS 75.2649 1 P
MDS 75.06 1 P
WMP 66.11 1 P
XJP 63.9 1 P
XJP 108.9 1 S
YZP 85.39 1 P
ZJG 100.032 1 P
# 2003 10 19 21 1 12.40 26.000 101.170 0.0 0 0 0 0 620265
EMS 69.9777 1 P
GDS 70.9562 1 P
HMS 76.05 1 P
HWS 71.9346 1 P
JJS 92.53 1 P
MDS 75.07 1 P
MEK 95.99 1 P
WMP 66.55 1 P
XJP 63.7 1 P
XJP 110.4 1 S
YGD 78.94 1 P
YZP 84.6548 1 P
ZJG 101.99 1 P
# 2003 10 22 4 42 20.80 27.160 100.560 0.0 0 0 0 0 620266
EMS 58.7 1 P
EMS 101.6 1 S
GDS 56.3 1 P
GDS 97 1 S
HMS 66.3629 1 P
MDS 60.55 1 P
WMP 56.8 1 P
WMP 98.5 1 S
YZP 71.2998 1 P
# 2003 10 24 11 36 19.80 30.290 102.450 0.0 0 0 0 0 620267
EMS 25.1 1 P
EMS 41.7 1 S
GDS 17.5 1 P
GDS 29.1 1 S
HMS 34.7 1 P
HMS 57.9 1 S
HWS 47.1 1 P
HWS 83.1 1 S
JJS 33.5 1 P
JJS 56 1 S
LZZ 52.1 1 P
LZZ 99.9 1 S
MDS 12.99 1 P
MEK 30.2 1 P
MEK 50.2 1 S
WMP 34.7 1 P
WMP 59.9 1 S
YGD 25.9668 1 P
YGD 47 1 S
YTS 54.1 1 P
YTS 102.5 1 S
YZP 17.8 1 P
YZP 29.6 1 S
ZJG 40 1 P
ZJG 69.5 1 S
# 2003 10 26 13 50 11.90 29.220 105.490 9.0 0 0 0 0 620268
EMS 38.2 1 P
EMS 65.7 1 S
HMS 24.9 1 P
HMS 41.3 1 S
JJS 37.2 1 P
JJS 64 1 S
LZZ 7.7 1 P
LZZ 12.4 1 S
MDS 44.5976 1 P
WMP 33.3 1 P
WMP 57 1 S
YGD 32.8 1 P
YGD 55.7 1 S
YZP 43.3 1 P
YZP 77.5 1 S
# 2003 10 27 2 16 52.90 26.010 101.160 0.0 0 0 0 0 620269
MDS 71.53 1 P
WMP 65.8 1 P
WMP 121.6 1 S
# 2003 10 29 1 55 57.20 29.340 102.040 0.0 0 0 0 0 620270
EMS 23.6 1 P
EMS 39.6 1 S
GDS 9.9 1 P
GDS 16.7 1 S
HMS 37.6 1 P
HMS 64.9 1 S
HWS 45.21 1 P
JJS 48.4 1 P
MDS 20.08 1 P
MEK 43.5027 1 P
WMP 30.4 1 P
WMP 50.7 1 S
XJP 12.9 1 P
XJP 21.5 1 S
YGD 35.6 1 P
YGD 61.3 1 S
YZP 35.48 1 P
ZJG 57.4967 1 P
# 2003 10 30 3 52 30.30 29.340 102.050 0.0 0 0 0 0 620271
EMS 24.08 1 P
GDS 10.46 1 P
HMS 38 1 P
HMS 65.3 1 S
HWS 45.63 1 P
JJS 48.1778 1 P
MDS 20.81 1 P
MEK 43.9536 1 P
WMP 30.8 1 P
WMP 51.4 1 S
XJP 13.37 1 P
YGD 35.9 1 P
YGD 61.7 1 S
YZP 34.9 1 P
YZP 59.7 1 S
# 2003 10 30 23 16 12.80 29.120 102.150 0.0 0 0 0 0 620272
EMS 22.1 1 P
EMS 37.7 1 S
GDS 16.6 1 P
GDS 28.1 1 S
HMS 36.31 1 P
HWS 40.64 1 P
JJS 46.7 1 P
LZZ 55.56 1 P
MDS 22.04 1 P
MEK 50.1293 1 P
WMP 26.7 1 P
WMP 44.6 1 S
XJP 10.5 1 P
XJP 17.4 1 S
YGD 36.04 1 P
YTS 68.9045 1 P
YZP 37.44 1 P
ZJG 54.71 1 P
# 2003 10 31 18 9 21.70 26.010 101.130 0.0 0 0 0 0 620273
EMS 69.9732 1 P
GDS 70.6529 1 P
HMS 75.14 1 P
HWS 68.8968 1 P
JJS 91.8218 1 P
LZZ 88.61 1 P
MDS 75.17 1 P
MEK 95.63 1 P
WMP 65.62 1 P
XJP 63.8 1 P
XJP 115 1 S
YGD 80.5641 1 P
YZP 85.98 1 P
ZJG 101.31 1 P
# 2003 11 4 21 43 31.60 26.340 100.590 0.0 0 0 0 0 620274
EMS 64.44 1 P
GDS 61.1162 1 P
HMS 71.84 1 P
HWS 67.9656 1 P
JJS 85.89 1 P
MDS 67.15 1 P
MEK 87.2538 1 P
WMP 61.18 1 P
XJP 57 1 P
XJP 101.9 1 S
YGD 75.2 1 P
YZP 78.8 1 P
# 2003 11 4 22 38 11.40 26.340 100.560 0.0 0 0 0 0 620275
EMS 64.81 1 P
GDS 61.7194 1 P
HMS 70.39 1 P
HWS 66.8564 1 P
MDS 66.76 1 P
WMP 60.34 1 P
XJP 56.7 1 P
YGD 74.91 1 P
YZP 78.06 1 P
# 2003 11 14 19 3 42.40 27.140 103.360 0.0 0 0 0 0 620276
EMS 45.2 1 P
EMS 78.2 1 S
GDS 59.7401 1 P
HMS 45 1 P
HMS 78.1 1 S
HWS 34.8 1 P
HWS 58.9 1 S
JJS 70.735 1 P
LZZ 52.99 1 P
MDS 51.4102 1 P
WMP 36.4 1 P
WMP 61.8 1 S
YGD 51.1656 1 P
YZP 61.2871 1 P
ZJG 74.64 1 P
# 2003 11 15 18 50 8.40 27.130 103.360 0.0 0 0 0 0 620277
EMS 44.8 1 P
EMS 77 1 S
GDS 55.9487 1 P
HMS 44.3 1 P
HMS 76.5 1 S
HWS 34.1 1 P
HWS 58.4 1 S
JJS 65.1088 1 P
LZZ 52.7 1 P
MDS 51.4102 1 P
WMP 36.5 1 P
WMP 62 1 S
XJP 42.7 1 P
XJP 73.9 1 S
YGD 52.68 1 P
YTS 87.12 1 P
YZP 61.3 1 P
ZJG 74.5 1 P
# 2003 11 17 21 50 1.90 27.130 103.360 0.0 0 0 0 0 620278
EMS 43.7 1 P
EMS 75.8 1 S
GDS 55.97 1 P
HMS 44 1 P
HMS 74.7 1 S
HWS 33.9 1 P
HWS 57.6 1 S
LZZ 52.2 1 P
MDS 51.7 1 P
MEK 78.96 1 P
WMP 35.8 1 P
WMP 61.7 1 S
XJP 42.7 1 P
XJP 73.1 1 S
YGD 52.3 1 P
YGD 89.6 1 S
YTS 86.64 1 P
YZP 60.88 1 P
ZJG 74.27 1 P
# 2003 11 19 12 40 33.10 29.150 101.120 0.0 0 0 0 0 620279
EMS 38.8 1 P
EMS 66.3 1 S
GDS 20.7 1 P
GDS 34.3 1 S
HMS 51.8 1 P
HMS 90.2 1 S
HWS 59.3579 1 P
MEK 52.3 1 P
MEK 90.5 1 S
WMP 44.3 1 P
WMP 76.2 1 S
YZP 48.6 1 P
YZP 84.3 1 S
# 2003 11 20 16 56 35.40 27.110 103.360 0.0 0 0 0 0 620280
EMS 45 1 P
EMS 77.8 1 S
HMS 48.5 1 P
HMS 80.6 1 S
HWS 34.5 1 P
HWS 58.8 1 S
LZZ 52.04 1 P
MDS 52.8328 1 P
WMP 36.1 1 P
WMP 62 1 S
YGD 52.5 1 P
YGD 94.9 1 S
YZP 60.8 1 P
YZP 115.5 1 S
ZJG 74.29 1 P
# 2003 11 21 9 24 28.60 27.140 103.360 0.0 0 0 0 0 620281
EMS 47.7 1 P
EMS 79.1 1 S
GDS 60.7 1 P
GDS 100.8 1 S
HMS 47 1 P
HMS 84 1 S
HWS 36.6 1 P
HWS 60.6 1 S
JJS 76 1 P
JJS 126.1 1 S
MDS 51.7425 1 P
WMP 38.3 1 P
WMP 63.6 1 S
XJP 46.6 1 P
XJP 77.3 1 S
YGD 53.6994 1 P
YZP 61.7718 1 P
ZJG 76.49 1 P
# 2003 11 22 21 19 4.20 27.110 103.350 0.0 0 0 0 0 620282
EMS 47.6 1 P
EMS 79.4 1 S
GDS 61.1 1 P
GDS 101.6 1 S
HMS 44.9974 1 P
HMS 82.1 1 S
HWS 35.6 1 P
HWS 59.4 1 S
JJS 64.6395 1 P
LZZ 52.2292 1 P
LZZ 101.4 1 S
MDS 53.29 1 P
MEK 79.8059 1 P
WMP 37.1508 1 P
WMP 62.8 1 S
YGD 53.2206 1 P
YGD 96 1 S
YTS 87.66 1 P
YZP 61.86 1 P
ZJG 75.25 1 P
# 2003 11 26 7 30 10.70 28.110 101.100 0.0 0 0 0 0 620283
EMS 46.9 1 P
EMS 80.1 1 S
GDS 38.2 1 P
GDS 68.3 1 S
HMS 56.3 1 P
HMS 98.9 1 S
HWS 55.8 1 P
HWS 101.4 1 S
JJS 67.5857 1 P
LZZ 70.0319 1 P
MEK 69.0534 1 P
WMP 46.8 1 P
WMP 81.3 1 S
YGD 57.5 1 P
YGD 103.7 1 S
YZP 59.9 1 P
YZP 108.3 1 S
ZJG 76.1474 1 P
# 2003 11 26 23 2 58.30 29.310 102.010 0.0 0 0 0 0 620284
EMS 23.9 1 P
EMS 39.9 1 S
GDS 10.3 1 P
GDS 17.4 1 S
HMS 37.9 1 P
HMS 64.9 1 S
HWS 45.1 1 P
HWS 76.6 1 S
JJS 44.3888 1 P
LZZ 57.109 1 P
MDS 19.91 1 P
MEK 43.66 1 P
WMP 30.5 1 P
WMP 51.2 1 S
XJP 13 1 P
XJP 21.8 1 S
YGD 35.5734 1 P
YGD 61.6 1 S
YZP 34.8 1 P
YZP 59.7 1 S
# 2003 11 27 10 6 49.60 27.140 103.330 0.0 0 0 0 0 620285
EMS 45.1 1 P
EMS 75.7 1 S
HMS 44.1808 1 P
HWS 33.3 1 P
HWS 56.2 1 S
WMP 35.4 1 P
WMP 60.4 1 S
XJP 43.4 1 P
XJP 74.7 1 S
# 2003 11 27 14 14 53.20 29.280 101.000 0.0 0 0 0 0 620286
EMS 40.7 1 P
EMS 70.6 1 S
GDS 20.4 1 P
GDS 33.8 1 S
HMS 52.9 1 P
HMS 94.3 1 S
HWS 57.68 1 P
JJS 58.6 1 P
LZZ 70.072 1 P
MDS 36.67 1 P
MEK 49 1 P
MEK 85.8 1 S
WMP 46.4 1 P
WMP 80.4 1 S
XJP 30.3 1 P
XJP 50.4 1 S
YGD 50.3 1 P
YGD 90.5 1 S
YTS 82.3029 1 P
YZP 48.9 1 P
YZP 84.3 1 S
ZJG 65.9135 1 P
# 2003 11 28 5 40 44.30 29.280 101.000 0.0 0 0 0 0 620287
GDS 20.9 1 P
GDS 34.3 1 S
JJS 58.1364 1 P
MEK 48.8409 1 P
WMP 46.89 1 P
XJP 30.9 1 P
XJP 51.4 1 S
YZP 49.51 1 P
# 2003 11 28 10 49 55.00 27.140 103.360 5.0 0 0 0 0 620288
EMS 44.6 1 P
EMS 76.4 1 S
HMS 45.4 1 P
HMS 77.5 1 S
HWS 33.4 1 P
HWS 57 1 S
JJS 70.9119 1 P
LZZ 52.2741 1 P
WMP 35.5 1 P
WMP 61.1 1 S
XJP 43.6 1 P
XJP 74.6 1 S
# 2003 11 28 23 42 22.80 29.340 102.030 0.0 0 0 0 0 620289
EMS 23.7 1 P
EMS 39.5 1 S
GDS 10 1 P
GDS 16.7 1 S
HMS 37.8 1 P
HMS 65 1 S
HWS 44.96 1 P
JJS 45.44 1 P
LZZ 56.99 1 P
MDS 19.76 1 P
MEK 43.61 1 P
WMP 30.4 1 P
WMP 50.8 1 S
XJP 13 1 P
XJP 21.7 1 S
YGD 35.8 1 P
YGD 60.8 1 S
YZP 34.8 1 P
YZP 59.3 1 S
ZJG 52.7382 1 P
# 2003 11 29 3 15 56.40 27.130 103.360 0.0 0 0 0 0 620290
EMS 46.3 1 P
EMS 78.3 1 S
HMS 44.9 1 P
HMS 79 1 S
HWS 34.4 1 P
HWS 58.3 1 S
JJS 73.47 1 P
LZZ 53.64 1 P
MDS 52.5676 1 P
WMP 36.5 1 P
WMP 62.7 1 S
XJP 44.9 1 P
XJP 76 1 S
YZP 61.09 1 P
ZJG 75.63 1 P
# 2003 11 29 3 58 26.40 27.150 103.360 0.0 0 0 0 0 620291
EMS 43.6 1 P
EMS 78.3 1 S
HMS 45.3 1 P
HMS 79.4 1 S
HWS 34.7 1 P
HWS 58.5 1 S
LZZ 53.83 1 P
MDS 53.0164 1 P
WMP 36.5 1 P
WMP 62.3 1 S
XJP 44.8 1 P
XJP 76.2 1 S
YZP 61.27 1 P
# 2003 11 29 22 29 2.90 27.140 103.380 0.0 0 0 0 0 620292
EMS 46.3874 1 P
GDS 60.1008 1 P
HMS 45.21 1 P
HWS 35.3 1 P
HWS 59 1 S
JJS 65.8965 1 P
LZZ 54.52 1 P
MDS 53.36 1 P
WMP 37.3 1 P
WMP 62 1 S
XJP 44.1 1 P
XJP 77.1 1 S
YGD 53.9 1 P
YZP 62.01 1 P
# 2003 12 1 21 38 56.70 27.130 103.350 0.0 0 0 0 0 620293
EMS 43.7 1 P
EMS 77.1 1 S
GDS 56.4319 1 P
HMS 43.9 1 P
HMS 77.1 1 S
HWS 33.3 1 P
HWS 57.1 1 S
JJS 63.8519 1 P
LZZ 52.7471 1 P
MDS 51.758 1 P
WMP 35.6 1 P
WMP 61.7 1 S
XJP 43.3 1 P
XJP 74.3 1 S
YGD 50.6 1 P
YGD 89.8 1 S
YZP 59.87 1 P
ZJG 73.43 1 P
# 2003 12 2 23 26 46.20 30.520 101.160 0.0 0 0 0 0 620294
EMS 43.4 1 P
EMS 75.1 1 S
GDS 19.9 1 P
GDS 33.2 1 S
HMS 52.7 1 P
HMS 93.7 1 S
HWS 63.17 1 P
JJS 49.8 1 P
JJS 89.9 1 S
LZZ 69.25 1 P
MDS 33.18 1 P
WMP 52.3 1 P
WMP 91 1 S
XJP 37.4 1 P
XJP 65.7 1 S
YGD 46 1 P
YGD 82.6 1 S
YTS 68.029 1 P
YZP 38 1 P
YZP 64.3 1 S
ZJG 53.1 1 P
ZJG 95.9 1 S
# 2003 12 4 11 15 39.30 27.120 103.360 0.0 0 0 0 0 620295
EMS 44.2 1 P
EMS 77.2 1 S
HMS 44.8 1 P
HMS 80.7 1 S
HWS 34.4 1 P
HWS 60.1 1 S
LZZ 53.4169 1 P
MDS 51.3517 1 P
WMP 35.8 1 P
WMP 61.9 1 S
# 2003 12 5 7 55 59.00 27.130 103.360 0.0 0 0 0 0 620296
EMS 45.7 1 P
EMS 77.3 1 S
MDS 54.73 1 P
WMP 35.7 1 P
WMP 61.1 1 S
XJP 44.3 1 P
XJP 74.6 1 S
# 2003 12 8 2 44 41.50 27.230 103.370 0.0 0 0 0 0 620297
WMP 35.2 1 P
WMP 59.8 1 S
XJP 43.1 1 P
XJP 74.8 1 S
# 2003 12 10 16 53 59.00 30.140 103.060 5.0 0 0 0 0 620298
EMS 16.2 1 P
EMS 26.2 1 S
GDS 20.2 1 P
GDS 33 1 S
HMS 25.7 1 P
HMS 43 1 S
HWS 38.8501 1 P
JJS 29.4 1 P
JJS 49.2 1 S
LZZ 44.28 1 P
MDS 7.33 1 P
WMP 26.1 1 P
WMP 43.8 1 S
XJP 19.6 1 P
XJP 32.2 1 S
YGD 18.7 1 P
YGD 30.9 1 S
YZP 16.9 1 P
YZP 27.7 1 S
ZJG 36.99 1 P
# 2003 12 14 16 41 16.00 27.200 103.360 5.0 0 0 0 0 620299
EMS 45.8 1 P
EMS 76.2 1 S
HMS 42.719 1 P
HWS 33.5 1 P
HWS 56.4 1 S
JJS 63.359 1 P
LZZ 52.3978 1 P
MDS 51.3559 1 P
WMP 35.3 1 P
WMP 59 1 S
XJP 43.7 1 P
XJP 73.6 1 S
ZJG 73.75 1 P
# 2003 12 18 21 33 15.90 28.090 103.510 7.0 0 0 0 0 620300
EMS 30 1 P
EMS 49.5 1 S
GDS 46.55 1 P
HMS 29.8 1 P
HMS 49.8 1 S
HWS 19.6 1 P
HWS 32.4 1 S
LZZ 41.17 1 P
MDS 39.73 1 P
WMP 19.4 1 P
WMP 31.9 1 S
XJP 31 1 P
XJP 51.2 1 S
YGD 38.8 1 P
YGD 66.3 1 S
ZJG 60.3074 1 P
# 2003 12 19 22 55 18.50 27.410 100.540 8.0 0 0 0 0 620301
WMP 57.9 1 P
WMP 97.1 1 S
XJP 48 1 P
XJP 80.3 1 S
# 2003 12 20 2 18 15.80 27.370 100.460 0.0 0 0 0 0 620302
GDS 50.7 1 P
GDS 86.5 1 S
HMS 63.744 1 P
MDS 57.71 1 P
WMP 54.8 1 P
XJP 46.4 1 P
YGD 64.4779 1 P
YZP 69.2781 1 P
# 2003 12 20 2 26 53.00 27.420 100.480 0.0 0 0 0 0 620303
GDS 50.7 1 P
GDS 86.7 1 S
MDS 57.5335 1 P
WMP 54.6 1 P
XJP 46.7 1 P
XJP 78.9 1 S
# 2003 12 20 9 4 57.30 27.540 102.420 6.0 0 0 0 0 620304
HMS 43.2 1 P
HWS 39.8 1 P
HWS 65.8 1 S
MDS 43.7734 1 P
WMP 30.8 1 P
WMP 53.5 1 S
XJP 30.1 1 P
XJP 49.6 1 S
YZP 54.5 1 P
YZP 99.2 1 S
# 2003 12 21 15 14 22.00 26.520 103.400 0.0 0 0 0 0 620305
EMS 50.8 1 P
EMS 88.7 1 S
GDS 60.4579 1 P
HMS 49.9 1 P
JJS 69.83 1 P
MDS 57.96 1 P
WMP 41.8 1 P
WMP 72.3 1 S
XJP 48.5 1 P
XJP 84 1 S
YGD 58 1 P
YZP 66.33 1 P
ZJG 79.82 1 P
# 2003 12 23 0 37 14.00 29.270 101.000 0.0 0 0 0 0 620306
GDS 20.7 1 P
GDS 34.1 1 S
HMS 53.2736 1 P
HMS 95.4 1 S
MDS 36.84 1 P
WMP 48.5 1 P
WMP 80.4 1 S
XJP 30.412 1 P
XJP 51 1 S
# 2003 12 25 1 10 33.00 29.240 101.000 0.0 0 0 0 0 620307
EMS 41.4 1 P
EMS 68.8 1 S
GDS 20.8 1 P
GDS 34.4 1 S
HMS 53.2351 1 P
HMS 95.7 1 S
WMP 46.7242 1 P
WMP 79.7 1 S
XJP 30.4572 1 P
XJP 51.4 1 S
YGD 52.1296 1 P
YGD 90.4 1 S
YZP 51.8 1 P
YZP 86.3 1 S
# 2003 12 25 11 22 11.10 29.440 101.360 0.0 0 0 0 0 620308
EMS 32.5 1 P
EMS 53.9 1 S
GDS 8.9 1 P
HMS 45.4538 1 P
HMS 78.5 1 S
HWS 53.39 1 P
JJS 51.4784 1 P
MDS 26.15 1 P
WMP 39.5061 1 P
WMP 68.8 1 S
YGD 42.4472 1 P
YGD 72.8 1 S
YZP 39.4865 1 P
YZP 67.2 1 S
ZJG 57.4523 1 P
# 2004 1 4 15 10 47.80 27.030 103.080 0.0 0 0 0 0 620309
EMS 49 1 P
GDS 53.37 1 P
HMS 50.6 1 P
HWS 40.7 1 P
JJS 69.6127 1 P
LIT 67.5842 1 P
LZZ 59.73 1 P
MDS 55.0738 1 P
MEK 81.1714 1 P
WMP 40.52 1 P
YZP 63.9888 1 P
ZJG 78.69 1 P
# 2004 1 11 9 52 32.05 27.250 100.258 11.0 0 0 0 0 620310
HMS 79.027 1 P
MDS 72.6261 1 P
MDS 117.13 1 S
WMP 69.4773 1 P
WMP 110.475 1 S
XJP 61.8249 1 P
# 2004 1 18 15 48 38.80 28.530 103.360 5.0 0 0 0 0 620311
EMS 15.2 1 P
EMS 25.1 1 S
GDS 35.2182 1 P
GDS 58.9 1 S
HMS 20.8 1 P
HMS 34 1 S
HWS 21.6 1 P
HWS 35.6 1 S
JJS 41.6188 1 P
LZZ 40.4 1 P
MDS 26.38 1 P
WMP 6.5 1 P
XJP 18.1 1 P
XJP 30 1 S
YGD 27.8161 1 P
YGD 47.3 1 S
YZP 37.3041 1 P
YZP 64.2 1 S
# 2004 1 19 21 38 3.60 31.560 101.270 10.0 0 0 0 0 620312
EMS 57 1 P
GDS 38.54 1 P
HMS 67.16 1 P
JJS 55.84 1 P
MDS 46.34 1 P
MEK 14.0095 1 P
MEK 23.2 1 S
WMP 65.2681 1 P
XJP 54.31 1 P
YGD 56.3058 1 P
YZP 42.78 1 P
ZJG 53.6275 1 P
# 2004 1 23 7 52 50.16 26.069 101.529 5.0 0 0 0 0 620313
EMS 72.9096 1 P
GDS 74.501 1 P
HMS 78.637 1 P
JJS 94.4258 1 P
LZZ 90.5947 1 P
MDS 77.9916 1 P
MDS 131.563 1 S
MEK 98.8615 1 P
MEK 197.895 1 S
WMP 68.2859 1 P
WMP 123.966 1 S
XJP 66.637 1 P
XJP 113.152 1 S
YZP 88.2377 1 P
ZJG 103.933 1 P
# 2004 1 23 13 45 11.96 26.486 102.433 12.0 0 0 0 0 620314
JJS 87.3133 1 P
MDS 67.6701 1 P
XJP 58.7492 1 P
# 2004 1 31 12 57 34.20 28.110 104.400 7.0 0 0 0 0 620315
EMS 35.2 1 P
EMS 59.5 1 S
GDS 53.45 1 P
HMS 29.9 1 P
HMS 50.1 1 S
HWS 12.1 1 P
HWS 21.1 1 S
JJS 57.3994 1 P
LZZ 36.8 1 P
LZZ 61.4 1 S
MDS 44.3746 1 P
WMP 25.7 1 P
WMP 43.4 1 S
XJP 39.59 1 P
YGD 40.2591 1 P
YZP 50.8845 1 P
# 2004 1 31 20 53 5.80 29.560 103.190 0.0 0 0 0 0 620316
EMS 9.1 1 P
EMS 14.8 1 S
GDS 23.5 1 P
GDS 38.5 1 S
HMS 19.2 1 P
HMS 31.7 1 S
HWS 31.4775 1 P
HWS 52.2 1 S
JJS 28.9416 1 P
JJS 49.2 1 S
LZZ 39.46 1 P
MDS 10.17 1 P
MEK 41.7624 1 P
WMP 18.1 1 P
WMP 29.8 1 S
XJP 15.1 1 P
XJP 25.2 1 S
YGD 16.4 1 P
YGD 27.4 1 S
YZP 21.3 1 P
YZP 35.1 1 S
ZJG 38.3172 1 P
# 2004 2 1 2 47 21.80 27.705 100.855 5.0 0 0 0 0 620317
EMS 59.3037 1 P
EMS 100.771 1 S
HMS 66.3016 1 P
HMS 117.346 1 S
HWS 63.6948 1 P
HWS 112.614 1 S
JJS 81.0969 1 P
MDS 60.8682 1 P
MDS 106.186 1 S
WMP 57.0115 1 P
WMP 96.5587 1 S
XJP 50.4172 1 P
XJP 83.2533 1 S
YZP 73.4417 1 P
# 2004 2 1 12 35 15.70 28.080 104.420 4.0 0 0 0 0 620318
EMS 35.4 1 P
EMS 58.6 1 S
GDS 53.3039 1 P
HMS 30.2 1 P
HMS 50.4 1 S
HWS 12.2 1 P
HWS 20.8 1 S
MDS 44.2709 1 P
XJP 39.3 1 P
XJP 65.2 1 S
# 2004 2 20 13 56 12.40 31.040 100.400 5.0 0 0 0 0 620319
GDS 29.2492 1 P
GDS 49 1 S
LIT 22.52 1 P
MEK 30.4874 1 P
MEK 50.8 1 S
WMP 62.9681 1 P
WMP 108 1 S
YZP 48.1556 1 P
YZP 81.2 1 S
# 2004 3 1 10 15 51.00 28.020 103.240 5.0 0 0 0 0 620320
EMS 30.9 1 P
EMS 50.5 1 S
GDS 44.5 1 P
GDS 74.7 1 S
HMS 33.7 1 P
HMS 57.4 1 S
HWS 26.01 1 P
JJS 56.38 1 P
LIT 60.37 1 P
LZZ 46.93 1 P
MDS 40.35 1 P
MEK 67.3 1 P
WMP 20.9 1 P
WMP 35.5 1 S
XJP 27.7 1 P
XJP 46.6 1 S
YGD 41.4 1 P
YGD 70.6 1 S
YTS 75.7993 1 P
YZP 49.1 1 P
YZP 85.4 1 S
ZJG 63.58 1 P
# 2004 3 5 19 1 14.90 27.270 101.070 0.0 0 0 0 0 620321
EMS 56.0057 1 P
GDS 52.55 1 P
HMS 66.2652 1 P
LIT 54.34 1 P
MDS 57.8764 1 P
WMP 54.75 1 P
XJP 45.9 1 P
XJP 77.4 1 S
# 2004 3 5 22 59 58.90 27.140 103.390 4.0 0 0 0 0 620322
EMS 47.494 1 P
HMS 45.8 1 P
HMS 77.7 1 S
HWS 35 1 P
HWS 58.9 1 S
LZZ 54.6 1 P
MDS 52.4869 1 P
WMP 37.3 1 P
WMP 62.8 1 S
XJP 44 1 P
XJP 74.8 1 S
# 2004 3 16 21 6 56.70 27.100 103.040 0.0 0 0 0 0 620323
EMS 46.3 1 P
EMS 80.9 1 S
GDS 55.1371 1 P
HMS 47.3 1 P
HMS 86.3 1 S
HWS 40.4 1 P
HWS 68.1 1 S
JJS 65.8303 1 P
LZZ 58.86 1 P
MDS 53.1676 1 P
MEK 77.7667 1 P
XJP 41.1 1 P
XJP 71.2 1 S
YGD 54.1269 1 P
YZP 62.23 1 P
ZJG 76.25 1 P
# 2004 3 24 15 58 49.59 27.790 101.979 5.0 0 0 0 0 620324
HMS 54.9299 1 P
JJS 72.1984 1 P
LZZ 67.8922 1 P
WMP 45.8849 1 P
YZP 65.2226 1 P
ZJG 81.0498 1 P
# 2001 01 01 06 02 28.70 32.2833 105.033 5.000 2.6 0 0 0 3
QCH 5.4 0.5 P
QCH 8.9 0.5 S
PWU 9.5 0.5 P
PWU 14.9 0.5 S
AXI 19.3 0.5 P
AXI 32.4 0.5 S
SPA 24.3 0.5 P
SPA 40.5 0.5 S
JHE 27.3 0.5 P
JHE 45.6 0.5 S
JJS 30.3 1 P
JJS 50.1 1 S
# 2001 01 01 12 42 42.60 31.1667 104.117 7.000 1.2 0 0 0 4
JHE 8.4 0.5 P
JHE 12.4 0.5 S
WCH 10.4 0.5 P
WCH 17.5 0.5 S
MXI 12.2 0.5 P
MXI 20.4 0.5 S
YZP 13 1 P
YZP 21.4 1 S
# 2001 01 01 17 00 20.20 29.1333 102.167 7.000 2.3 0 0 0 5
JLO 12.6 0.5 P
JLO 20.6 0.5 S
GDS 20.3 1 P
GDS 33.6 1 S
GZA 23.8 0.5 P
GZA 38.9 0.5 S
WMP 28.8 1 P
WMP 47.8 1 S
# 2001 01 02 00 02 43.60 29.3667 101.117 9.000 3.0 0 0 0 12
GDS 19.6 1 P
GDS 32.2 1 S
LFG 21.2 0.5 P
LFG 35.6 0.5 S
GZA 22.4 0.5 P
GZA 37.4 0.5 S
SMI 23.4 0.5 P
SMI 38.4 0.5 S
YHZ 23.7 0.5 P
YHZ 40.7 0.5 S
MLI 28.4 0.5 P
MLI 46.4 0.5 S
DFU 28.8 0.5 P
DFU 48.4 0.5 S
XJP 29.4 1 P
XJP 49.4 1 S
DBC 31.1 0.5 P
DBC 52 0.5 S
YYC 35.6 0.5 P
YYC 60.7 0.5 S
XJI 36.4 0.5 P
XJI 60.8 0.5 S
JLO 11.7 0.5 P
JLO 18.8 0.5 S
# 2001 01 03 06 39 30.50 31.9667 103.567 13.000 1.9 0 0 0 36
MXI 8.6 0.5 P
MXI 14.5 0.5 S
HSH 9.5 0.5 P
HSH 15.5 0.5 S
WCH 10.9 0.5 P
WCH 16.9 0.5 S
SPA 12.9 0.5 P
SPA 21.7 0.5 S
PWU 18.7 0.5 P
PWU 31.5 0.5 S
MEK 21.7 1 P
MEK 35.9 1 S
# 2001 01 03 12 57 45.50 29.9333 101.917 9.000 1.7 0 0 0 44
XJP 16.8 1 P
XJP 28.6 1 S
JLO 18.9 0.5 P
XJI 21.5 0.5 P
XJI 35.5 0.5 S
GDS 3.7 1 P
GDS 5.9 1 S
GZA 5.7 0.5 P
GZA 8.9 0.5 S
# 2001 01 04 20 36 11.10 29.5333 102.083 0.000 1.6 0 0 0 82
GZA 9.9 0.5 P
GZA 16.5 0.5 S
SMI 10.9 0.5 P
SMI 17.9 0.5 S
JLO 14.7 0.5 P
JLO 24.2 0.5 S
LFG 17.3 0.5 P
LFG 28 0.5 S
# 2001 01 05 11 40 24.10 27.1167 101.317 10.000 2.3 0 0 0 98
XGS 11.7 0.5 P
XGS 20.7 0.5 S
PUW 13.5 0.5 P
PUW 21.3 0.5 S
PZH 14.5 0.5 P
PZH 23.9 0.5 S
MLI 16.5 0.5 P
MLI 27.3 0.5 S
HTW 18.9 0.5 P
HTW 33 0.5 S
HLI 19.5 0.5 P
HLI 31.9 0.5 S
# 2001 01 06 07 20 10.50 29.3833 101.083 0.000 3.0 0 0 0 115
JLO 12.4 0.5 P
JLO 20.1 0.5 S
GDS 20.3 1 P
GDS 33.3 1 S
LFG 22.3 0.5 P
LFG 37.1 0.5 S
GZA 23.3 0.5 P
GZA 38.1 0.5 S
SMI 23.5 0.5 P
SMI 38.9 0.5 S
YHZ 25 0.5 P
YHZ 41.9 0.5 S
MLI 29.5 0.5 P
MLI 48.5 0.5 S
DFU 29.5 0.5 P
DFU 48.5 0.5 S
XJP 30.2 1 P
XJP 50.9 1 S
DBC 31.9 0.5 P
DBC 53.5 0.5 S
BTA 34.7 0.5 P
BTA 57.3 0.5 S
XJI 37.3 0.5 P
XJI 61.5 0.5 S
# 2001 01 06 10 28 9.70 29.4833 105.867 8.000 3.5 0 0 0 120
GZA 53.7 0.5 P
LZZ 3.2 1 P
LZZ 5.5 1 S
MEK 64.4 1 P
YZW 17.3 0.5 P
YZW 28.3 0.5 S
LZH 17.7 0.5 P
LZH 27.7 0.5 S
SFS 20.9 0.5 P
SFS 35.3 0.5 S
HMS 25.8 1 P
HMS 42.7 1 S
HWS 27 1 P
HWS 45.3 1 S
YGD 31.6 1 P
YGD 54.4 1 S
WMP 35 1 P
WMP 60.6 1 S
MXI 46.1 0.5 P
# 2001 01 07 05 49 4.40 31.7333 104.233 5.000 2.8 0 0 0 133
AXI 9.3 0.5 P
AXI 15 0.5 S
MXI 10.3 0.5 P
MXI 17.4 0.5 S
ZJG 11.6 1 P
ZJG 18.8 1 S
JHE 11.6 0.5 P
JHE 19.1 0.5 S
WCH 14 0.5 P
WCH 23 0.5 S
PWU 16.6 0.5 P
PWU 27 0.5 S
JJS 17.9 1 P
JJS 29.2 1 S
YZP 21.4 1 P
YZP 35.6 1 S
SPA 22.2 0.5 P
SPA 36.5 0.5 S
QCH 22.8 0.5 P
QCH 38 0.5 S
HSH 23 0.5 P
HSH 38.6 0.5 S
YGD 29.6 1 P
YGD 49.4 1 S
MEK 34 1 P
MEK 56.3 1 S
XJI 34.3 0.5 P
XJI 57 0.5 S
# 2001 01 07 07 49 58.60 29.1667 103.683 10.000 2.9 0 0 0 137
WMP 4.7 1 P
WMP 6.7 1 S
EMS 19.7 1 S
HMS 17 1 P
HMS 27.6 1 S
XJP 17.7 1 P
XJP 29.4 1 S
LBO 18.4 0.5 P
LBO 29.4 0.5 S
SFS 21 0.5 P
SFS 34.4 0.5 S
HWS 22.1 1 P
HWS 36.7 1 S
YGD 24.2 1 P
YGD 39.4 1 S
YZW 24.2 0.5 P
YZW 39.8 0.5 S
LZH 25.4 0.5 P
LZH 50.6 0.5 S
BYD 27.6 0.5 P
YHZ 27.9 0.5 P
YHZ 46.3 0.5 S
LFG 29.6 0.5 P
LFG 49.2 0.5 S
GZA 32.4 0.5 P
GZA 54 0.5 S
YZP 35 1 P
YZP 57.6 1 S
