# 2001 03 09 13 01 9.00 31.1833 104.083 5.000 1.7 0 0 0 1602
JHE 6.4 0.5 P
JHE 10.1 0.5 S
WCH 9.6 0.5 P
WCH 16 0.5 S
MXI 12 0.5 P
MXI 20 0.5 S
YZP 13.2 1 P
YZP 22 1 S
# 2001 03 09 14 00 26.70 31.9167 103.683 10.000 2.0 0 0 0 1603
MXI 6.9 0.5 P
MXI 11.5 0.5 S
WCH 8.7 0.5 P
WCH 14.5 0.5 S
HSH 11.9 0.5 P
HSH 19.7 0.5 S
JHE 13.1 0.5 P
JHE 21.2 0.5 S
SPA 14.3 0.5 P
SPA 23.3 0.5 S
AXI 14.7 0.5 P
AXI 24.5 0.5 S
ZJG 16.9 1 P
ZJG 28.8 1 S
PWU 17.5 0.5 P
PWU 28.6 0.5 S
YZP 21.9 1 P
YZP 36 1 S
MEK 23.5 1 P
MEK 38.7 1 S
JJS 24.5 1 P
JJS 40.7 1 S
XJI 28.5 0.5 P
XJI 46.9 0.5 S
# 2001 03 09 15 53 14.50 32.1 101.033 0.000 2.1 0 0 0 1606
RTA 2.3 0.5 P
RTA 4.4 0.5 S
GZI 20.8 0.5 P
GZI 33.8 0.5 S
MEK 21.6 1 P
MEK 35.6 1 S
DFU 23 0.5 P
DFU 38.3 0.5 S
XJI 31.7 0.5 P
XJI 52.3 0.5 S
# 2001 03 09 18 19 10.40 29.4667 101.067 0.000 2.5 0 0 0 1609
JLO 11.5 0.5 P
JLO 19.1 0.5 S
GDS 18.8 1 P
GDS 31.7 1 S
LFG 20.6 0.5 P
LFG 35.9 0.5 S
GZA 22.2 0.5 P
GZA 36.9 0.5 S
YHZ 24.9 0.5 P
YHZ 40.9 0.5 S
DFU 28.8 0.5 P
DFU 47.6 0.5 S
# 2001 03 10 01 26 28.00 29.0167 103.667 0.000 1.9 0 0 0 1615
WMP 1.4 1 P
WMP 3.4 1 S
LBO 15 0.5 P
LBO 25.3 0.5 S
XJP 15.9 1 P
XJP 25.7 1 S
HMS 18 1 P
HMS 29.2 1 S
HWS 19.8 1 P
HWS 32.2 1 S
# 2001 03 10 05 15 44.00 29.3333 105.65 7.000 1.7 0 0 0 1616
HMS 23.4 1 P
HMS 38 1 S
HWS 23.9 1 P
HWS 39.9 1 S
LZZ 8.3 1 P
LZZ 14.3 1 S
LZH 13.8 0.5 P
LZH 22.5 0.5 S
# 2001 03 10 11 23 47.00 29.3333 105.617 12.000 1.9 0 0 0 1620
LZH 13.9 0.5 P
LZH 23.4 0.5 S
HMS 23.2 1 P
HMS 38.3 1 S
HWS 23.4 1 P
HWS 38.9 1 S
LZZ 10.6 1 P
LZZ 17.1 1 S
# 2001 03 10 16 47 23.60 32.7333 105.45 0.000 2.0 0 0 0 1624
YTS 7.3 1 P
YTS 12.2 1 S
QCH 7.6 0.5 P
QCH 12.6 0.5 S
GYU 12.9 0.5 P
GYU 20.8 0.5 S
PWU 15.8 0.5 P
PWU 26.4 0.5 S
# 2001 03 11 16 37 23.40 30.4333 103.367 11.000 2.3 0 0 0 1644
YZP 11.6 1 P
YZP 18.4 1 S
YGD 15.6 1 P
YGD 25.6 1 S
EMS 31.3 1 S
WCH 20.6 0.5 P
WCH 34.2 0.5 S
XJI 21.1 0.5 P
XJI 34.1 0.5 S
GZA 21.8 0.5 P
GZA 35.2 0.5 S
XJP 22 1 P
XJP 38.9 1 S
JHE 23.8 0.5 P
JHE 39.9 0.5 S
JJS 24.8 1 P
JJS 41.3 1 S
GDS 24.9 1 P
GDS 41.1 1 S
HMS 26.1 1 P
HMS 43.1 1 S
MXI 26.1 0.5 P
MXI 43 0.5 S
SMI 29.6 0.5 P
SMI 49.3 0.5 S
AXI 30.1 0.5 P
AXI 50 0.5 S
MEK 34.2 1 P
MEK 57.1 1 S
# 2001 03 11 22 32 4.20 29.4 101.05 0.000 3.5 0 0 0 1651
JLO 13.2 0.5 P
JLO 21 0.5 S
GDS 21.4 1 P
GDS 34.7 1 S
LFG 22.2 0.5 P
LFG 37.5 0.5 S
SMI 24.2 0.5 P
SMI 41.2 0.5 S
GZA 24.7 0.5 P
GZA 40.4 0.5 S
YHZ 25 0.5 P
YHZ 42.3 0.5 S
MLI 27.8 0.5 P
MLI 46.8 0.5 S
DFU 30 0.5 P
DFU 49.8 0.5 S
DBC 32.1 0.5 P
DBC 53.5 0.5 S
MMZ 33.2 0.5 P
MMZ 56.6 0.5 S
YYC 36.6 0.5 P
YYC 62.6 0.5 S
XGS 36.9 0.5 P
XGS 63 0.5 S
HTW 37 0.5 P
HTW 62 0.5 S
# 2001 03 12 10 16 46.90 29.4667 101.067 12.000 3.0 0 0 0 1659
LFG 21.3 0.5 P
LFG 37 0.5 S
GZA 23.3 0.5 P
GZA 38.7 0.5 S
SMI 24.1 0.5 P
SMI 40.1 0.5 S
YHZ 25.3 0.5 P
YHZ 42.4 0.5 S
MLI 28.1 0.5 P
MLI 50.1 0.5 S
DFU 29.7 0.5 P
DFU 52.1 0.5 S
JLO 12.5 0.5 P
JLO 20.2 0.5 S
# 2001 03 12 13 27 29.90 27.3667 102.017 9.000 3.0 0 0 0 1663
JLO 33.5 0.5 P
JLO 56.6 0.5 S
LBO 34.1 0.5 P
LBO 56.1 0.5 S
PUW 8.6 0.5 P
HTW 9.5 0.5 P
XGS 10.1 0.5 P
XGS 15.4 0.5 S
DAQ 11.5 0.5 P
DAQ 17.8 0.5 S
YYC 12.1 0.5 P
YYC 19.5 0.5 S
XGS 14.3 0.5 P
XGS 22.9 0.5 S
YPU 14.8 0.5 P
YPU 23.8 0.5 S
DBC 15.5 0.5 P
DBC 24.8 0.5 S
HLI 16.1 0.5 P
HLI 26.1 0.5 S
MMZ 17 0.5 P
MMZ 27.6 0.5 S
SMK 17.7 0.5 P
SMK 28.9 0.5 S
PZH 18.3 0.5 P
PZH 30.7 0.5 S
MLI 18.7 0.5 P
MLI 31.7 0.5 S
# 2001 03 13 10 33 56.00 31.5167 104.05 11.000 1.4 0 0 0 1675
JHE 5 0.5 P
JHE 8 0.5 S
MXI 8 0.5 P
MXI 13 0.5 S
WCH 8.6 0.5 P
WCH 14.4 0.5 S
AXI 8.8 0.5 P
AXI 14.6 0.5 S
YZP 17.8 1 P
YZP 30.4 1 S
PWU 22.4 0.5 P
PWU 36.6 0.5 S
# 2001 03 13 10 44 49.30 32.05 105.2 14.000 2.0 0 0 0 1676
MXI 42.2 0.5 S
JHE 44.9 0.5 S
ZJG 12 1 P
ZJG 20.4 1 S
QCH 12.9 0.5 P
QCH 20.9 0.5 S
PWU 13.9 0.5 P
PWU 22.7 0.5 S
YTS 16.5 1 P
YTS 28.3 1 S
AXI 17.1 0.5 P
AXI 27.9 0.5 S
WCH 30 0.5 P
WCH 49.4 0.5 S
SPA 31.2 0.5 P
SPA 51.7 0.5 S
# 2001 03 13 18 37 8.40 30.4667 101.567 0.000 2.0 0 0 0 1684
GDS 11.1 1 P
GDS 18.6 1 S
GZA 12.6 0.5 P
GZA 20.8 0.5 S
XJI 16.6 0.5 P
XJI 27.2 0.5 S
JLO 28.2 0.5 P
JLO 47.3 0.5 S
JLO 28.2 0.5 P
JLO 47.3 0.5 S
# 2001 03 13 22 20 12.00 29.4333 101.1 10.000 2.4 0 0 0 1688
JLO 11.1 0.5 P
JLO 17.8 0.5 S
GDS 20 1 P
GDS 33.8 1 S
LFG 21.1 0.5 P
LFG 35.6 0.5 S
GZA 23 0.5 P
GZA 38 0.5 S
DFU 30.6 0.5 P
DFU 50.8 0.5 S
# 2001 03 13 23 00 7.00 31.3833 103.967 0.000 1.2 0 0 0 1690
JHE 3.4 0.5 P
JHE 5.7 0.5 S
MXI 6.4 0.5 P
MXI 10.8 0.5 S
WCH 6.9 0.5 P
WCH 11.6 0.5 S
AXI 13 0.5 P
AXI 21 0.5 S
# 2001 03 14 01 51 22.20 29 102.317 12.000 1.9 0 0 0 1691
SMI 5.5 0.5 P
SMI 9.4 0.5 S
LFG 7.7 0.5 P
LFG 13.5 0.5 S
YHZ 8.1 0.5 P
YHZ 13.6 0.5 S
# 2001 03 14 13 40 16.70 31.4667 104.033 0.000 1.1 0 0 0 1699
JHE 3.6 0.5 P
JHE 6.3 0.5 S
AXI 8.3 0.5 P
AXI 13.9 0.5 S
WCH 8.3 0.5 P
WCH 13.9 0.5 S
YZP 18.3 1 P
YZP 30.9 1 S
# 2001 03 14 18 28 54.30 29.4333 103.417 5.000 2.4 0 0 0 1706
EMS 12 1 S
WMP 11.9 1 P
WMP 19.1 1 S
XJP 14.8 1 P
XJP 24.5 1 S
HMS 20.3 1 P
HMS 33.4 1 S
LBO 28.5 0.5 P
LBO 46.5 0.5 S
GZA 28.7 0.5 P
GZA 47.7 0.5 S
YZP 32.3 1 P
YZP 55.1 1 S
# 2001 03 14 23 14 19.70 30.5167 101.55 0.000 2.1 0 0 0 1715
GDS 10.8 1 P
GDS 18.1 1 S
GZA 12.5 0.5 P
GZA 20.7 0.5 S
DFU 12.6 0.5 P
DFU 21.1 0.5 S
XJI 16.8 0.5 P
XJI 27.9 0.5 S
# 2001 03 15 08 17 45.30 29.2833 104.317 19.000 2.6 0 0 0 1723
EMS 30.5 1 S
LZH 19.2 0.5 P
LZH 32.5 0.5 S
YGD 20.9 1 P
YGD 34.1 1 S
LBO 24.3 0.5 P
LBO 39.3 0.5 S
YZP 31.9 1 P
YZP 54.3 1 S
SMI 32.3 0.5 P
SMI 55.7 0.5 S
JJS 32.9 1 P
JJS 56 1 S
WMP 9.1 1 P
WMP 15.8 1 S
SFS 9.2 0.5 P
SFS 15.4 0.5 S
HMS 9.2 1 P
HMS 15.4 1 S
YZW 12.2 0.5 P
YZW 20.2 0.5 S
HWS 14 1 P
HWS 23.7 1 S
# 2001 03 15 09 20 3.20 28.3333 103.833 5.000 2.6 0 0 0 1725
LBO 5.6 0.5 P
LBO 9.8 0.5 S
WMP 16 1 P
WMP 26.8 1 S
HWS 18.8 1 P
HWS 31.7 1 S
XJP 27.8 1 P
XJP 46.7 1 S
HMS 28.9 1 P
HMS 47.9 1 S
EMS 48.6 1 S
LZH 29.6 0.5 P
LZH 50.7 0.5 S
SMI 32.8 0.5 P
SMI 55.8 0.5 S
HLI 38.8 0.5 P
HLI 66.4 0.5 S
# 2001 03 15 10 50 59.50 29.2833 102.05 0.000 2.1 0 0 0 1726
JLO 12.5 0.5 S
SMI 8.5 0.5 P
SMI 14.2 0.5 S
LFG 8.7 0.5 P
LFG 15.4 0.5 S
YHZ 11.1 0.5 P
YHZ 19.9 0.5 S
XJP 12.4 1 P
XJP 21.1 1 S
GDS 17.1 1 P
GDS 27.2 1 S
GZA 17.9 0.5 P
GZA 30 0.5 S
# 2001 03 15 22 27 33.90 29.4667 101.05 0.000 2.5 0 0 0 1733
XJP 28.5 1 P
XJP 48.5 1 S
BTA 33.3 0.5 P
BTA 55.1 0.5 S
JLO 12.4 0.5 P
JLO 20.4 0.5 S
GDS 20.7 1 P
GDS 34.3 1 S
GZA 23.6 0.5 P
GZA 39.3 0.5 S
SMI 24.3 0.5 P
SMI 39.3 0.5 S
# 2001 03 16 02 51 15.10 31.6167 103.65 5.000 1.1 0 0 0 1736
MXI 4.6 0.5 P
MXI 7.3 0.5 S
WCH 5.2 0.5 P
WCH 8.3 0.5 S
HSH 13.2 0.5 P
HSH 21.9 0.5 S
YZP 16.9 1 P
YZP 28.4 1 S
# 2001 03 16 17 20 1.50 29.6667 102.433 3.000 1.6 0 0 0 1753
GZA 9.5 0.5 P
GZA 15.5 0.5 S
SMI 12 0.5 P
SMI 19.8 0.5 S
LFG 20.5 0.5 P
LFG 34.1 0.5 S
JLO 23.5 0.5 P
JLO 38.9 0.5 S
# 2001 03 17 12 20 43.00 31.6833 101.883 12.000 2.5 0 0 0 1770
XJI 18.7 0.5 P
XJI 30.5 0.5 S
DFU 20.3 0.5 P
DFU 32.7 0.5 S
HSH 21 0.5 P
HSH 35 0.5 S
GZI 30.4 0.5 P
GZI 51 0.5 S
MEK 8.5 1 P
MEK 13.8 1 S
RTA 15.9 0.5 P
RTA 26.8 0.5 S
# 2001 03 17 18 11 43.00 29.15 101.933 0.000 3.1 0 0 0 1774
GDS 17.6 1 P
GDS 29.4 1 S
GZA 18.6 0.5 P
GZA 30.6 0.5 S
DBC 22.2 0.5 P
DBC 37.7 0.5 S
MMZ 22.7 0.5 P
MMZ 39.4 0.5 S
MLI 26.2 0.5 P
MLI 44.4 0.5 S
YYC 27.2 0.5 P
YYC 46.2 0.5 S
XSB 28.3 0.5 P
XSB 48.3 0.5 S
JLO 8.5 0.5 P
JLO 13.6 0.5 S
XJP 8.8 1 P
SMI 9.4 0.5 P
SMI 15.8 0.5 S
YHZ 11 0.5 P
# 2001 03 18 19 38 50.90 29.3833 103.417 8.000 2.4 0 0 0 1796
WMP 9.6 1 P
WMP 15.6 1 S
XJP 10.9 1 P
XJP 22.2 1 S
HMS 16.6 1 P
HMS 29.7 1 S
EMS 8.2 1 S
EMS 8.2 1 S
EMS 8.2 1 S
# 2001 03 18 22 29 38.40 31.3667 103.85 5.000 2.2 0 0 0 1801
HMS 35.6 1 P
HMS 59.8 1 S
JHE 5 0.5 P
JHE 7.7 0.5 S
WCH 6.6 0.5 P
WCH 10.8 0.5 S
MXI 7.5 0.5 P
MXI 11.7 0.5 S
AXI 11.6 0.5 P
AXI 19.6 0.5 S
YZP 13.4 1 P
YZP 22.2 1 S
JJS 15.8 1 P
JJS 26.4 1 S
ZJG 16.3 1 P
ZJG 27.8 1 S
HSH 20.6 0.5 P
HSH 32.6 0.5 S
# 2001 03 19 21 29 56.80 29.2167 101.883 3.000 1.8 0 0 0 1824
JLO 7.4 0.5 P
JLO 12.2 0.5 S
SMI 8.4 0.5 P
SMI 14.8 0.5 S
LFG 9.3 0.5 P
LFG 15.2 0.5 S
GZA 17.8 0.5 P
GZA 28.6 0.5 S
# 2001 03 19 22 01 20.60 29.1833 102.267 7.000 2.0 0 0 0 1825
SMI 5.2 0.5 P
SMI 8.1 0.5 S
XJP 6.4 1 P
XJP 12.8 1 S
LFG 9.1 0.5 P
LFG 16.2 0.5 S
YHZ 9.6 0.5 P
YHZ 17.2 0.5 S
JLO 15.8 0.5 P
JLO 26 0.5 S
GDS 19.1 1 P
GDS 31.9 1 S
GZA 19.4 0.5 P
GZA 31.9 0.5 S
# 2001 03 20 00 01 36.20 31.1167 101.083 0.000 1.7 0 0 0 1826
GZA 41.8 0.5 S
MEK 25 1 P
MEK 41.3 1 S
DFU 2.1 0.5 P
DFU 3.8 0.5 S
GZI 21.2 0.5 P
GZI 34.8 0.5 S
RTA 23.4 0.5 P
RTA 38.8 0.5 S
# 2001 03 22 14 30 33.00 26.9167 102.833 5.000 1.8 0 0 0 1873
SMK 2.5 0.5 P
SMK 4.3 0.5 S
HLI 12 0.5 P
HLI 19.5 0.5 S
YPU 14.1 0.5 P
YPU 24.2 0.5 S
PZH 20 0.5 P
PZH 33 0.5 S
# 2001 03 23 05 02 1.40 27.9167 101.017 0.000 2.6 0 0 0 1887
MLI 9.6 0.5 P
MLI 16.1 0.5 S
XGS 18.7 0.5 P
XGS 32 0.5 S
JLO 26.2 0.5 P
JLO 42.6 0.5 S
PZH 34.2 0.5 P
PZH 56.8 0.5 S
HLI 37.6 0.5 P
HLI 62.2 0.5 S
# 2001 03 23 06 06 27.30 27.15 100.883 5.000 3.1 0 0 0 1888
XGS 16.7 0.5 P
XGS 29.4 0.5 S
MLI 16.9 0.5 P
MLI 27.7 0.5 S
PUW 21.2 0.5 P
PUW 37.5 0.5 S
PZH 22.1 0.5 P
PZH 36.7 0.5 S
HTW 24.1 0.5 P
HTW 39.1 0.5 S
HLI 27.7 0.5 P
HLI 45.7 0.5 S
DBC 28.2 0.5 P
DBC 47.1 0.5 S
YYC 28.7 0.5 P
YYC 47.7 0.5 S
DAQ 29.6 0.5 P
DAQ 49.2 0.5 S
# 2001 03 23 09 08 53.40 29.2167 102 9.000 2.1 0 0 0 1890
JLO 8 0.5 P
JLO 12.9 0.5 S
SMI 9.1 0.5 P
SMI 15.4 0.5 S
LFG 9.2 0.5 P
LFG 15.2 0.5 S
YHZ 11.4 0.5 P
YHZ 19.3 0.5 S
GDS 17.6 1 P
GDS 28.1 1 S
GZA 18.6 0.5 P
GZA 30.8 0.5 S
# 2001 03 23 09 28 22.10 27.15 100.683 0.000 2.6 0 0 0 1891
MLI 18.9 0.5 P
MLI 31.5 0.5 S
XGS 19.6 0.5 P
XGS 31.4 0.5 S
PZH 22.9 0.5 P
PZH 38 0.5 S
HTW 27.7 0.5 P
HLI 30.9 0.5 P
HLI 51.9 0.5 S
# 2001 03 23 11 20 34.10 29.4667 101.05 17.000 2.8 0 0 0 1895
DFU 29.7 0.5 P
DFU 48.9 0.5 S
BTA 33.4 0.5 P
BTA 54.9 0.5 S
JLO 12.4 0.5 P
JLO 20.5 0.5 S
GDS 20.2 1 P
GDS 32.8 1 S
LFG 21.8 0.5 P
LFG 36.7 0.5 S
GZA 23.3 0.5 P
GZA 38.9 0.5 S
YHZ 24.8 0.5 P
YHZ 41.3 0.5 S
YHZ 41.3 0.5 S
# 2001 03 23 14 59 53.20 28.2667 103.6 6.000 2.5 0 0 0 1899
LBO 3.2 0.5 P
LBO 4.8 0.5 S
LBO 3.2 0.5 P
LBO 4.8 0.5 S
LBO 3.2 0.5 P
LBO 4.8 0.5 S
LBO 3.2 0.5 P
LBO 4.8 0.5 S
LBO 3.2 0.5 P
LBO 4.8 0.5 S
LBO 3.2 0.5 P
LBO 4.8 0.5 S
LBO 3.2 0.5 P
LBO 4.8 0.5 S
LBO 3.2 0.5 P
LBO 4.8 0.5 S
LBO 3.2 0.5 P
LBO 4.8 0.5 S
LBO 3.2 0.5 P
LBO 4.8 0.5 S
# 2001 03 23 22 46 56.20 29.2833 105.633 8.000 2.5 0 0 0 1908
YZW 13.3 0.5 P
YZW 21.2 0.5 S
LZH 15 0.5 P
LZH 23.6 0.5 S
SFS 17.8 0.5 P
SFS 28.6 0.5 S
HMS 23.1 1 P
HMS 37.6 1 S
HWS 23.8 1 P
HWS 39.5 1 S
WMP 30.8 1 P
WMP 51 1 S
# 2001 03 24 00 34 17.00 31.5167 104.067 9.000 1.9 0 0 0 1909
JHE 4 0.5 P
JHE 6.3 0.5 S
MXI 7.5 0.5 P
MXI 12 0.5 S
AXI 8.2 0.5 P
AXI 13.4 0.5 S
WCH 9.4 0.5 P
WCH 15.2 0.5 S
ZJG 12.9 1 P
ZJG 21.8 1 S
JJS 15.1 1 P
JJS 24.9 1 S
YZP 16.5 1 P
YZP 27.5 1 S
PWU 20.6 0.5 P
PWU 35 0.5 S
# 2001 03 24 02 29 21.70 31.5833 102.383 9.000 2.0 0 0 0 1910
MEK 6.8 1 P
MEK 10.7 1 S
XJI 12.6 0.5 P
XJI 20.3 0.5 S
HSH 13.7 0.5 P
HSH 22.7 0.5 S
WCH 20.1 0.5 P
WCH 33.3 0.5 S
YZP 24.3 1 P
YZP 41.7 1 S
DFU 25.3 0.5 P
DFU 41.5 0.5 S
RTA 26.5 0.5 P
RTA 43.6 0.5 S
SPA 28.3 0.5 P
SPA 47.3 0.5 S
# 2001 03 24 12 37 33.10 31.8667 104.333 0.000 1.5 0 0 0 1921
AXI 5.9 0.5 P
AXI 9.7 0.5 S
ZJG 6.8 1 P
ZJG 11.3 1 S
MXI 8.9 0.5 P
MXI 15.3 0.5 S
PWU 11.9 0.5 P
PWU 19.7 0.5 S
JHE 12.5 0.5 P
JHE 20.5 0.5 S
# 2001 03 24 16 55 41.30 29.5333 103.083 11.000 1.5 0 0 0 1925
GZA 20.7 0.5 P
GZA 33.7 0.5 S
GDS 22.5 1 P
GDS 37.1 1 S
HMS 23 1 P
HMS 38.1 1 S
EMS 13.8 1 S
SMI 15.1 0.5 P
SMI 25.1 0.5 S
# 2001 03 25 00 23 17.50 29.4833 101.05 9.000 2.8 0 0 0 1932
JLO 12.8 0.5 P
JLO 20.7 0.5 S
GDS 20.6 1 P
GDS 33.5 1 S
LFG 22.4 0.5 P
LFG 36.8 0.5 S
GZA 23.6 0.5 P
GZA 38.9 0.5 S
SMI 24 0.5 P
SMI 40 0.5 S
YHZ 26.1 0.5 P
YHZ 42 0.5 S
DFU 29.1 0.5 P
DFU 49.9 0.5 S
# 2001 03 25 02 57 34.50 29.2167 101.967 2.000 1.9 0 0 0 1940
JLO 8.1 0.5 P
JLO 12.9 0.5 S
SMI 8.8 0.5 P
SMI 14.8 0.5 S
LFG 9.5 0.5 P
LFG 15.8 0.5 S
YHZ 11.8 0.5 P
YHZ 20.2 0.5 S
GZA 18.5 0.5 P
GZA 30.3 0.5 S
# 2001 03 25 06 34 51.00 29.3833 102 0.000 1.5 0 0 0 1947
JLO 11.6 0.5 P
JLO 18.1 0.5 S
LFG 11.8 0.5 P
LFG 19.9 0.5 S
GZA 13 0.5 P
GZA 22.2 0.5 S
SMI 7.3 0.5 P
SMI 12.9 0.5 S
# 2001 03 25 13 10 50.80 29.1833 102.017 0.000 2.3 0 0 0 1956
LFG 9.3 0.5 P
LFG 15.6 0.5 S
YHZ 11.4 0.5 P
YHZ 19.5 0.5 S
GDS 17.1 1 P
GDS 28 1 S
GZA 18.4 0.5 P
GZA 30.2 0.5 S
JLO 7.8 0.5 P
JLO 12.9 0.5 S
SMI 8.6 0.5 P
SMI 14.6 0.5 S
SMI 14.6 0.5 S
# 2001 03 25 13 12 28.70 29.2333 102 6.000 2.6 0 0 0 1957
JLO 7.7 0.5 P
JLO 12.7 0.5 S
SMI 8.5 0.5 P
SMI 14.5 0.5 S
LFG 9.3 0.5 P
LFG 15.6 0.5 S
YHZ 11.5 0.5 P
YHZ 19.8 0.5 S
GDS 17.2 1 P
GDS 27.8 1 S
GZA 18.5 0.5 P
GZA 30.3 0.5 S
MLI 26.7 0.5 P
MLI 44.1 0.5 S
# 2001 03 25 13 33 59.80 29.2167 101.95 9.000 2.3 0 0 0 1959
JLO 8.1 0.5 P
JLO 12.9 0.5 S
SMI 9 0.5 P
SMI 15 0.5 S
LFG 9.6 0.5 P
LFG 15.9 0.5 S
YHZ 11.8 0.5 P
YHZ 20.4 0.5 S
GDS 17.3 1 P
GDS 28.3 1 S
GZA 18.6 0.5 P
GZA 30.6 0.5 S
# 2001 03 25 13 51 12.80 29.2333 101.967 1.000 1.7 0 0 0 1960
JLO 7.5 0.5 P
JLO 12.3 0.5 S
SMI 8.2 0.5 P
SMI 14.1 0.5 S
LFG 9.2 0.5 P
LFG 15.5 0.5 S
GDS 17.1 1 P
GDS 27.6 1 S
GZA 18.2 0.5 P
GZA 30.2 0.5 S
# 2001 03 25 13 51 46.10 29.2333 101.95 4.000 1.8 0 0 0 1961
GDS 17 1 P
GDS 27.6 1 S
JLO 8 0.5 P
JLO 12.3 0.5 S
SMI 8.3 0.5 P
SMI 14.4 0.5 S
LFG 9.3 0.5 P
LFG 15.6 0.5 S
# 2001 03 25 17 42 27.40 31.6833 102.65 10.000 2.0 0 0 0 1969
MEK 6.9 1 P
MEK 11.8 1 S
HSH 9.6 0.5 P
HSH 15.6 0.5 S
XJI 17.9 0.5 P
XJI 28.9 0.5 S
SPA 23.6 0.5 P
SPA 39.6 0.5 S
# 2001 03 25 18 16 20.60 29.2333 101.967 0.000 1.7 0 0 0 1971
JLO 7.8 0.5 P
JLO 12.8 0.5 S
SMI 8.6 0.5 P
SMI 14.5 0.5 S
GDS 17.3 1 P
GDS 28.1 1 S
GZA 18.6 0.5 P
GZA 30.6 0.5 S
# 2001 03 26 06 49 58.00 29.2833 102.183 0.000 1.5 0 0 0 1992
SMI 4 0.5 P
SMI 6.5 0.5 S
LFG 10.1 0.5 P
LFG 16.3 0.5 S
JLO 13.2 0.5 P
JLO 22 0.5 S
GZA 16 0.5 P
GZA 26.4 0.5 S
# 2001 03 26 11 31 6.40 31.5333 104.033 0.000 1.4 0 0 0 1994
PWU 33.6 0.5 S
JHE 2.7 0.5 P
JHE 5.2 0.5 S
AXI 6.6 0.5 P
AXI 11.6 0.5 S
WCH 8.6 0.5 P
WCH 14.4 0.5 S
JJS 15 1 P
JJS 24.8 1 S
YZP 15 1 P
YZP 24.6 1 S
# 2001 03 26 12 47 28.60 29.2167 101.867 0.000 2.9 0 0 0 1997
XJI 35.7 0.5 P
XJI 58.2 0.5 S
JLO 8.9 0.5 P
JLO 13.8 0.5 S
SMI 9.4 0.5 P
SMI 15.4 0.5 S
GDS 17.5 1 P
GDS 29 1 S
GZA 18.8 0.5 P
GZA 31.1 0.5 S
MLI 27.2 0.5 P
MLI 44.4 0.5 S
EMS 48.4 1 S
# 2001 03 26 13 44 10.40 29.1833 101.883 0.000 2.6 0 0 0 2002
JHE 88.6 0.5 S
AXI 101.4 0.5 S
JLO 7.7 0.5 P
JLO 12.5 0.5 S
SMI 8.8 0.5 P
SMI 14.7 0.5 S
LFG 9 0.5 P
LFG 15.6 0.5 S
YHZ 11.4 0.5 P
YHZ 20.2 0.5 S
GDS 17.3 1 P
GDS 27.9 1 S
# 2001 03 26 17 02 58.00 29.2333 101.833 5.000 1.7 0 0 0 2011
JLO 8 0.5 P
JLO 13 0.5 S
SMI 9.2 0.5 P
SMI 15 0.5 S
GDS 17.8 1 P
GDS 28.7 1 S
XJP 18.1 1 P
XJP 28.7 1 S
GZA 18.6 0.5 P
GZA 31.6 0.5 S
# 2001 03 27 03 45 12.50 28.3833 105.583 0.000 2.8 0 0 0 2032
LZH 11.1 0.5 P
LZH 18.3 0.5 S
HWS 18.3 1 P
HWS 30.3 1 S
YZW 21.9 0.5 P
YZW 37.5 0.5 S
SFS 22.9 0.5 P
SFS 39.1 0.5 S
HMS 31.2 1 P
HMS 51.7 1 S
WMP 32.1 1 P
WMP 53 1 S
# 2001 03 27 05 04 55.80 29.1 101.85 12.000 1.7 0 0 0 2034
JLO 8.2 0.5 P
JLO 13.1 0.5 S
SMI 9.1 0.5 P
SMI 15 0.5 S
LFG 9.6 0.5 P
LFG 16.2 0.5 S
XJP 16.8 1 P
XJP 28.1 1 S
# 2001 03 27 06 12 56.40 29.4833 101 0.000 2.6 0 0 0 2035
JLO 12.8 0.5 P
JLO 20.8 0.5 S
LFG 22.3 0.5 P
LFG 38 0.5 S
GZA 24.2 0.5 P
GZA 39.8 0.5 S
YHZ 26 0.5 P
YHZ 43.2 0.5 S
DFU 29.8 0.5 P
DFU 50.2 0.5 S
BTA 32.7 0.5 P
BTA 54.1 0.5 S
# 2001 03 27 07 09 36.80 29.1833 101.85 1.000 1.7 0 0 0 2037
JLO 7.9 0.5 P
JLO 12.6 0.5 S
SMI 8.7 0.5 P
SMI 14.8 0.5 S
LFG 9.6 0.5 P
LFG 16.4 0.5 S
GZA 18.4 0.5 P
GZA 30.6 0.5 S
# 2001 03 27 13 12 45.90 29.1333 101.867 0.000 1.4 0 0 0 2043
GDS 16 1 P
GDS 26.3 1 S
XJP 16.1 1 P
XJP 26.3 1 S
JLO 6.6 0.5 P
JLO 11.2 0.5 S
LFG 7.2 0.5 P
LFG 13.4 0.5 S
# 2001 03 27 19 15 25.10 31.2667 103.883 0.000 1.2 0 0 0 2047
JHE 4.2 0.5 P
JHE 7.6 0.5 S
WCH 7.9 0.5 P
WCH 13.1 0.5 S
YZP 10.5 1 P
YZP 16.9 1 S
JJS 13.9 1 P
JJS 22.5 1 S
# 2001 03 28 06 38 53.40 29.2 101.85 11.000 2.7 0 0 0 2059
JLO 7.7 0.5 P
JLO 12.6 0.5 S
SMI 8.7 0.5 P
SMI 14.7 0.5 S
LFG 9.2 0.5 P
LFG 15.7 0.5 S
YHZ 11.3 0.5 P
YHZ 19.8 0.5 S
XJP 16.9 1 P
XJP 28 1 S
GDS 17.3 1 P
GDS 28.1 1 S
GZA 18 0.5 P
GZA 30.4 0.5 S
MLI 26 0.5 P
MLI 43.6 0.5 S
XJI 34.9 0.5 P
XJI 58.2 0.5 S
# 2001 03 28 07 41 27.50 31.5167 104.083 5.000 1.7 0 0 0 2063
JHE 3.5 0.5 P
JHE 5.8 0.5 S
MXI 7 0.5 P
MXI 11.1 0.5 S
AXI 7.3 0.5 P
AXI 12.1 0.5 S
WCH 9.1 0.5 P
WCH 14.8 0.5 S
JJS 13.9 1 P
JJS 23.1 1 S
YZP 16.3 1 P
YZP 26.9 1 S
# 2001 03 28 09 55 21.40 29.2167 101.883 0.000 2.1 0 0 0 2065
JLO 7.5 0.5 P
JLO 12.3 0.5 S
SMI 8.4 0.5 P
SMI 14.3 0.5 S
LFG 9.1 0.5 P
LFG 15.4 0.5 S
YHZ 11.4 0.5 P
YHZ 19.4 0.5 S
XJP 16.8 1 P
XJP 27.7 1 S
GZA 18.4 0.5 P
GZA 30.2 0.5 S
# 2001 03 28 17 15 0.10 30.6667 102.783 5.000 2.5 0 0 0 2077
XJI 14.5 0.5 P
XJI 23.9 0.5 S
YZP 16.9 1 P
YZP 28.5 1 S
GZA 18.3 0.5 P
GZA 29.1 0.5 S
WCH 22.9 0.5 P
WCH 38.1 0.5 S
JHE 27.5 0.5 P
JHE 45.9 0.5 S
EMS 46.5 1 S
YGD 28.2 1 P
YGD 46.1 1 S
MEK 29.3 1 P
MEK 48.7 1 S
HSH 30.3 0.5 P
HSH 50.3 0.5 S
MXI 30.6 0.5 P
MXI 51.1 0.5 S
JJS 32.9 1 P
JJS 54.9 1 S
# 2001 03 28 18 55 37.00 31.2667 103.883 1.000 1.4 0 0 0 2082
JHE 4.3 0.5 P
JHE 7.3 0.5 S
WCH 7.6 0.5 P
WCH 13 0.5 S
MXI 9.2 0.5 P
YZP 11.2 1 P
YZP 18 1 S
JJS 13.8 1 P
JJS 22.8 1 S
# 2001 03 28 21 11 26.60 31.7333 104.233 0.000 1.7 0 0 0 2084
JHE 18.2 0.5 S
AXI 5.4 0.5 P
AXI 9.2 0.5 S
MXI 8.1 0.5 P
MXI 13.1 0.5 S
WCH 12.6 0.5 P
WCH 20.8 0.5 S
JJS 19 1 P
JJS 31.4 1 S
YZP 23.4 1 P
YZP 38.8 1 S
# 2001 03 28 23 54 22.70 29.1167 101.833 4.000 2.3 0 0 0 2088
JLO 7.5 0.5 P
JLO 12.3 0.5 S
SMI 8.6 0.5 P
SMI 14.6 0.5 S
LFG 9.4 0.5 P
LFG 15.7 0.5 S
YHZ 11.7 0.5 P
YHZ 19.8 0.5 S
XJP 16.8 1 P
XJP 27.7 1 S
GDS 17.3 1 P
GDS 28 1 S
GZA 18.5 0.5 P
GZA 30.3 0.5 S
MLI 26.7 0.5 P
MLI 43.5 0.5 S
# 2001 03 29 22 49 47.60 29.15 101.917 0.000 2.9 0 0 0 2116
GDS 16.8 1 P
GDS 27.7 1 S
XJP 16.9 1 P
XJP 27.8 1 S
GZA 18 0.5 P
GZA 30.2 0.5 S
DBC 21.4 0.5 P
DBC 37 0.5 S
MMZ 21.8 0.5 P
MMZ 38 0.5 S
MLI 26.6 0.5 P
MLI 43.8 0.5 S
XJI 35.3 0.5 P
XJI 58.5 0.5 S
JLO 2.7 0.5 P
JLO 7.7 0.5 S
LFG 8.6 0.5 P
LFG 15 0.5 S
SMI 8.8 0.5 P
SMI 14.8 0.5 S
YHZ 10.8 0.5 P
YHZ 19.2 0.5 S
# 2001 03 29 23 51 14.60 29.1833 101.883 1.000 1.5 0 0 0 2119
JLO 7.4 0.5 P
JLO 12.3 0.5 S
SMI 8.9 0.5 P
SMI 14.6 0.5 S
LFG 9.2 0.5 P
LFG 15.4 0.5 S
XJP 16.4 1 P
XJP 27.4 1 S
GDS 16.9 1 P
GDS 27.7 1 S
# 2001 03 29 23 52 15.50 29.15 101.933 0.000 1.4 0 0 0 2120
SMI 14.5 0.5 S
JLO 7.6 0.5 P
JLO 12.6 0.5 S
LFG 8.9 0.5 P
LFG 15.3 0.5 S
XJP 16.8 1 P
XJP 27.8 1 S
GDS 17.1 1 P
GDS 28 1 S
# 2001 03 29 23 55 33.00 29.1833 101.867 0.000 1.3 0 0 0 2121
JLO 7.5 0.5 P
JLO 12.4 0.5 S
SMI 8.6 0.5 P
SMI 14.4 0.5 S
LFG 8.7 0.5 P
LFG 14.7 0.5 S
GDS 16.8 1 P
GDS 27.6 1 S
# 2001 03 30 04 50 36.80 29.2333 101.9 0.000 1.4 0 0 0 2133
JLO 7.5 0.5 P
JLO 12.5 0.5 S
SMI 8.4 0.5 P
SMI 14.2 0.5 S
XJP 16.8 1 P
XJP 27.7 1 S
GDS 17.1 1 P
GDS 27.7 1 S
# 2001 03 30 10 28 13.20 29.4667 101.083 5.000 2.7 0 0 0 2135
JLO 12.8 0.5 P
JLO 21 0.5 S
GZA 23.2 0.5 P
GZA 39.2 0.5 S
SMI 24.5 0.5 P
SMI 40.1 0.5 S
DFU 27 0.5 P
DFU 44.8 0.5 S
MLI 29.8 0.5 P
MLI 50 0.5 S
BTA 32.1 0.5 P
BTA 53.1 0.5 S
# 2001 03 30 14 57 26.30 29.1833 101.867 3.000 1.5 0 0 0 2137
JLO 7.2 0.5 P
JLO 12.1 0.5 S
SMI 8.5 0.5 P
SMI 14.3 0.5 S
XJP 16.6 1 P
XJP 27.4 1 S
GDS 18 1 P
GDS 29.2 1 S
# 2001 03 30 15 38 13.90 29.4833 101.05 3.000 2.8 0 0 0 2138
JLO 13.1 0.5 P
JLO 21.4 0.5 S
GZA 23.7 0.5 P
GZA 39.9 0.5 S
SMI 24.5 0.5 P
SMI 40.1 0.5 S
DFU 27.3 0.5 P
DFU 45.7 0.5 S
MLI 29.1 0.5 P
MLI 48.5 0.5 S
BTA 32.6 0.5 P
BTA 54.2 0.5 S
# 2001 03 30 19 26 28.20 29.4667 101.05 16.000 3.0 0 0 0 2143
BTA 32.8 0.5 P
BTA 54.5 0.5 S
XJI 37 0.5 P
XJI 61.4 0.5 S
JLO 12.5 0.5 P
JLO 20.5 0.5 S
GZA 23.6 0.5 P
GZA 38.9 0.5 S
SMI 24.2 0.5 P
SMI 40 0.5 S
DFU 27.2 0.5 P
DFU 45.4 0.5 S
MLI 28.4 0.5 P
MLI 47 0.5 S
# 2001 03 31 00 30 21.20 27.0833 102.833 10.000 2.3 0 0 0 2147
SMK 5.6 0.5 P
SMK 10.4 0.5 S
YPU 11.5 0.5 P
YPU 20.4 0.5 S
HLI 14.3 0.5 P
HLI 23.3 0.5 S
PUW 15.3 0.5 P
PUW 25.1 0.5 S
PZH 22 0.5 P
PZH 36.4 0.5 S
# 2001 03 31 20 26 31.40 29.1667 101.933 0.000 1.5 0 0 0 2163
JLO 8.3 0.5 P
JLO 13.2 0.5 S
LFG 10 0.5 P
LFG 15.7 0.5 S
XJP 14.3 1 P
XJP 24.2 1 S
GDS 18.2 1 P
GDS 30 1 S
