# 2001 02 23 08 09 18.90 29.4167 101.1 6.000 0.0 0 0 0 1246
JLO 13.3 0.5 P
GDS 21.8 1 P
GDS 34.7 1 S
LFG 23.1 0.5 P
SMI 24 0.5 P
GZA 24.1 0.5 P
GZA 39.5 0.5 S
YHZ 25.7 0.5 P
MLI 28.5 0.5 P
# 2001 02 23 09 34 43.00 29.4667 101 0.000 3.0 0 0 0 1247
GDS 20.7 1 P
GDS 34.4 1 S
GZA 23.8 0.5 P
GZA 40 0.5 S
SMI 24.1 0.5 P
SMI 40.2 0.5 S
MLI 28.8 0.5 P
MLI 47.6 0.5 S
DFU 29.6 0.5 P
DFU 49.5 0.5 S
XJP 30.6 1 P
XJP 50.3 1 S
BTA 33.2 0.5 P
BTA 54.7 0.5 S
JLO 12.5 0.5 P
JLO 20.5 0.5 S
# 2001 02 23 09 39 38.00 29.4333 101.1 8.000 2.7 0 0 0 1248
SMI 22.1 0.5 P
SMI 36.5 0.5 S
LFG 22.3 0.5 P
LFG 36.8 0.5 S
GZA 23.3 0.5 P
GZA 38.8 0.5 S
SMI 23.5 0.5 P
SMI 39.5 0.5 S
YHZ 25.5 0.5 P
YHZ 41.8 0.5 S
MLI 29 0.5 P
MLI 48 0.5 S
DFU 29 0.5 P
DFU 48.2 0.5 S
BTA 32.7 0.5 P
BTA 53.9 0.5 S
JLO 12.5 0.5 P
JLO 20.3 0.5 S
# 2001 02 23 10 11 51.00 29.4333 101.033 0.000 4.2 0 0 0 1250
JLO 14 0.5 P
JLO 21.8 0.5 S
GDS 22.2 1 P
GDS 35.9 1 S
LFG 24.2 0.5 P
SMI 25.2 0.5 P
SMI 40.3 0.5 S
GZA 25.2 0.5 P
GZA 40.6 0.5 S
YHZ 26.8 0.5 P
DFU 30.5 0.5 P
DFU 49.5 0.5 S
XJP 30.5 1 P
# 2001 02 23 10 14 7.50 29.4333 101 5.000 2.3 0 0 0 1251
JLO 12.6 0.5 P
JLO 21.1 0.5 S
GDS 21.1 1 P
GDS 35 1 S
XJP 30.2 1 P
XJP 50.1 1 S
DFU 30.3 0.5 P
BTA 33.6 0.5 P
BTA 55.6 0.5 S
# 2001 02 23 10 19 35.90 29.4667 101.067 0.000 2.6 0 0 0 1252
YHZ 25.3 0.5 P
YHZ 42.3 0.5 S
DFU 29.1 0.5 P
DFU 49.1 0.5 S
JLO 12.7 0.5 P
JLO 20.5 0.5 S
LFG 22.1 0.5 P
LFG 37 0.5 S
GZA 23.2 0.5 P
GZA 38.6 0.5 S
SMI 23.7 0.5 P
SMI 39.7 0.5 S
# 2001 02 23 12 29 43.80 29.45 101.1 10.000 2.8 0 0 0 1255
GDS 20.2 1 P
GDS 33.3 1 S
LFG 21.7 0.5 P
LFG 36.5 0.5 S
GZA 23.4 0.5 P
GZA 39.4 0.5 S
SMI 23.8 0.5 P
SMI 39.7 0.5 S
YHZ 25.3 0.5 P
YHZ 42 0.5 S
XJP 28.7 1 P
# 2001 02 23 13 18 21.50 29.4667 101 0.000 2.7 0 0 0 1258
JLO 12.6 0.5 P
JLO 20.1 0.5 S
GDS 19.9 1 P
GDS 33.1 1 S
LFG 21.9 0.5 P
LFG 37.2 0.5 S
GZA 23.5 0.5 P
GZA 38.5 0.5 S
YHZ 24.9 0.5 P
YHZ 42.5 0.5 S
MLI 29.1 0.5 P
MLI 48.5 0.5 S
XJP 29.4 1 P
XJP 49 1 S
BTA 33.4 0.5 P
BTA 55.3 0.5 S
# 2001 02 23 15 01 42.60 29.6167 103.017 5.000 1.7 0 0 0 1261
YGD 47.7 1 S
EMS 25.7 1 S
YZP 31 1 P
YZP 51.2 1 S
HMS 31 1 P
HMS 51 1 S
# 2001 02 23 17 29 21.00 29.45 101.033 11.000 2.4 0 0 0 1263
JLO 12 0.5 P
JLO 20.4 0.5 S
GDS 20.8 1 P
GDS 33.6 1 S
GZA 23.8 0.5 P
GZA 38.6 0.5 S
MLI 30 0.5 P
MLI 50 0.5 S
# 2001 02 23 18 15 11.40 31.6333 103.85 10.000 1.9 0 0 0 1264
MXI 2.6 0.5 P
MXI 4.3 0.5 S
WCH 5.3 0.5 P
WCH 8.9 0.5 S
JHE 6 0.5 P
JHE 9.7 0.5 S
AXI 10.1 0.5 P
AXI 16.6 0.5 S
YZP 15.6 1 P
YZP 26.5 1 S
HSH 16.6 0.5 P
HSH 27.6 0.5 S
PWU 18.8 0.5 P
PWU 31.2 0.5 S
MEK 27 1 P
MEK 44.7 1 S
XJI 27.2 0.5 P
XJI 44.9 0.5 S
# 2001 02 23 19 20 14.00 29.4667 101 0.000 2.7 0 0 0 1265
JLO 12.7 0.5 P
JLO 20.7 0.5 S
GDS 21 1 P
GDS 34.4 1 S
LFG 22.6 0.5 P
LFG 37.7 0.5 S
GZA 23.8 0.5 P
GZA 40 0.5 S
MLI 29.4 0.5 P
MLI 48.2 0.5 S
DFU 29.6 0.5 P
DFU 49.8 0.5 S
XJP 30.4 1 P
XJP 50.8 1 S
BTA 33.3 0.5 P
BTA 54.9 0.5 S
# 2001 02 23 20 36 58.30 29.4833 101.033 0.000 2.5 0 0 0 1267
JLO 12.4 0.5 P
JLO 20.5 0.5 S
GDS 20.2 1 P
GDS 33 1 S
LFG 22.7 0.5 P
LFG 37.9 0.5 S
GZA 23.3 0.5 P
GZA 38.9 0.5 S
YHZ 26.3 0.5 P
YHZ 41.7 0.5 S
XJP 29 1 P
XJP 49 1 S
MLI 29.3 0.5 P
MLI 48.3 0.5 S
DFU 29.5 0.5 P
DFU 48.5 0.5 S
BTA 35 0.5 P
BTA 57.3 0.5 S
# 2001 02 23 23 23 15.30 29.0833 102.333 12.000 2.0 0 0 0 1273
SMI 5.1 0.5 P
SMI 8.3 0.5 S
LFG 7.9 0.5 P
LFG 13.3 0.5 S
YHZ 7.9 0.5 P
YHZ 13.9 0.5 S
GZA 20.4 0.5 P
GZA 33.7 0.5 S
# 2001 02 23 23 24 45.80 29.7667 104.283 12.000 2.2 0 0 0 1274
YZP 28.9 1 P
YZP 48.9 1 S
LZZ 29.3 1 P
JHE 34.5 0.5 P
JHE 57.2 0.5 S
HMS 6.3 1 P
HMS 10.6 1 S
YGD 13.2 1 P
YGD 21.6 1 S
# 2001 02 24 00 08 36.00 31.5833 103.017 0.000 2.0 0 0 0 1277
PWU 30.6 0.5 P
PWU 50.4 0.5 S
DFU 33.4 0.5 P
DFU 54.6 0.5 S
HSH 9.4 0.5 P
HSH 15.6 0.5 S
WCH 10.4 0.5 P
WCH 17 0.5 S
MEK 13.7 1 P
MEK 22.2 1 S
MXI 15.1 0.5 P
MXI 24.3 0.5 S
XJI 15.4 0.5 P
XJI 25 0.5 S
YZP 17.3 1 P
YZP 28.6 1 S
JHE 17.7 0.5 P
JHE 29.7 0.5 S
SPA 23.6 0.5 P
SPA 39.1 0.5 S
# 2001 02 24 00 55 18.30 29.4333 101.067 5.000 2.9 0 0 0 1279
JLO 13 0.5 P
JLO 21.2 0.5 S
GDS 21 1 P
GDS 34.5 1 S
LFG 22.9 0.5 P
LFG 38.1 0.5 S
GZA 23.9 0.5 P
GZA 39.7 0.5 S
SMI 24.2 0.5 P
SMI 40.6 0.5 S
YHZ 25.4 0.5 P
YHZ 42.4 0.5 S
MLI 28.9 0.5 P
MLI 48.1 0.5 S
XJP 29.4 1 P
XJP 49.5 1 S
DFU 29.9 0.5 P
DFU 49.7 0.5 S
BTA 35.6 0.5 P
BTA 58 0.5 S
# 2001 02 24 02 22 20.00 29.4167 101.033 0.000 2.7 0 0 0 1281
JLO 12.5 0.5 P
JLO 20.4 0.5 S
GDS 20.2 1 P
GDS 33.6 1 S
LFG 22.2 0.5 P
LFG 37.8 0.5 S
GZA 23.4 0.5 P
GZA 38.6 0.5 S
SMI 24 0.5 P
SMI 40 0.5 S
YHZ 25.2 0.5 P
YHZ 41.7 0.5 S
MLI 28.6 0.5 P
MLI 48 0.5 S
DFU 29.2 0.5 P
DFU 49 0.5 S
XJP 29.7 1 P
XJP 48.9 1 S
BTA 34.7 0.5 P
BTA 57 0.5 S
DBC 36.5 0.5 P
DBC 54.2 0.5 S
# 2001 02 25 02 05 9.10 29.4333 101.05 5.000 2.6 0 0 0 1285
JLO 12.4 0.5 P
JLO 20.5 0.5 S
GDS 20.3 1 P
GDS 33.8 1 S
LFG 21.1 0.5 P
LFG 36.5 0.5 S
GZA 23.2 0.5 P
GZA 38.7 0.5 S
SMI 23.9 0.5 P
SMI 38.9 0.5 S
YHZ 24.1 0.5 P
YHZ 42.9 0.5 S
XJP 29.1 1 P
XJP 49 1 S
MLI 29.3 0.5 P
MLI 48.7 0.5 S
DFU 29.7 0.5 P
DFU 48.7 0.5 S
BTA 33.8 0.5 P
BTA 55.9 0.5 S
# 2001 02 25 06 28 9.30 29.5 101.033 11.000 2.0 0 0 0 1287
JLO 12.5 0.5 P
JLO 21.2 0.5 S
GDS 20.3 1 P
GDS 33.3 1 S
GZA 23.3 0.5 P
GZA 38.7 0.5 S
SMI 24.3 0.5 P
SMI 40.1 0.5 S
DFU 28.7 0.5 P
DFU 47.7 0.5 S
XJP 29.1 1 P
XJP 48.1 1 S
# 2001 02 25 07 42 40.10 29.4333 101.05 5.000 3.0 0 0 0 1288
GDS 21.3 1 P
GDS 34.7 1 S
LFG 22.7 0.5 P
LFG 37.9 0.5 S
GZA 24.3 0.5 P
GZA 40.3 0.5 S
SMI 24.7 0.5 P
SMI 40.9 0.5 S
YHZ 25 0.5 P
YHZ 42.7 0.5 S
MLI 29.5 0.5 P
MLI 49.7 0.5 S
XJP 29.7 1 P
XJP 49.5 1 S
DFU 30.3 0.5 P
DFU 50.3 0.5 S
JLO 13.1 0.5 P
JLO 21.7 0.5 S
# 2001 02 25 10 01 4.20 28.25 103.367 0.000 2.0 0 0 0 1291
LBO 4.6 0.5 P
LBO 7.8 0.5 S
HWS 27.9 1 P
HWS 45.4 1 S
HMS 33.1 1 P
HMS 55 1 S
GZA 44.2 0.5 P
GZA 73.4 0.5 S
# 2001 02 25 10 24 29.70 31.4833 104.1 0.000 1.7 0 0 0 1292
JHE 5.5 0.5 P
JHE 9.5 0.5 S
AXI 9.5 0.5 P
AXI 15.3 0.5 S
MXI 9.7 0.5 P
MXI 15.9 0.5 S
WCH 10.9 0.5 P
WCH 17.5 0.5 S
# 2001 02 25 14 57 26.90 29.4667 101.05 12.000 3.0 0 0 0 1298
BTA 33.6 0.5 P
BTA 55.8 0.5 S
JLO 12.3 0.5 P
JLO 20 0.5 S
GDS 19.8 1 P
GDS 32.9 1 S
LFG 19.9 0.5 P
LFG 34.4 0.5 S
GZA 22.8 0.5 P
GZA 37.3 0.5 S
YHZ 23 0.5 P
YHZ 38.7 0.5 S
SMI 23.1 0.5 P
SMI 38.1 0.5 S
XJP 27.9 1 P
XJP 48.4 1 S
DFU 29.1 0.5 P
DFU 48.9 0.5 S
MLI 29.9 0.5 P
MLI 49.5 0.5 S
# 2001 02 25 16 47 4.20 29.4667 101.033 14.000 2.7 0 0 0 1300
JLO 12 0.5 P
JLO 19.8 0.5 S
GDS 19.9 1 P
GDS 32.9 1 S
LFG 21.1 0.5 P
LFG 36.4 0.5 S
GZA 23 0.5 P
GZA 38.5 0.5 S
SMI 23.3 0.5 P
SMI 38.5 0.5 S
YHZ 25 0.5 P
YHZ 40.7 0.5 S
XJP 27.9 1 P
XJP 48.7 1 S
MLI 28.8 0.5 P
MLI 47.8 0.5 S
DFU 29.2 0.5 P
DFU 49.2 0.5 S
BTA 33.3 0.5 P
BTA 55.3 0.5 S
# 2001 02 26 01 30 43.10 31.1833 103.7 5.000 1.4 0 0 0 1308
WCH 9.3 0.5 P
WCH 14.9 0.5 S
JHE 9.9 0.5 P
JHE 16.8 0.5 S
YZP 10.4 1 P
YZP 17.7 1 S
MXI 13.2 0.5 P
MXI 21.2 0.5 S
# 2001 02 26 06 04 43.40 29.45 101.033 10.000 3.0 0 0 0 1311
GDS 20.5 1 P
GDS 34 1 S
LFG 22.1 0.5 P
LFG 36.9 0.5 S
GZA 23.6 0.5 P
GZA 38.8 0.5 S
SMI 24 0.5 P
SMI 39.7 0.5 S
YHZ 24.8 0.5 P
YHZ 41.2 0.5 S
MLI 28.6 0.5 P
MLI 47.6 0.5 S
XJP 29.2 1 P
XJP 49.5 1 S
DFU 29.3 0.5 P
DFU 49.2 0.5 S
BTA 33.4 0.5 P
BTA 55.4 0.5 S
JLO 13.2 0.5 P
JLO 21.1 0.5 S
# 2001 02 26 06 12 39.80 28.3667 104.883 14.000 2.4 0 0 0 1312
WMP 25.8 1 P
WMP 42.4 1 S
HMS 28.6 1 P
HMS 46.7 1 S
HWS 8.9 1 P
HWS 13.9 1 S
LZH 15.8 0.5 P
LZH 27.2 0.5 S
# 2001 02 26 06 13 54.00 29.1 106.5 6.000 3.2 0 0 0 1313
LZZ 13 1 P
LZZ 21.7 1 S
LZH 22 0.5 P
LZH 35 0.5 S
YZW 29.6 0.5 P
YZW 48.7 0.5 S
HWS 32.2 1 P
HWS 54.2 1 S
HMS 36.8 1 P
HMS 61.3 1 S
# 2001 02 26 09 24 2.80 27.0833 100.917 15.000 1.8 0 0 0 1315
XGS 17.1 0.5 P
XGS 28.2 0.5 S
MLI 17.7 0.5 P
MLI 29.7 0.5 S
PZH 19.7 0.5 P
PZH 33 0.5 S
HLI 27.2 0.5 P
HLI 45.2 0.5 S
# 2001 02 26 11 39 42.30 29.4333 101.1 5.000 1.9 0 0 0 1320
JLO 11.9 0.5 P
JLO 19.4 0.5 S
GDS 19.6 1 P
GDS 32.4 1 S
SMI 22.5 0.5 P
SMI 37.2 0.5 S
GZA 23.1 0.5 P
GZA 38.3 0.5 S
# 2001 02 26 12 18 1.60 29.4667 101 0.000 2.8 0 0 0 1321
JLO 12.8 0.5 P
JLO 21.5 0.5 S
GDS 21.6 1 P
GDS 34.9 1 S
LFG 23.4 0.5 P
LFG 37.9 0.5 S
SMI 24.8 0.5 P
SMI 40.6 0.5 S
GZA 24.9 0.5 P
GZA 40.6 0.5 S
YHZ 26 0.5 P
YHZ 43.1 0.5 S
MLI 30 0.5 P
MLI 49.8 0.5 S
DFU 30.9 0.5 P
DFU 50.9 0.5 S
BTA 34.2 0.5 P
BTA 56.5 0.5 S
# 2001 02 27 02 46 21.80 29.4333 101.017 7.000 2.2 0 0 0 1331
JLO 12.6 0.5 P
JLO 20.6 0.5 S
GDS 19.9 1 P
GDS 32.8 1 S
LFG 22.2 0.5 P
LFG 37.1 0.5 S
SMI 23.2 0.5 P
SMI 38.2 0.5 S
GZA 23.6 0.5 P
GZA 38.8 0.5 S
DFU 29.4 0.5 P
DFU 49.1 0.5 S
# 2001 02 27 14 18 43.90 32.1 105.067 14.000 2.2 0 0 0 1342
ZJG 10.8 1 P
ZJG 18 1 S
QCH 12.3 0.5 P
QCH 20.2 0.5 S
PWU 12.5 0.5 P
PWU 20.6 0.5 S
AXI 15.9 0.5 P
AXI 26.1 0.5 S
YTS 16.1 1 P
YTS 26.5 1 S
JHE 24 0.5 P
JHE 39.6 0.5 S
MXI 24.9 0.5 P
MXI 41.4 0.5 S
JJS 26.1 1 P
JJS 43 1 S
SPA 29.1 0.5 P
SPA 48.3 0.5 S
# 2001 02 27 14 29 15.10 32.2833 104.733 11.000 1.7 0 0 0 1344
YTS 29.1 1 S
PWU 4.9 0.5 P
PWU 7.7 0.5 S
ZJG 10.6 1 P
ZJG 17.2 1 S
QCH 10.6 0.5 P
QCH 17.7 0.5 S
AXI 13.9 0.5 P
AXI 23.3 0.5 S
# 2001 02 27 22 21 48.40 29.4167 101 5.000 3.2 0 0 0 1352
JLO 13.1 0.5 P
JLO 21.6 0.5 S
GDS 21.2 1 P
GDS 34.9 1 S
LFG 22.6 0.5 P
LFG 37.1 0.5 S
GZA 24.2 0.5 P
GZA 40.4 0.5 S
SMI 24.4 0.5 P
SMI 40.3 0.5 S
YHZ 25.3 0.5 P
YHZ 41.9 0.5 S
MLI 28.4 0.5 P
MLI 47.1 0.5 S
DFU 29.6 0.5 P
DFU 49.4 0.5 S
BTA 33.6 0.5 P
BTA 55.6 0.5 S
# 2001 02 28 04 00 14.70 28.2667 103.35 0.000 2.2 0 0 0 1353
LBO 4.2 0.5 P
LBO 6.3 0.5 S
WMP 17.8 1 P
WMP 28.7 1 S
HWS 26.7 1 P
HWS 43.5 1 S
HMS 31.8 1 P
HMS 52.8 1 S
LZH 37.3 0.5 P
LZH 61.7 0.5 S
# 2001 02 28 14 43 59.60 31.6167 104.233 5.000 1.5 0 0 0 1365
AXI 5.1 0.5 P
AXI 8.4 0.5 S
JHE 6.6 0.5 P
JHE 11.1 0.5 S
MXI 7.4 0.5 P
MXI 12.4 0.5 S
WCH 11 0.5 P
WCH 17.9 0.5 S
# 2001 03 01 11 33 37.00 30.3167 102.55 0.000 1.4 0 0 0 1385
GDS 13 1 P
GDS 20.8 1 S
GZA 14 0.5 P
GZA 23.3 0.5 S
XJI 18.9 0.5 P
XJI 30.4 0.5 S
XJP 22.2 1 P
XJP 38.5 1 S
# 2001 03 01 13 19 54.50 29.4667 101.05 0.000 3.5 0 0 0 1388
JLO 12.2 0.5 P
JLO 19.5 0.5 S
GDS 19.9 1 P
GDS 32.9 1 S
LFG 21.6 0.5 P
LFG 37.5 0.5 S
GZA 23 0.5 P
GZA 38.5 0.5 S
SMI 23 0.5 P
SMI 38 0.5 S
YHZ 24.4 0.5 P
YHZ 42.2 0.5 S
XJP 29 1 P
XJP 48 1 S
DFU 29.5 0.5 P
DFU 48.9 0.5 S
MLI 29.5 0.5 P
MLI 49.3 0.5 S
DBC 30.8 0.5 P
DBC 53.2 0.5 S
BTA 35.8 0.5 P
BTA 57.2 0.5 S
XJI 36.8 0.5 P
XJI 63.9 0.5 S
# 2001 03 01 18 44 56.30 31.2833 104.233 14.000 1.5 0 0 0 1392
JHE 7 0.5 P
JHE 10.8 0.5 S
AXI 7.9 0.5 P
AXI 13.3 0.5 S
MXI 8.7 0.5 P
MXI 14.7 0.5 S
WCH 11.5 0.5 P
WCH 19.3 0.5 S
# 2001 03 01 20 31 23.70 29.4333 101.067 5.000 2.3 0 0 0 1395
JLO 12.4 0.5 P
JLO 20.2 0.5 S
GDS 20.3 1 P
GDS 33.4 1 S
LFG 22.1 0.5 P
LFG 36.6 0.5 S
GZA 23.8 0.5 P
GZA 38.9 0.5 S
XJP 28.2 1 P
XJP 47.3 1 S
# 2001 03 02 11 22 17.70 29.2833 101.983 5.000 1.8 0 0 0 1404
JLO 8.3 0.5 P
JLO 13.8 0.5 S
SMI 9.1 0.5 P
SMI 15.1 0.5 S
XJP 15.3 1 P
XJP 25.3 1 S
GDS 17.6 1 P
GDS 28.3 1 S
GZA 18.3 0.5 P
GZA 30.7 0.5 S
# 2001 03 02 20 13 22.70 31.8333 102.05 14.000 1.8 0 0 0 1418
MEK 4.6 1 P
MEK 7.1 1 S
RTA 16.9 0.5 P
RTA 28.3 0.5 S
XJI 20.5 0.5 P
XJI 34.3 0.5 S
DFU 25.7 0.5 P
DFU 42.1 0.5 S
HSH 26.3 0.5 P
HSH 36.3 0.5 S
# 2001 03 03 00 16 59.60 29.4667 101.033 2.000 2.9 0 0 0 1424
JLO 13 0.5 P
JLO 20.9 0.5 S
GDS 20.9 1 P
GDS 34.5 1 S
LFG 22.8 0.5 P
LFG 37.4 0.5 S
GZA 23.9 0.5 P
GZA 39.4 0.5 S
SMI 24.6 0.5 P
SMI 39.8 0.5 S
YHZ 25.5 0.5 P
YHZ 42.5 0.5 S
XJP 29.6 1 P
XJP 49.5 1 S
DFU 29.8 0.5 P
DFU 49.8 0.5 S
MLI 30 0.5 P
MLI 49.4 0.5 S
BTA 33.3 0.5 P
BTA 54.9 0.5 S
# 2001 03 03 00 41 21.30 29.4667 101.05 12.000 2.5 0 0 0 1426
JLO 12.8 0.5 P
JLO 20.6 0.5 S
GDS 20.2 1 P
GDS 33.3 1 S
GZA 23.3 0.5 P
GZA 38.7 0.5 S
DFU 29.7 0.5 P
DFU 50.1 0.5 S
# 2001 03 03 14 00 18.80 29.2333 102.283 11.000 1.5 0 0 0 1436
SMI 2.2 0.5 P
SMI 3.4 0.5 S
XJP 7.6 1 P
XJP 13.1 1 S
LFG 9.2 0.5 P
LFG 15 0.5 S
JLO 13.8 0.5 P
JLO 22.8 0.5 S
GDS 16.9 1 P
GDS 28.4 1 S
HMS 37 1 P
HMS 60.7 1 S
# 2001 03 03 14 18 33.50 30.9833 103.267 0.000 1.7 0 0 0 1437
WCH 20.1 0.5 S
JJS 40.5 1 S
ZJG 29.9 1 P
ZJG 49.8 1 S
YZP 6.7 1 P
YZP 10.9 1 S
JHE 16.5 0.5 P
JHE 27.1 0.5 S
XJI 17.1 0.5 P
XJI 28.5 0.5 S
# 2001 03 03 15 48 7.20 30.3167 102.583 18.000 2.7 0 0 0 1439
JHE 49.8 0.5 S
GZA 10.2 0.5 P
GZA 16.6 0.5 S
GDS 13.4 1 P
GDS 22 1 S
XJI 13.7 0.5 P
XJI 21.7 0.5 S
XJP 18.5 1 P
XJP 30.7 1 S
YZP 19 1 P
YZP 31.6 1 S
EMS 36 1 S
SMI 22.8 0.5 P
SMI 37.9 0.5 S
WCH 25.1 0.5 P
WCH 41.5 0.5 S
YGD 25.5 1 P
YGD 42.9 1 S
DFU 27.6 0.5 P
DFU 46.2 0.5 S
MEK 29.5 1 P
MEK 48.5 1 S
LFG 30.7 0.5 P
LFG 51.9 0.5 S
WMP 31.2 1 P
WMP 51.5 1 S
HMS 32 1 P
HMS 55.6 1 S
JLO 32.8 0.5 P
JLO 54.4 0.5 S
HSH 35.8 0.5 P
# 2001 03 03 17 28 49.10 31.2333 103.933 11.000 1.4 0 0 0 1441
YZP 12.5 1 P
YZP 20.5 1 S
JJS 15 1 P
JJS 25.1 1 S
JHE 5.6 0.5 P
JHE 9.1 0.5 S
WCH 8.6 0.5 P
WCH 14.5 0.5 S
MXI 10.7 0.5 P
MXI 17.5 0.5 S
# 2001 03 03 17 38 4.50 30.95 103.267 7.000 2.1 0 0 0 1442
JHE 27.7 0.5 S
AXI 43.7 0.5 S
YZP 5.7 1 P
YZP 9.7 1 S
WCH 11.3 0.5 P
WCH 18.7 0.5 S
XJI 16.6 0.5 P
XJI 27.2 0.5 S
MXI 16.9 0.5 P
MXI 27.9 0.5 S
HSH 23.5 0.5 P
HSH 38.3 0.5 S
JJS 24.3 1 P
JJS 40.5 1 S
MEK 26.7 1 P
MEK 44.4 1 S
EMS 46.3 1 S
ZJG 29 1 P
ZJG 48.1 1 S
PWU 35.5 0.5 P
PWU 58.9 0.5 S
# 2001 03 03 18 22 43.10 32.2 103.733 0.000 1.7 0 0 0 1445
WCH 17.1 0.5 P
WCH 28.5 0.5 S
PWU 17.5 0.5 P
PWU 28.9 0.5 S
SPA 10.1 0.5 P
SPA 16.8 0.5 S
MXI 13.7 0.5 P
MXI 22.1 0.5 S
HSH 14.9 0.5 P
HSH 24.7 0.5 S
# 2001 03 03 18 49 32.90 29.0667 102.733 9.000 1.9 0 0 0 1446
XJP 5.6 1 P
XJP 9.5 1 S
SMI 8.4 0.5 P
SMI 13.7 0.5 S
YHZ 12.6 0.5 P
YHZ 20.6 0.5 S
LFG 13.3 0.5 P
LFG 21.5 0.5 S
WMP 17.3 1 P
WMP 29.2 1 S
JLO 21.4 0.5 P
JLO 34.3 0.5 S
GZA 22.1 0.5 P
GZA 36.5 0.5 S
GDS 22.4 1 P
GDS 37.7 1 S
# 2001 03 03 23 40 12.50 31.3833 101.167 0.000 2.1 0 0 0 1453
DFU 9.3 0.5 P
DFU 15.3 0.5 S
RTA 13.7 0.5 P
RTA 24.2 0.5 S
GZI 19.3 0.5 P
GZI 31.5 0.5 S
MEK 21.1 1 P
MEK 34.5 1 S
XJI 22.9 0.5 P
XJI 38.2 0.5 S
GZA 30.5 0.5 P
GZA 51.5 0.5 S
HSH 34.5 0.5 P
HSH 56.5 0.5 S
# 2001 03 04 02 07 1.00 29.4667 101.033 0.000 2.6 0 0 0 1457
JLO 13.2 0.5 P
JLO 20.8 0.5 S
GDS 21.1 1 P
GDS 34.6 1 S
LFG 22.3 0.5 P
LFG 37.2 0.5 S
GZA 24.6 0.5 P
GZA 40 0.5 S
SMI 24.7 0.5 P
SMI 40.8 0.5 S
YHZ 25.2 0.5 P
YHZ 41.9 0.5 S
MLI 29 0.5 P
MLI 49.6 0.5 S
DFU 29.6 0.5 P
DFU 49.8 0.5 S
# 2001 03 04 07 26 9.00 27.15 102.667 2.000 2.2 0 0 0 1467
YPU 5.1 0.5 P
YPU 12 0.5 S
DAQ 7.7 0.5 P
DAQ 15 0.5 S
PUW 10.8 0.5 P
PUW 19.3 0.5 S
HLI 15 0.5 P
HLI 25 0.5 S
PZH 20.6 0.5 P
PZH 33.6 0.5 S
# 2001 03 04 11 21 59.50 28.3833 104.933 10.000 2.3 0 0 0 1472
HWS 8.5 1 P
HWS 13.9 1 S
LZH 17.5 0.5 P
LZH 28.7 0.5 S
WMP 24.4 1 P
WMP 40.6 1 S
LBO 27.5 0.5 P
LBO 45.3 0.5 S
HMS 28.4 1 P
HMS 47.3 1 S
# 2001 03 04 13 35 17.00 29.4 101.067 0.000 2.4 0 0 0 1476
JLO 12.7 0.5 P
JLO 21 0.5 S
GDS 20.3 1 P
GDS 33.6 1 S
GZA 23.4 0.5 P
GZA 38.6 0.5 S
LFG 23.7 0.5 P
LFG 36.7 0.5 S
SMI 24 0.5 P
SMI 39.6 0.5 S
MLI 30.4 0.5 P
MLI 51.2 0.5 S
# 2001 03 04 14 32 54.30 31.7167 102.583 11.000 1.8 0 0 0 1478
MEK 6 1 P
MEK 10 1 S
HSH 9.1 0.5 P
HSH 14.7 0.5 S
XJI 14.3 0.5 P
XJI 23.3 0.5 S
WCH 16.1 0.5 P
WCH 26.9 0.5 S
MXI 21.1 0.5 P
MXI 34.5 0.5 S
RTA 25.5 0.5 P
RTA 42.7 0.5 S
# 2001 03 04 15 49 11.10 31.6167 100.617 0.000 2.1 0 0 0 1481
GZI 10.5 0.5 P
GZI 17.3 0.5 S
RTA 15.1 0.5 P
RTA 25.7 0.5 S
DFU 16.5 0.5 P
DFU 26.7 0.5 S
MEK 30.2 1 P
MEK 50.4 1 S
XJI 33.5 0.5 P
XJI 55.1 0.5 S
# 2001 03 04 21 10 45.30 29 101.85 7.000 2.7 0 0 0 1487
XJP 16.3 1 P
XJP 26.8 1 S
DBC 19.2 0.5 P
DBC 32.2 0.5 S
MMZ 19.7 0.5 P
MMZ 33.7 0.5 S
GDS 20.8 1 P
GDS 34.7 1 S
GZA 22.1 0.5 P
GZA 36.7 0.5 S
MLI 23.9 0.5 P
MLI 39.3 0.5 S
EMS 49 1 S
XJI 38.7 0.5 P
XJI 65.1 0.5 S
LFG 7.3 0.5 P
LFG 11.7 0.5 S
JLO 7.3 0.5 P
JLO 11.3 0.5 S
YHZ 9.8 0.5 P
YHZ 16.4 0.5 S
SMI 10.4 0.5 P
SMI 16.7 0.5 S
# 2001 03 04 23 25 1.10 31.85 101.1 5.000 1.6 0 0 0 1488
RTA 12.3 0.5 P
RTA 18.9 0.5 S
MEK 19.9 1 P
MEK 32.8 1 S
DFU 20.1 0.5 P
DFU 33.5 0.5 S
HSH 33.5 0.5 P
HSH 55.1 0.5 S
# 2001 03 05 02 33 14.00 29.4667 101.083 0.000 2.3 0 0 0 1490
JLO 12 0.5 P
JLO 19.6 0.5 S
GDS 19.2 1 P
GDS 31.9 1 S
GZA 22.8 0.5 P
GZA 37.6 0.5 S
LFG 23.6 0.5 P
LFG 36 0.5 S
YHZ 26.1 0.5 P
YHZ 41.1 0.5 S
DFU 30 0.5 P
DFU 49.2 0.5 S
# 2001 03 05 13 35 2.50 29.4667 101.067 13.000 2.5 0 0 0 1496
JLO 11.8 0.5 P
JLO 19.3 0.5 S
GDS 19.7 1 P
GDS 31.9 1 S
LFG 21.4 0.5 P
LFG 35.9 0.5 S
GZA 22.5 0.5 P
GZA 37.9 0.5 S
SMI 23.7 0.5 P
SMI 38 0.5 S
YHZ 24.6 0.5 P
YHZ 41.2 0.5 S
XJP 28.2 1 P
XJP 46.2 1 S
MLI 29.1 0.5 P
MLI 50.3 0.5 S
DFU 30.1 0.5 P
DFU 49.9 0.5 S
BTA 34.2 0.5 P
BTA 56.8 0.5 S
# 2001 03 05 19 47 47.50 31.2167 103.783 11.000 1.3 0 0 0 1508
JJS 16.5 1 P
JJS 27.5 1 S
JHE 7 0.5 P
JHE 11.9 0.5 S
WCH 8.9 0.5 P
WCH 14.7 0.5 S
YZP 10.7 1 P
YZP 17.1 1 S
MXI 12.3 0.5 P
MXI 20.1 0.5 S
# 2001 03 06 00 38 31.90 29.4667 101.1 12.000 2.3 0 0 0 1511
DFU 29.5 0.5 P
DFU 48.7 0.5 S
JLO 11.3 0.5 P
JLO 18.8 0.5 S
GDS 19.3 1 P
GDS 32.3 1 S
GZA 23.1 0.5 P
GZA 38.1 0.5 S
XJP 27.7 1 P
XJP 46.4 1 S
# 2001 03 06 04 56 14.50 32.5833 106.733 8.000 2.5 0 0 0 1515
SPA 83.9 0.5 S
YTS 19.7 1 P
YTS 32.5 1 S
QCH 26.5 0.5 P
QCH 44.3 0.5 S
PWU 37.1 0.5 P
PWU 61.3 0.5 S
ZJG 41.3 1 P
ZJG 68.4 1 S
# 2001 03 06 15 12 29.10 30.9667 104.583 7.000 2.0 0 0 0 1522
JJS 2.6 1 P
JJS 4.9 1 S
JHE 14.5 0.5 P
JHE 23.4 0.5 S
AXI 15.5 0.5 P
AXI 25.1 0.5 S
YZP 18.9 1 P
YZP 31.1 1 S
MXI 18.9 0.5 P
MXI 31.7 0.5 S
# 2001 03 06 19 41 24.70 27.8167 100.933 0.000 3.5 0 0 0 1525
GZA 46.5 0.5 P
LZH 66.7 0.5 P
MLI 7.1 0.5 P
MLI 10.8 0.5 S
XGS 14.6 0.5 P
DBC 22.1 0.5 P
DBC 39.7 0.5 S
YYC 23.2 0.5 P
YYC 41.8 0.5 S
PUW 23.8 0.5 P
PUW 41.6 0.5 S
MMZ 24.5 0.5 P
MMZ 44.1 0.5 S
JLO 25.1 0.5 P
JLO 41.5 0.5 S
DAQ 25.4 0.5 P
DAQ 45.4 0.5 S
XSB 26.5 0.5 P
XSB 48.3 0.5 S
LFG 26.8 0.5 P
LFG 46.9 0.5 S
PZH 27.5 0.5 P
PZH 47.3 0.5 S
YHZ 28.1 0.5 P
YHZ 50.4 0.5 S
YPU 31.1 0.5 P
YPU 54.4 0.5 S
HLI 32.1 0.5 P
HLI 53.7 0.5 S
# 2001 03 07 00 09 22.00 29.9333 103.033 15.000 2.0 0 0 0 1530
XJP 12.1 1 P
XJP 20.9 1 S
EMS 20.5 1 S
GZA 15.8 0.5 P
GZA 26 0.5 S
GDS 18.5 1 P
GDS 30.6 1 S
YGD 20.7 1 P
YGD 33.1 1 S
YZP 21.3 1 P
YZP 34.9 1 S
WMP 21.5 1 P
WMP 34.8 1 S
XJI 23.1 0.5 P
XJI 38.4 0.5 S
HMS 23.8 1 P
HMS 39.9 1 S
# 2001 03 07 19 51 23.60 27.75 102.75 6.000 4.2 0 0 0 1550
GZA 44.7 0.5 P
LZH 46.8 0.5 P
WCH 62.3 0.5 P
YPU 3.7 0.5 P
XSB 6.4 0.5 P
DAQ 6.8 0.5 P
YYC 9.4 0.5 P
YYC 15.4 0.5 S
MEK 69.9 1 P
MMZ 10.9 0.5 P
DBC 12 0.5 P
GZI 75.7 0.5 P
SMK 17.4 0.5 P
PUW 18.3 0.5 P
LBO 18.6 0.5 P
LBO 31.4 0.5 S
XGS 18.8 0.5 P
RTA 80.2 0.5 P
YHZ 21.2 0.5 P
HLI 22.4 0.5 P
HLI 37.4 0.5 S
LFG 22.7 0.5 P
MLI 23.8 0.5 P
MLI 39.7 0.5 S
PZH 28 0.5 P
PZH 46.6 0.5 S
SMI 29.4 0.5 P
SMI 49.4 0.5 S
WMP 30.2 1 P
WMP 52 1 S
JLO 30.9 0.5 P
JLO 53.2 0.5 S
# 2001 03 07 20 11 14.60 27.75 102.75 9.000 2.8 0 0 0 1551
YPU 2.6 0.5 P
XSB 5.1 0.5 P
XSB 8.5 0.5 S
DAQ 5.7 0.5 P
DAQ 9.6 0.5 S
YYC 7.6 0.5 P
YYC 13.9 0.5 S
MMZ 10.5 0.5 P
MMZ 19.3 0.5 S
DBC 11.6 0.5 P
DBC 20.8 0.5 S
SMK 16.5 0.5 P
SMK 29.6 0.5 S
PUW 17.5 0.5 P
PUW 30.4 0.5 S
XGS 17.7 0.5 P
XGS 29.7 0.5 S
LBO 19.4 0.5 P
LBO 31.6 0.5 S
HLI 21.6 0.5 P
HLI 36 0.5 S
MLI 22.8 0.5 P
MLI 38 0.5 S
PZH 27.4 0.5 P
PZH 46.4 0.5 S
SMI 27.9 0.5 P
SMI 48.9 0.5 S
# 2001 03 07 21 55 13.20 27.7333 102.717 15.000 2.2 0 0 0 1559
YPU 1.3 0.5 P
YPU 3.3 0.5 S
XSB 4.2 0.5 P
XSB 8 0.5 S
DAQ 4.8 0.5 P
DAQ 9.1 0.5 S
YYC 7.5 0.5 P
YYC 12.9 0.5 S
LBO 16.8 0.5 P
LBO 28 0.5 S
HLI 21.3 0.5 P
HLI 35.2 0.5 S
MLI 24 0.5 P
MLI 39.4 0.5 S
PZH 26.6 0.5 P
PZH 45.4 0.5 S
SMI 28.4 0.5 P
SMI 47.1 0.5 S
# 2001 03 08 14 23 31.10 29.45 101.05 10.000 2.3 0 0 0 1581
DFU 29.4 0.5 P
DFU 48.9 0.5 S
JLO 12.1 0.5 P
JLO 19.6 0.5 S
GDS 19.7 1 P
GDS 32.8 1 S
GZA 23.1 0.5 P
GZA 38.3 0.5 S
XJP 26.9 1 P
XJP 47.5 1 S
# 2001 03 08 19 33 41.30 31.5333 102.383 9.000 2.1 0 0 0 1585
YZP 23.3 1 P
YZP 38.9 1 S
MXI 23.6 0.5 P
MXI 38.9 0.5 S
RTA 24.5 0.5 P
RTA 42.7 0.5 S
SPA 28.7 0.5 P
SPA 47.5 0.5 S
MEK 7.5 1 P
MEK 12.4 1 S
XJI 11.1 0.5 P
XJI 18.1 0.5 S
HSH 13.7 0.5 P
HSH 22.7 0.5 S
WCH 18.3 0.5 P
WCH 30.5 0.5 S
# 2001 03 08 20 48 35.70 31.7833 102.367 13.000 1.8 0 0 0 1587
MEK 4.4 1 P
MEK 6.6 1 S
HSH 10.7 0.5 P
HSH 17.8 0.5 S
XJI 18.1 0.5 P
XJI 29.9 0.5 S
RTA 22.7 0.5 P
RTA 38 0.5 S
# 2001 03 09 04 35 49.80 29.4667 101.067 8.000 2.4 0 0 0 1597
JLO 12.9 0.5 P
JLO 20.8 0.5 S
GDS 20.5 1 P
GDS 33.8 1 S
GZA 23.8 0.5 P
GZA 39.2 0.5 S
XJP 29.2 1 P
XJP 48.9 1 S
DFU 30 0.5 P
DFU 49.8 0.5 S
