# 2001 02 03 16 13 41.00 32 102.717 9.000 1.6 0 0 0 746
HSH 7 0.5 P
HSH 11.5 0.5 S
MEK 11.5 1 P
MEK 19 1 S
XJI 25.4 0.5 P
XJI 42.2 0.5 S
RTA 27.4 0.5 P
RTA 45.6 0.5 S
# 2001 02 04 04 42 4.40 29.9833 103.117 0.000 2.0 0 0 0 753
EMS 20.9 1 S
XJP 15.9 1 P
XJP 26.4 1 S
GZA 18 0.5 P
GZA 29.2 0.5 S
GDS 20.6 1 P
GDS 34.2 1 S
YZP 20.8 1 P
YZP 33.4 1 S
SMI 21.2 0.5 P
SMI 34.9 0.5 S
HMS 23.3 1 P
HMS 39 1 S
HMS 23.6 1 P
HMS 39.2 1 S
XJI 24.4 0.5 P
XJI 40.2 0.5 S
JJS 30.8 1 P
JJS 52 1 S
JLO 33.2 0.5 P
JLO 55.6 0.5 S
# 2001 02 04 08 42 4.30 31.75 104.433 0.000 1.8 0 0 0 755
AXI 6.5 0.5 P
AXI 10.7 0.5 S
MXI 9.5 0.5 P
MXI 16.3 0.5 S
JHE 14.4 0.5 P
JHE 24.3 0.5 S
PWU 17.1 0.5 P
PWU 27.3 0.5 S
WCH 19.1 0.5 P
WCH 30.7 0.5 S
SPA 24.7 0.5 P
SPA 41.5 0.5 S
HSH 26.7 0.5 P
HSH 43.7 0.5 S
YZP 27.7 1 P
YZP 46.3 1 S
# 2001 02 04 16 55 46.20 31.5333 104.083 5.000 1.4 0 0 0 762
JJS 16 1 P
JJS 26 1 S
JHE 3.9 0.5 P
JHE 6.9 0.5 S
AXI 7.1 0.5 P
AXI 12 0.5 S
MXI 7.3 0.5 P
MXI 12.1 0.5 S
WCH 10 0.5 P
WCH 15.8 0.5 S
# 2001 02 04 17 42 53.90 31.6 104.433 0.000 1.5 0 0 0 763
JHE 10.5 0.5 P
JHE 18 0.5 S
MXI 10.6 0.5 P
MXI 17.1 0.5 S
WCH 15.5 0.5 P
WCH 24.7 0.5 S
AXI 2 0.5 P
AXI 3.9 0.5 S
# 2001 02 04 21 08 3.00 31.5667 101.917 12.000 1.7 0 0 0 768
MEK 8.2 1 P
MEK 13.4 1 S
XJI 13.8 0.5 P
XJI 22.5 0.5 S
DFU 18 0.5 P
DFU 29.7 0.5 S
RTA 19 0.5 P
RTA 31.5 0.5 S
HSH 19.2 0.5 P
HSH 31.8 0.5 S
# 2001 02 04 22 22 10.60 29.1833 101.983 5.000 2.3 0 0 0 769
JLO 7.5 0.5 P
JLO 13.1 0.5 S
SMI 8.8 0.5 P
SMI 14.6 0.5 S
YHZ 11 0.5 P
YHZ 19.2 0.5 S
GZA 18.2 0.5 P
GZA 29.7 0.5 S
DBC 21.5 0.5 P
DBC 36.9 0.5 S
MLI 27.2 0.5 P
MLI 43.8 0.5 S
# 2001 02 05 20 48 57.40 31.1667 103.65 5.000 1.5 0 0 0 784
YZP 7.6 1 P
YZP 12 1 S
WCH 7.6 0.5 P
WCH 12.1 0.5 S
JHE 8.5 0.5 P
JHE 14.2 0.5 S
MXI 11.2 0.5 P
MXI 18.8 0.5 S
AXI 17 0.5 P
AXI 28.4 0.5 S
HSH 21.4 0.5 P
HSH 35.4 0.5 S
# 2001 02 05 21 58 53.00 27.4833 103.217 13.000 1.7 0 0 0 787
PZH 54.2 0.5 S
YPU 8.4 0.5 P
YPU 14.7 0.5 S
HLI 25.4 0.5 P
HLI 42 0.5 S
# 2001 02 07 00 09 52.00 29.2333 101.983 0.000 2.3 0 0 0 796
JLO 8.4 0.5 P
JLO 14.4 0.5 S
SMI 9.6 0.5 P
SMI 15.5 0.5 S
YHZ 12.6 0.5 P
YHZ 20.5 0.5 S
XJP 16.2 1 P
XJP 27.4 1 S
GDS 17.8 1 P
GDS 28.9 1 S
GZA 19.1 0.5 P
GZA 31.6 0.5 S
# 2001 02 07 18 39 56.70 31.15 103.667 8.000 2.0 0 0 0 805
YZP 8.3 1 P
YZP 14.3 1 S
WCH 9.1 0.5 P
WCH 14.9 0.5 S
JHE 9.9 0.5 P
JHE 16.7 0.5 S
MXI 13.1 0.5 P
MXI 21.1 0.5 S
# 2001 02 08 00 20 30.10 30.4333 103.533 5.000 2.9 0 0 0 807
HSH 33.1 0.5 P
HSH 54.9 0.5 S
YZP 10.1 1 P
YZP 16.9 1 S
JHE 20.9 0.5 P
JHE 34.7 0.5 S
WCH 21.1 0.5 P
WCH 35.3 0.5 S
JJS 21.9 1 P
JJS 35.9 1 S
HMS 22.8 1 P
HMS 37.7 1 S
XJI 24.1 0.5 P
XJI 39.6 0.5 S
GZA 24.9 0.5 P
GZA 41.1 0.5 S
AXI 28.1 0.5 P
AXI 47.1 0.5 S
MXI 28.9 0.5 P
MXI 45.3 0.5 S
# 2001 02 09 11 33 16.60 30.6167 103.05 8.000 2.1 0 0 0 821
YZP 11.2 1 P
YZP 20 1 S
XJI 14.5 0.5 P
XJI 24 0.5 S
GZA 18 0.5 P
GZA 29.8 0.5 S
WCH 18.6 0.5 P
WCH 30.6 0.5 S
MEK 29.4 1 P
MEK 47.9 1 S
HMS 30.2 1 P
HMS 51.2 1 S
# 2001 02 09 17 44 48.60 30.4167 102.617 5.000 2.7 0 0 0 822
GZA 11.7 0.5 P
GZA 19.3 0.5 S
XJI 14.2 0.5 P
XJI 22.4 0.5 S
GDS 15.3 1 P
GDS 24.8 1 S
YZP 19.6 1 P
YZP 32.8 1 S
XJP 22 1 P
XJP 36.3 1 S
SMI 24.3 0.5 P
SMI 40.3 0.5 S
WCH 26.4 0.5 P
WCH 44.4 0.5 S
DFU 29.6 0.5 P
DFU 48.4 0.5 S
MEK 30.5 1 P
MEK 50.8 1 S
JHE 30.7 0.5 P
JHE 52.2 0.5 S
HSH 33.4 0.5 P
HSH 56 0.5 S
JJS 35.4 1 P
JJS 59.4 1 S
# 2001 02 10 11 06 21.10 29.0333 101.867 10.000 2.7 0 0 0 830
JLO 7.3 0.5 P
JLO 11.5 0.5 S
YHZ 9.4 0.5 P
YHZ 15.5 0.5 S
SMI 10.2 0.5 P
SMI 16.9 0.5 S
DBC 18.7 0.5 P
DBC 31.5 0.5 S
GZA 21.9 0.5 P
GZA 36.4 0.5 S
MLI 23.3 0.5 P
MLI 38.9 0.5 S
# 2001 02 10 15 10 52.70 28.4667 101.95 5.000 2.4 0 0 0 833
YHZ 9.3 0.5 P
YHZ 14.8 0.5 S
MMZ 10.9 0.5 P
MMZ 18.3 0.5 S
JLO 15.5 0.5 P
JLO 25.8 0.5 S
SMI 18.4 0.5 P
SMI 31 0.5 S
SMI 18.4 0.5 P
SMI 31 0.5 S
# 2001 02 11 00 02 52.00 29.3167 105.667 10.000 2.8 0 0 0 844
LZH 16 0.5 P
LZH 25.9 0.5 S
YZW 17.6 0.5 P
YZW 26 0.5 S
HMS 25.6 1 P
HMS 42.2 1 S
HWS 26.5 1 P
HWS 43.4 1 S
WMP 33.9 1 P
WMP 56.7 1 S
# 2001 02 11 00 41 37.50 26.8833 102.967 10.000 2.5 0 0 0 845
XGS 25.7 0.5 P
XGS 42.3 0.5 S
LBO 30.3 0.5 P
LBO 52.5 0.5 S
SMK 4.6 0.5 P
SMK 7.5 0.5 S
HLI 13.5 0.5 P
HLI 22.5 0.5 S
YPU 16.3 0.5 P
YPU 26.6 0.5 S
PUW 17.4 0.5 P
PUW 27.8 0.5 S
BYD 19 0.5 P
BYD 29.8 0.5 S
PZH 22.4 0.5 P
PZH 36.5 0.5 S
# 2001 02 11 01 33 20.40 29.1833 101.983 0.000 2.1 0 0 0 846
JLO 7.8 0.5 P
JLO 12.5 0.5 S
SMI 8.7 0.5 P
SMI 14.6 0.5 S
YHZ 11.8 0.5 P
YHZ 19.9 0.5 S
XJP 15.8 1 P
XJP 26.2 1 S
GDS 16.9 1 P
GDS 27.9 1 S
GZA 18.6 0.5 P
GZA 34 0.5 S
# 2001 02 11 04 28 41.00 26.9333 102.833 5.000 2.1 0 0 0 851
PZH 21 0.5 P
PZH 35 0.5 S
SMK 2.6 0.5 P
SMK 5.4 0.5 S
HLI 12.5 0.5 P
HLI 20.5 0.5 S
YPU 14.6 0.5 P
YPU 24.9 0.5 S
# 2001 02 11 05 16 18.00 29.2 105.6 3.000 2.0 0 0 0 852
LZH 12 0.5 P
LZH 19.8 0.5 S
HMS 20.8 1 P
HMS 35 1 S
HWS 21.4 1 P
HWS 35.9 1 S
WMP 30 1 P
WMP 50 1 S
# 2001 02 11 06 25 36.20 29.6667 102.283 0.000 2.1 0 0 0 854
XJI 26.6 0.5 P
XJI 43.3 0.5 S
YZP 31.9 1 P
YZP 52.9 1 S
SMI 8.6 0.5 P
SMI 15.8 0.5 S
GZA 9.6 0.5 P
GZA 14.9 0.5 S
GDS 10 1 P
GDS 16.2 1 S
XJP 10.6 1 P
JLO 19 0.5 P
JLO 32 0.5 S
# 2001 02 12 17 55 4.60 29.4333 101.083 6.000 2.7 0 0 0 895
JLO 11.8 0.5 P
JLO 19.5 0.5 S
GDS 19.5 1 P
GDS 32.7 1 S
SMI 22.7 0.5 P
SMI 37 0.5 S
GZA 22.9 0.5 P
GZA 37.4 0.5 S
YHZ 25 0.5 P
YHZ 40.7 0.5 S
MLI 28.4 0.5 P
MLI 49.9 0.5 S
XJP 28.5 1 P
XJP 47.7 1 S
DFU 28.6 0.5 P
DFU 48 0.5 S
DBC 31.4 0.5 P
DBC 53 0.5 S
BTA 33.4 0.5 P
BTA 55.5 0.5 S
# 2001 02 12 19 40 16.10 27.6333 102.417 8.000 1.7 0 0 0 897
DAQ 2.3 0.5 P
DAQ 3.9 0.5 S
XSB 4.4 0.5 P
XSB 7.5 0.5 S
YYC 4.8 0.5 P
YYC 8 0.5 S
# 2001 02 12 20 22 15.40 29.35 101.133 8.000 2.3 0 0 0 898
JLO 10.2 0.5 P
JLO 16.6 0.5 S
GZA 21.9 0.5 P
GZA 36.6 0.5 S
SMI 22.1 0.5 P
SMI 36.5 0.5 S
BTA 32 0.5 P
BTA 54 0.5 S
BTA 54 0.5 S
# 2001 02 12 20 44 50.10 29.4167 101.117 10.000 3.3 0 0 0 899
JLO 12.1 0.5 P
JLO 18.9 0.5 S
GDS 20.4 1 P
GDS 33.4 1 S
SMI 22.9 0.5 P
SMI 37.9 0.5 S
GZA 23 0.5 P
GZA 38.1 0.5 S
YHZ 24.2 0.5 P
YHZ 41 0.5 S
MLI 28.1 0.5 P
MLI 47.9 0.5 S
DFU 28.9 0.5 P
DFU 47.9 0.5 S
XJP 29 1 P
XJP 47.3 1 S
DBC 31.3 0.5 P
DBC 53.5 0.5 S
MMZ 32.4 0.5 P
MMZ 55.7 0.5 S
BTA 33.7 0.5 P
BTA 55.7 0.5 S
# 2001 02 12 21 01 50.20 29.3667 101.05 5.000 2.4 0 0 0 902
JLO 11.5 0.5 P
JLO 19.2 0.5 S
GDS 19.2 1 P
GDS 32.2 1 S
GZA 22.7 0.5 P
GZA 37.2 0.5 S
SMI 22.8 0.5 P
SMI 37.4 0.5 S
XJP 28.3 1 P
XJP 47.7 1 S
MLI 29 0.5 P
MLI 47.4 0.5 S
BTA 33.3 0.5 P
BTA 55.3 0.5 S
# 2001 02 13 01 00 9.40 29.45 101.033 15.000 2.8 0 0 0 911
JLO 11.8 0.5 P
JLO 20 0.5 S
GDS 19.7 1 P
GDS 32.9 1 S
GZA 22.8 0.5 P
GZA 37.8 0.5 S
SMI 22.9 0.5 P
SMI 37.6 0.5 S
YHZ 25.4 0.5 P
YHZ 40.9 0.5 S
MLI 28 0.5 P
MLI 46 0.5 S
DFU 29.2 0.5 P
DFU 48.6 0.5 S
DBC 31.5 0.5 P
DBC 52.9 0.5 S
BTA 34.3 0.5 P
BTA 56.3 0.5 S
# 2001 02 13 15 32 21.90 29.4833 101.067 5.000 2.4 0 0 0 924
JLO 12.6 0.5 P
JLO 19.9 0.5 S
GDS 19.9 1 P
GDS 32.9 1 S
SMI 23.1 0.5 P
SMI 38.2 0.5 S
GZA 23.1 0.5 P
GZA 39.1 0.5 S
DFU 29.1 0.5 P
DFU 48.1 0.5 S
BTA 33.1 0.5 P
BTA 55.6 0.5 S
# 2001 02 13 18 33 21.50 31.2 104.2 5.000 1.6 0 0 0 934
JHE 5.8 0.5 P
JHE 9.4 0.5 S
WCH 9.5 0.5 P
WCH 15.5 0.5 S
MXI 11.1 0.5 P
MXI 17.9 0.5 S
YZP 12.5 1 P
YZP 21.5 1 S
# 2001 02 14 01 42 22.20 29.3833 101.083 0.000 2.1 0 0 0 938
JLO 13.1 0.5 P
JLO 21 0.5 S
GDS 20.8 1 P
GDS 34.3 1 S
GZA 23.8 0.5 P
GZA 39.2 0.5 S
XJP 30.4 1 P
XJP 50.8 1 S
# 2001 02 14 05 36 5.20 29.1167 104.817 9.000 2.0 0 0 0 940
SFS 4.8 0.5 P
SFS 6.4 0.5 S
YZW 7 0.5 P
YZW 10.4 0.5 S
LZH 13.8 0.5 P
LZH 22.4 0.5 S
HMS 14.4 1 P
HMS 22.6 1 S
HWS 14.5 1 P
HWS 23.2 1 S
LZZ 22.6 1 P
LZZ 37.6 1 S
YGD 27.3 1 P
YGD 43.6 1 S
LBO 27.8 0.5 P
LBO 46 0.5 S
# 2001 02 14 13 00 32.60 29.4667 101.033 6.000 3.1 0 0 0 945
MLI 28.8 0.5 P
MLI 48.2 0.5 S
XJP 29.6 1 P
XJP 50 1 S
DFU 29.8 0.5 P
DFU 49.6 0.5 S
BTA 34.3 0.5 P
BTA 56.3 0.5 S
JLO 12.4 0.5 P
JLO 20.4 0.5 S
GDS 20.6 1 P
GDS 34 1 S
SMI 23.4 0.5 P
SMI 38.6 0.5 S
GZA 23.8 0.5 P
GZA 39.4 0.5 S
YHZ 25 0.5 P
YHZ 42 0.5 S
# 2001 02 14 15 27 28.20 29.4 101.083 8.000 0.0 0 0 0 946
DBC 31.9 0.5 P
MMZ 33 0.5 P
BTA 34.1 0.5 P
BTA 57.1 0.5 S
YYC 36.5 0.5 P
YYC 62.3 0.5 S
YZP 48.8 1 P
JJS 57.8 1 P
JLO 12.8 0.5 P
JLO 20.8 0.5 S
GDS 20.4 1 P
GDS 33.6 1 S
SMI 23.4 0.5 P
SMI 38.5 0.5 S
GZA 23.4 0.5 P
GZA 38.6 0.5 S
YHZ 24.7 0.5 P
MLI 28.2 0.5 P
MLI 46.8 0.5 S
DFU 29.2 0.5 P
DFU 49 0.5 S
XJP 29.8 1 P
XJP 49.4 1 S
# 2001 02 14 15 39 59.90 29.5 101.033 3.000 3.0 0 0 0 951
JLO 12.7 0.5 P
JLO 20.5 0.5 S
GZA 23.3 0.5 P
GZA 38.7 0.5 S
SMI 23.5 0.5 P
SMI 39.1 0.5 S
YHZ 25 0.5 P
DFU 29.1 0.5 P
DFU 48.9 0.5 S
BTA 34.2 0.5 P
BTA 56.2 0.5 S
# 2001 02 14 15 51 22.00 29.4 101.033 0.000 2.5 0 0 0 955
JLO 12.5 0.5 P
JLO 20 0.5 S
GDS 19.9 1 P
GDS 33.1 1 S
GZA 23.4 0.5 P
GZA 39 0.5 S
XJP 29.8 1 P
XJP 49.5 1 S
BTA 33.5 0.5 P
BTA 55.5 0.5 S
# 2001 02 14 15 52 56.20 29.4167 101.083 5.000 1.9 0 0 0 956
JLO 12.2 0.5 P
JLO 20.1 0.5 S
GDS 20.2 1 P
GDS 33.4 1 S
GZA 23.8 0.5 P
GZA 39.2 0.5 S
XJP 29 1 P
XJP 48.7 1 S
# 2001 02 14 15 54 36.90 29.4167 101.033 6.000 2.5 0 0 0 957
GZA 23.2 0.5 P
GZA 38.5 0.5 S
XJP 28.6 1 P
XJP 48.8 1 S
BTA 33.5 0.5 P
BTA 55.5 0.5 S
JLO 12 0.5 P
JLO 19.9 0.5 S
GDS 19.7 1 P
GDS 33 1 S
# 2001 02 14 16 00 51.10 29.4167 101.133 0.000 2.1 0 0 0 959
JLO 11.9 0.5 P
JLO 19.6 0.5 S
GDS 20.1 1 P
GDS 33.4 1 S
GZA 23.3 0.5 P
GZA 38.3 0.5 S
XJP 28.4 1 P
XJP 47.1 1 S
# 2001 02 14 16 24 47.90 29.45 101.017 5.000 3.3 0 0 0 960
JLO 12.3 0.5 P
JLO 20.3 0.5 S
GDS 20.3 1 P
GDS 33.7 1 S
GZA 23.1 0.5 P
GZA 38.6 0.5 S
SMI 23.5 0.5 P
SMI 39.1 0.5 S
YHZ 24.6 0.5 P
YHZ 41.3 0.5 S
MLI 28.1 0.5 P
MLI 47.1 0.5 S
DFU 29.1 0.5 P
DFU 48.1 0.5 S
XJP 29.4 1 P
XJP 48.6 1 S
DBC 31.4 0.5 P
DBC 53.1 0.5 S
MMZ 32.7 0.5 P
MMZ 56 0.5 S
BTA 33.7 0.5 P
BTA 55.7 0.5 S
# 2001 02 14 16 48 45.40 29.4333 101.117 5.000 2.3 0 0 0 965
GDS 19.6 1 P
GDS 32.2 1 S
GZA 22.6 0.5 P
GZA 37.8 0.5 S
XJP 28.2 1 P
XJP 46.5 1 S
JLO 11.5 0.5 P
JLO 19.2 0.5 S
# 2001 02 14 17 50 30.90 29.4667 101.033 5.000 2.9 0 0 0 970
MLI 29.3 0.5 P
MLI 49.3 0.5 S
BTA 33.8 0.5 P
BTA 55.8 0.5 S
JLO 12.5 0.5 P
JLO 20.5 0.5 S
GDS 19.6 1 P
GDS 32.7 1 S
GZA 23.3 0.5 P
GZA 38.1 0.5 S
SMI 23.4 0.5 P
SMI 38.5 0.5 S
YHZ 24.4 0.5 P
YHZ 41.3 0.5 S
DFU 28.5 0.5 P
DFU 47.1 0.5 S
XJP 28.9 1 P
XJP 48.7 1 S
# 2001 02 14 18 34 57.00 29.45 101.017 5.000 2.6 0 0 0 976
JLO 12.6 0.5 P
JLO 20.2 0.5 S
GDS 20.1 1 P
GDS 33.2 1 S
GZA 23.3 0.5 P
GZA 38.6 0.5 S
SMI 23.4 0.5 P
SMI 38.8 0.5 S
YHZ 24.3 0.5 P
YHZ 41.2 0.5 S
MLI 29 0.5 P
MLI 47.6 0.5 S
XJP 29.3 1 P
XJP 49.1 1 S
DFU 30 0.5 P
DFU 49 0.5 S
BTA 33.8 0.5 P
BTA 55.8 0.5 S
# 2001 02 14 21 37 24.20 31.4333 104.1 9.000 1.9 0 0 0 990
JHE 4.3 0.5 P
JHE 6.9 0.5 S
MXI 7.2 0.5 P
MXI 11.6 0.5 S
AXI 7.9 0.5 P
AXI 13.2 0.5 S
WCH 9.6 0.5 P
WCH 15.8 0.5 S
ZJG 13.2 1 P
ZJG 22.7 1 S
JJS 14.6 1 P
JJS 25.4 1 S
YZP 16 1 P
YZP 26.9 1 S
# 2001 02 15 03 45 16.10 29.4167 101.117 9.000 2.1 0 0 0 999
JLO 12.5 0.5 P
JLO 20.3 0.5 S
GDS 20.5 1 P
GDS 33.6 1 S
GZA 23.9 0.5 P
GZA 39.3 0.5 S
XJP 28.8 1 P
XJP 48.1 1 S
# 2001 02 15 09 15 58.70 29.4667 101.017 8.000 2.7 0 0 0 1010
JLO 12.2 0.5 P
JLO 20.1 0.5 S
GDS 20 1 P
GDS 33.1 1 S
GZA 23.3 0.5 P
GZA 38.3 0.5 S
SMI 23.6 0.5 P
SMI 38.9 0.5 S
YHZ 27.1 0.5 P
YHZ 43.3 0.5 S
MLI 28.3 0.5 P
MLI 47.3 0.5 S
XJP 29 1 P
XJP 48.8 1 S
DFU 29.1 0.5 P
DFU 48.3 0.5 S
BTA 34 0.5 P
BTA 56 0.5 S
# 2001 02 15 12 11 11.70 31.9167 104.367 0.000 2.3 0 0 0 1015
AXI 6 0.5 P
AXI 10.1 0.5 S
ZJG 6.6 1 P
ZJG 10.7 1 S
MXI 10.5 0.5 P
MXI 17.1 0.5 S
PWU 11.7 0.5 P
PWU 18.7 0.5 S
JHE 13.3 0.5 P
JHE 22.3 0.5 S
WCH 15.5 0.5 P
WCH 25.7 0.5 S
JJS 19.3 1 P
JJS 32.3 1 S
SPA 20.4 0.5 P
SPA 34.1 0.5 S
QCH 21.3 0.5 P
QCH 34.3 0.5 S
HSH 23.9 0.5 P
HSH 39.3 0.5 S
YZP 25.7 1 P
YZP 42 1 S
# 2001 02 16 06 37 57.10 29.4833 101.017 9.000 2.7 0 0 0 1034
JLO 12.4 0.5 P
JLO 20.3 0.5 S
GDS 20 1 P
GDS 33.4 1 S
GZA 23.4 0.5 P
GZA 38.4 0.5 S
SMI 23.6 0.5 P
SMI 38.5 0.5 S
YHZ 24.7 0.5 P
YHZ 43.1 0.5 S
XJP 29 1 P
XJP 48.7 1 S
DFU 29.1 0.5 P
DFU 48.1 0.5 S
MMZ 32.7 0.5 P
MMZ 56.3 0.5 S
BTA 33.9 0.5 P
BTA 56 0.5 S
# 2001 02 16 07 03 16.80 29.4333 101.05 5.000 2.7 0 0 0 1035
JLO 12.4 0.5 P
JLO 20.6 0.5 S
GDS 20.2 1 P
GDS 33.3 1 S
GZA 23.2 0.5 P
GZA 38.6 0.5 S
SMI 23.6 0.5 P
SMI 38.6 0.5 S
YHZ 24.8 0.5 P
YHZ 43.1 0.5 S
XJP 28.9 1 P
XJP 48.4 1 S
MLI 29.2 0.5 P
MLI 48.2 0.5 S
DFU 29.2 0.5 P
DFU 48.8 0.5 S
# 2001 02 16 10 16 3.20 29.4333 101.067 5.000 2.2 0 0 0 1041
JLO 13 0.5 P
JLO 21.2 0.5 S
GDS 20.8 1 P
GDS 34 1 S
GZA 23.8 0.5 P
GZA 39.2 0.5 S
SMI 24.6 0.5 P
SMI 40.8 0.5 S
XJP 29.8 1 P
XJP 50.3 1 S
# 2001 02 16 10 31 41.30 29.3667 101.117 0.000 2.0 0 0 0 1042
GDS 19.7 1 P
GDS 32.6 1 S
GZA 23.5 0.5 P
GZA 38.3 0.5 S
XJP 28.7 1 P
XJP 48.5 1 S
JLO 11.9 0.5 P
JLO 19.2 0.5 S
# 2001 02 16 10 38 22.00 29.4 101.117 0.000 2.1 0 0 0 1043
JLO 12.5 0.5 P
JLO 20 0.5 S
GDS 20.2 1 P
GDS 33.2 1 S
GZA 23.4 0.5 P
GZA 39.4 0.5 S
XJP 29.8 1 P
XJP 49.7 1 S
# 2001 02 16 13 15 59.50 31.8667 104.367 0.000 1.7 0 0 0 1049
QCH 33.1 0.5 S
JHE 20.6 0.5 S
WCH 24.5 0.5 S
AXI 5.5 0.5 P
AXI 8.5 0.5 S
ZJG 5.8 1 P
ZJG 9.8 1 S
MXI 9.9 0.5 P
MXI 16.1 0.5 S
PWU 11.3 0.5 P
PWU 18.3 0.5 S
SPA 19.5 0.5 P
SPA 31.9 0.5 S
JJS 20.1 1 P
JJS 31.7 1 S
YZP 25.1 1 P
YZP 42.1 1 S
YTS 26.2 1 P
YTS 43.6 1 S
# 2001 02 16 18 14 42.80 27.25 100.867 17.000 2.5 0 0 0 1057
PUW 21.2 0.5 P
PUW 34.8 0.5 S
HTW 22.7 0.5 P
HTW 38.2 0.5 S
PZH 22.8 0.5 P
PZH 37.8 0.5 S
HLI 28.4 0.5 P
HLI 46.8 0.5 S
MLI 15.7 0.5 P
MLI 25.6 0.5 S
XGS 15.7 0.5 P
XGS 27.3 0.5 S
# 2001 02 16 19 00 47.40 27.2167 100.883 12.000 2.2 0 0 0 1059
MLI 16.8 0.5 P
MLI 27.6 0.5 S
XGS 17.4 0.5 P
XGS 28.9 0.5 S
PZH 23.8 0.5 P
PZH 39.2 0.5 S
HLI 28.6 0.5 P
HLI 47.6 0.5 S
# 2001 02 16 22 41 49.40 31.25 103.867 4.000 1.7 0 0 0 1063
MXI 11.2 0.5 P
MXI 18.4 0.5 S
YZP 12.6 1 P
YZP 21.4 1 S
JJS 15 1 P
JJS 25.6 1 S
ZJG 20.3 1 P
ZJG 33 1 S
YGD 28.6 1 P
YGD 47 1 S
JHE 6 0.5 P
JHE 9.6 0.5 S
WCH 9.8 0.5 P
WCH 16.2 0.5 S
# 2001 02 17 03 46 46.30 29.4667 101.067 0.000 2.2 0 0 0 1070
GDS 19.4 1 P
GDS 32.4 1 S
GZA 22.3 0.5 P
GZA 37.3 0.5 S
DFU 28.7 0.5 P
DFU 48.7 0.5 S
XJP 29.7 1 P
XJP 49.2 1 S
JLO 12.1 0.5 P
JLO 19.9 0.5 S
# 2001 02 17 07 59 1.90 28.7167 103.617 0.000 1.2 0 0 0 1076
LBO 16.1 0.5 S
WMP 8.9 1 P
WMP 14.7 1 S
EMS 31.8 1 S
HWS 20.9 1 P
HWS 34.6 1 S
HMS 23.7 1 P
HMS 40 1 S
GZA 39.1 0.5 P
GZA 64.9 0.5 S
# 2001 02 17 13 43 44.80 29.4333 101.033 4.000 2.3 0 0 0 1082
GDS 20 1 P
GDS 33 1 S
SMI 23.2 0.5 P
SMI 38.8 0.5 S
GZA 23.3 0.5 P
GZA 38.2 0.5 S
YHZ 25.2 0.5 P
YHZ 42.2 0.5 S
XJP 29 1 P
XJP 48.2 1 S
JLO 12.1 0.5 P
JLO 19.9 0.5 S
# 2001 02 17 17 43 43.50 31.1833 103.5 5.000 2.2 0 0 0 1095
MXI 20.3 0.5 S
XJI 18.7 0.5 P
XJI 31 0.5 S
AXI 19.3 0.5 P
AXI 32.1 0.5 S
JJS 19.5 1 P
JJS 32.3 1 S
HSH 19.5 0.5 P
HSH 31.9 0.5 S
MEK 25.4 1 P
MEK 41.1 1 S
PWU 29.7 0.5 P
PWU 49.1 0.5 S
GZA 30.5 0.5 P
GZA 50 0.5 S
WCH 7.5 0.5 P
WCH 12.1 0.5 S
YZP 7.9 1 P
YZP 13.3 1 S
JHE 11 0.5 P
JHE 18.1 0.5 S
# 2001 02 17 18 05 51.10 29.4 101.033 11.000 2.1 0 0 0 1096
JLO 12.8 0.5 P
JLO 20.6 0.5 S
GDS 20.3 1 P
GDS 33.6 1 S
GZA 23.5 0.5 P
GZA 38.9 0.5 S
XJP 29.2 1 P
XJP 50 1 S
# 2001 02 17 19 08 10.20 32.1833 103.6 16.000 1.8 0 0 0 1098
SPA 8.2 0.5 P
SPA 13.8 0.5 S
HSH 10.4 0.5 P
HSH 17.2 0.5 S
MXI 14 0.5 P
MXI 22.6 0.5 S
WCH 16 0.5 P
WCH 26.8 0.5 S
PWU 16.6 0.5 P
PWU 27 0.5 S
MEK 22.8 1 P
MEK 37.8 1 S
# 2001 02 17 21 41 17.60 29.7167 102.217 7.000 1.9 0 0 0 1102
GDS 6.2 1 P
GDS 10.2 1 S
GZA 7 0.5 P
GZA 11.6 0.5 S
XJP 14.2 1 P
XJP 22.7 1 S
JLO 17.9 0.5 P
JLO 29.7 0.5 S
WMP 30.4 1 P
WMP 50.8 1 S
# 2001 02 18 09 23 19.80 29.4667 101.05 4.000 2.2 0 0 0 1116
JLO 12 0.5 P
JLO 20 0.5 S
GDS 19.7 1 P
GDS 32.9 1 S
GZA 23 0.5 P
GZA 38.2 0.5 S
SMI 23.2 0.5 P
SMI 38.2 0.5 S
XJP 30 1 P
XJP 49.5 1 S
# 2001 02 18 09 55 17.30 29.3667 105.617 1.000 2.3 0 0 0 1118
LZH 22.5 0.5 S
LZZ 8.9 1 P
LZZ 14.7 1 S
HMS 22.5 1 P
HMS 37.2 1 S
HWS 24.3 1 P
HWS 40.2 1 S
WMP 30.5 1 P
WMP 50.4 1 S
WMP 50.4 1 S
# 2001 02 18 12 10 43.40 29.7333 102.367 12.000 1.2 0 0 0 1120
WMP 27.6 1 P
WMP 45.7 1 S
YZP 30.2 1 P
YZP 50.3 1 S
GZA 8.3 0.5 P
GZA 13.7 0.5 S
GDS 9.8 1 P
GDS 15.9 1 S
XJP 11.7 1 P
XJP 19.3 1 S
# 2001 02 18 15 50 36.80 29.4167 105.533 0.000 2.8 0 0 0 1126
WMP 28.9 1 P
WMP 48 1 S
JJS 35.2 1 P
JJS 57.6 1 S
LZZ 8.7 1 P
LZZ 15.3 1 S
YZW 11 0.5 P
YZW 18 0.5 S
LZH 12.2 0.5 P
LZH 19.4 0.5 S
HMS 20.6 1 P
HMS 33.8 1 S
HWS 21.2 1 P
HWS 34.7 1 S
# 2001 02 19 02 13 14.20 29.4667 101.117 5.000 2.1 0 0 0 1141
JLO 11.8 0.5 P
JLO 19.8 0.5 S
GDS 19.8 1 P
GDS 32.5 1 S
GZA 23.4 0.5 P
GZA 37.9 0.5 S
XJP 28.5 1 P
XJP 47.9 1 S
# 2001 02 19 02 29 22.60 29.3833 101.067 8.000 1.8 0 0 0 1142
JLO 12.3 0.5 P
JLO 20.2 0.5 S
GDS 20.6 1 P
GDS 33.5 1 S
GZA 23.2 0.5 P
GZA 38.8 0.5 S
XJP 29.6 1 P
XJP 49.4 1 S
# 2001 02 19 13 16 49.10 29.4333 101.083 14.000 2.6 0 0 0 1153
JLO 12.5 0.5 P
JLO 20.2 0.5 S
GDS 20.1 1 P
GDS 33.3 1 S
GZA 23.2 0.5 P
GZA 38.5 0.5 S
SMI 23.7 0.5 P
SMI 38.7 0.5 S
YHZ 25 0.5 P
YHZ 41.6 0.5 S
BTA 27.9 0.5 P
BTA 50.1 0.5 S
XJP 28.9 1 P
XJP 49.2 1 S
DFU 29.5 0.5 P
DFU 48.5 0.5 S
MLI 29.5 0.5 P
MLI 48.9 0.5 S
MMZ 32.7 0.5 P
MMZ 54.5 0.5 S
# 2001 02 19 13 37 16.20 29.4333 101.083 11.000 2.5 0 0 0 1155
JLO 12.5 0.5 P
JLO 20.3 0.5 S
GDS 20.4 1 P
GDS 33.1 1 S
GZA 23.1 0.5 P
GZA 38.4 0.5 S
SMI 23.8 0.5 P
SMI 38.5 0.5 S
YHZ 26.2 0.5 P
YHZ 41.9 0.5 S
BTA 27.7 0.5 P
BTA 50 0.5 S
XJP 28.9 1 P
XJP 49.2 1 S
MLI 29.4 0.5 P
MLI 49.4 0.5 S
DFU 29.8 0.5 P
DFU 49.2 0.5 S
MMZ 32.8 0.5 P
MMZ 56.6 0.5 S
# 2001 02 19 23 30 39.40 28.2667 103.45 5.000 2.4 0 0 0 1162
HWS 27.4 1 P
HWS 45.8 1 S
EMS 50.1 1 S
HMS 33 1 P
HMS 55.8 1 S
LZH 37.2 0.5 P
LZH 62.2 0.5 S
LBO 4.8 0.5 P
LBO 7.2 0.5 S
WMP 19.5 1 P
WMP 32.2 1 S
# 2001 02 20 08 21 28.40 29.4333 101.083 5.000 2.8 0 0 0 1171
JLO 12.8 0.5 P
JLO 20.6 0.5 S
GDS 20.3 1 P
GDS 33.3 1 S
LFG 22.2 0.5 P
LFG 36.2 0.5 S
GZA 23.4 0.5 P
GZA 38.8 0.5 S
SMI 23.6 0.5 P
SMI 38.5 0.5 S
YHZ 25.7 0.5 P
YHZ 41.6 0.5 S
XJP 28.9 1 P
XJP 49 1 S
DFU 29.3 0.5 P
DFU 49 0.5 S
MLI 29.4 0.5 P
MLI 48.6 0.5 S
# 2001 02 20 18 04 29.70 31.8333 104.417 2.000 1.5 0 0 0 1189
JHE 22.5 0.5 S
YZP 46.7 1 S
AXI 5.1 0.5 P
AXI 8.3 0.5 S
MXI 11.9 0.5 P
MXI 19.7 0.5 S
PWU 14.5 0.5 P
PWU 23.7 0.5 S
WCH 16.7 0.5 P
WCH 27.9 0.5 S
# 2001 02 20 20 17 39.50 31.6333 104.483 0.000 1.6 0 0 0 1192
AXI 3.5 0.5 P
AXI 4.9 0.5 S
MXI 11.9 0.5 P
MXI 19.5 0.5 S
JHE 12.4 0.5 P
JHE 21 0.5 S
PWU 16.5 0.5 P
PWU 27.7 0.5 S
WCH 16.7 0.5 P
WCH 27.5 0.5 S
# 2001 02 21 08 44 55.20 31.7667 103.283 0.000 1.5 0 0 0 1202
HSH 7.4 0.5 P
HSH 11.8 0.5 S
WCH 7.6 0.5 P
WCH 13 0.5 S
MXI 10.7 0.5 P
MXI 17.2 0.5 S
MEK 16.1 1 P
MEK 26.8 1 S
SPA 19.1 0.5 P
SPA 31.8 0.5 S
PWU 26.6 0.5 P
PWU 44 0.5 S
# 2001 02 21 19 39 12.90 29.4333 101.067 3.000 2.0 0 0 0 1217
JLO 12.5 0.5 P
JLO 20.5 0.5 S
GDS 20.1 1 P
GDS 33.1 1 S
GZA 23.3 0.5 P
GZA 38.3 0.5 S
XJP 29.5 1 P
XJP 49.5 1 S
# 2001 02 21 19 44 14.00 29.4667 101.067 7.000 2.4 0 0 0 1218
JLO 12.5 0.5 P
JLO 20.2 0.5 S
GDS 20.1 1 P
GDS 33.2 1 S
GZA 23.1 0.5 P
GZA 38.6 0.5 S
XJP 28.9 1 P
XJP 48.3 1 S
DFU 29.6 0.5 P
DFU 49.4 0.5 S
BTA 34.2 0.5 P
BTA 56.6 0.5 S
# 2001 02 21 23 25 58.60 29.4167 101.1 8.000 2.0 0 0 0 1222
JLO 12.2 0.5 P
JLO 20.2 0.5 S
GDS 19 1 P
GDS 31.2 1 S
YHZ 22 0.5 P
YHZ 36.4 0.5 S
GZA 22.8 0.5 P
GZA 37.8 0.5 S
XJP 29.2 1 P
XJP 48.5 1 S
# 2001 02 21 23 57 52.60 31.8667 104.183 1.000 1.9 0 0 0 1223
MXI 8 0.5 P
MXI 13.2 0.5 S
JHE 11 0.5 P
JHE 18.1 0.5 S
PWU 12.8 0.5 P
PWU 21.4 0.5 S
WCH 13 0.5 P
WCH 21.6 0.5 S
SPA 19.4 0.5 P
SPA 31.7 0.5 S
AXI 5.1 0.5 P
AXI 9.2 0.5 S
# 2001 02 22 19 05 56.50 29.7333 102.567 5.000 1.8 0 0 0 1240
XJP 8.6 1 P
XJP 14.9 1 S
GZA 11.3 0.5 P
GZA 18.1 0.5 S
SMI 11.7 0.5 P
SMI 19.3 0.5 S
GDS 13.1 1 P
GDS 21.4 1 S
XJI 25.1 0.5 P
XJI 41.3 0.5 S
YZP 28.3 1 P
YZP 47.1 1 S
HMS 30.5 1 P
HMS 51.7 1 S
# 2001 02 23 01 55 52.00 31.6333 102.383 10.000 2.0 0 0 0 1243
HSH 12 0.5 P
HSH 20 0.5 S
XJI 14 0.5 P
XJI 22.8 0.5 S
WCH 20 0.5 P
WCH 33 0.5 S
RTA 23 0.5 P
RTA 38.6 0.5 S
MXI 23.9 0.5 P
MXI 39.6 0.5 S
YZP 25.8 1 P
YZP 43.2 1 S
GZA 30.7 0.5 P
GZA 50.6 0.5 S
MEK 4.9 1 P
MEK 7.5 1 S
# 2001 02 23 08 07 4.50 29.4167 101.033 5.000 2.3 0 0 0 1245
JLO 12 0.5 P
JLO 19.8 0.5 S
GDS 19.6 1 P
GDS 32.7 1 S
GZA 23.3 0.5 P
GZA 38.3 0.5 S
SMI 23.3 0.5 P
SMI 38.5 0.5 S
XJP 28.2 1 P
XJP 47.8 1 S
BTA 33.9 0.5 P
BTA 55.7 0.5 S
