# 2001 01 07 07 53 11.10 29.1333 103.683 12.000 2.3 0 0 0 138
WMP 3.4 1 P
WMP 5.4 1 S
EMS 18.2 1 S
HMS 16.2 1 P
HMS 25.6 1 S
XJP 16.3 1 P
XJP 27.9 1 S
LBO 17.3 0.5 P
LBO 27.9 0.5 S
HWS 20.9 1 P
HWS 34.4 1 S
GZA 32.3 0.5 P
GZA 52.5 0.5 S
YZP 33.3 1 P
YZP 55.9 1 S
# 2001 01 07 16 09 42.50 30.2 102.567 8.000 1.5 0 0 0 149
XJI 18.5 0.5 P
XJI 30.5 0.5 S
YZP 24.3 1 P
YZP 39 1 S
GZA 7.9 0.5 P
GZA 12.9 0.5 S
GDS 10.6 1 P
GDS 18.2 1 S
# 2001 01 08 02 02 37.40 31.5 104.05 10.000 2.1 0 0 0 153
SPA 25.2 0.5 P
SPA 41.6 0.5 S
MEK 32.4 1 P
MEK 53.5 1 S
JHE 4.3 0.5 P
JHE 7 0.5 S
MXI 7.3 0.5 P
MXI 11.6 0.5 S
AXI 8.2 0.5 P
AXI 13.6 0.5 S
WCH 9.6 0.5 P
WCH 15.6 0.5 S
ZJG 13.1 1 P
ZJG 22.7 1 S
JJS 14.6 1 P
JJS 23.8 1 S
YZP 16.2 1 P
YZP 27 1 S
PWU 20.8 0.5 P
PWU 34.8 0.5 S
HSH 22.2 0.5 P
HSH 36.4 0.5 S
# 2001 01 09 13 05 2.20 29.3833 101.133 0.000 3.4 0 0 0 191
JLO 13 0.5 P
JLO 21.1 0.5 S
GDS 20.8 1 P
GDS 34.3 1 S
LFG 23 0.5 P
LFG 37.4 0.5 S
GZA 23.6 0.5 P
GZA 39 0.5 S
SMI 23.8 0.5 P
SMI 39.5 0.5 S
YHZ 26.1 0.5 P
YHZ 41 0.5 S
DFU 27.9 0.5 P
DFU 46.4 0.5 S
MLI 29.4 0.5 P
MLI 48.6 0.5 S
XJP 31 1 P
XJP 52.7 1 S
DBC 32.7 0.5 P
DBC 54.2 0.5 S
MMZ 33.7 0.5 P
MMZ 57.6 0.5 S
BTA 34.9 0.5 P
BTA 57.5 0.5 S
YYC 37.7 0.5 P
YYC 63.5 0.5 S
# 2001 01 09 14 11 47.00 31.5667 104.2 10.000 1.7 0 0 0 196
PWU 18 0.5 P
PWU 30 0.5 S
AXI 5 0.5 P
AXI 8.2 0.5 S
JHE 6.6 0.5 P
JHE 10.8 0.5 S
MXI 7.6 0.5 P
MXI 12.5 0.5 S
WCH 11 0.5 P
WCH 18 0.5 S
# 2001 01 10 20 26 8.00 31.6167 103.867 5.000 1.3 0 0 0 243
MXI 5 0.5 P
MXI 7.7 0.5 S
JHE 5.2 0.5 P
JHE 8.6 0.5 S
WCH 7.6 0.5 P
WCH 12.2 0.5 S
JHE 8.4 0.5 P
JHE 14.2 0.5 S
# 2001 01 11 04 53 46.90 29.8333 102.817 0.000 1.3 0 0 0 255
EMS 21.9 1 S
GDS 16.2 1 P
GDS 26.4 1 S
YZP 25.7 1 P
YZP 43.1 1 S
HMS 26.7 1 P
HMS 45.7 1 S
XJP 11.1 1 P
XJP 19.2 1 S
GZA 13.6 0.5 P
GZA 21.9 0.5 S
# 2001 01 12 15 53 18.40 29.9167 103.117 0.000 2.4 0 0 0 293
EMS 20 1 S
XJP 16.1 1 P
XJP 25.9 1 S
GZA 18.3 0.5 P
GZA 29.9 0.5 S
SMI 20.8 0.5 P
SMI 34 0.5 S
GDS 21 1 P
GDS 34.6 1 S
YZP 21.3 1 P
YZP 35.2 1 S
WMP 21.6 1 P
WMP 36 1 S
HMS 23.3 1 P
HMS 38.6 1 S
XJI 25.2 0.5 P
XJI 41.6 0.5 S
LBO 32.6 0.5 P
LBO 54.9 0.5 S
JLO 33.1 0.5 P
JLO 55.1 0.5 S
# 2001 01 12 19 17 40.50 31.0333 103.517 8.000 1.5 0 0 0 296
MXI 20.5 0.5 P
MXI 33.3 0.5 S
YZP 7.1 1 P
YZP 12.6 1 S
WCH 11.9 0.5 P
WCH 19.1 0.5 S
JHE 14.3 0.5 P
JHE 23.5 0.5 S
# 2001 01 13 07 02 51.40 31.5833 104.333 11.000 1.5 0 0 0 307
JHE 9.7 0.5 P
JHE 15.7 0.5 S
MXI 10.9 0.5 P
MXI 17.5 0.5 S
WCH 14.4 0.5 P
WCH 23.2 0.5 S
AXI 4.6 0.5 P
AXI 7.6 0.5 S
# 2001 01 13 07 28 25.70 29.6667 104.533 0.000 2.5 0 0 0 308
JHE 35.8 0.5 P
JHE 60.3 0.5 S
HMS 6 1 P
HMS 8.8 1 S
SFS 13.3 0.5 P
SFS 20.9 0.5 S
YZW 13.5 0.5 P
YZW 21.3 0.5 S
HWS 22.3 1 P
HWS 37.4 1 S
LZZ 25.3 1 P
LZZ 43 1 S
YZP 30.3 1 P
YZP 51.1 1 S
XJP 32 1 P
XJP 53.3 1 S
LBO 32.3 0.5 P
LBO 54.1 0.5 S
# 2001 01 13 20 39 56.50 31.4167 102.483 10.000 2.8 0 0 0 322
XJI 9.3 0.5 P
XJI 14.7 0.5 S
MEK 10.5 1 P
MEK 17 1 S
HSH 15.3 0.5 P
HSH 25.1 0.5 S
WCH 18.5 0.5 P
WCH 30.5 0.5 S
YZP 20.9 1 P
YZP 34.9 1 S
MXI 23 0.5 P
MXI 38 0.5 S
DFU 24.4 0.5 P
DFU 40.5 0.5 S
GZA 24.9 0.5 P
GZA 41.1 0.5 S
JHE 25 0.5 P
JHE 41.1 0.5 S
GDS 26.9 1 P
GDS 44.7 1 S
RTA 28.3 0.5 P
RTA 46.5 0.5 S
SPA 29.9 0.5 P
SPA 49.8 0.5 S
AXI 31.5 0.5 P
AXI 52.3 0.5 S
PWU 39.3 0.5 P
PWU 65.1 0.5 S
# 2001 01 14 09 09 40.10 31.4667 104.067 0.000 1.6 0 0 0 337
JHE 4 0.5 P
JHE 6.2 0.5 S
JHE 4 0.5 P
JHE 6.2 0.5 S
MXI 6.4 0.5 P
MXI 10.9 0.5 S
WCH 7.1 0.5 P
WCH 11.3 0.5 S
# 2001 01 14 17 30 8.70 31.1167 103.7 0.000 1.8 0 0 0 353
YZP 7.5 1 P
YZP 12.3 1 S
WCH 9.3 0.5 P
WCH 15.1 0.5 S
JHE 9.5 0.5 P
JHE 15.4 0.5 S
MXI 12.7 0.5 P
MXI 21 0.5 S
AXI 20.1 0.5 P
AXI 33.3 0.5 S
PWU 30.7 0.5 P
PWU 51.3 0.5 S
# 2001 01 14 17 41 38.10 31.1 103.717 5.000 2.4 0 0 0 354
ZJG 22.5 1 P
ZJG 38.8 1 S
XJI 23.9 0.5 P
XJI 38.6 0.5 S
PWU 29.2 0.5 P
PWU 47.9 0.5 S
HMS 30.3 1 P
HMS 52.6 1 S
SPA 30.9 0.5 P
SPA 50 0.5 S
GZA 32.3 0.5 P
GZA 53.5 0.5 S
YZP 6.4 1 P
YZP 10.6 1 S
JHE 7.9 0.5 P
JHE 12.9 0.5 S
WCH 8.5 0.5 P
WCH 14.1 0.5 S
MXI 11.5 0.5 P
MXI 19.3 0.5 S
AXI 17.1 0.5 P
AXI 28.2 0.5 S
# 2001 01 14 18 20 23.10 31.1167 103.733 5.000 2.0 0 0 0 356
YZP 8.9 1 P
YZP 14.7 1 S
JHE 9.4 0.5 P
JHE 15.7 0.5 S
WCH 10.7 0.5 P
WCH 16.9 0.5 S
MXI 13.4 0.5 P
MXI 21.9 0.5 S
HSH 23.9 0.5 P
HSH 39.6 0.5 S
PWU 31.9 0.5 P
PWU 53.5 0.5 S
SPA 32.9 0.5 P
SPA 53.9 0.5 S
GZA 34.9 0.5 P
GZA 57.7 0.5 S
MEK 35.1 1 P
MEK 51.9 1 S
# 2001 01 15 05 21 35.30 30.2167 103.167 0.000 2.9 0 0 0 370
WCH 24.8 0.5 P
WCH 41.5 0.5 S
SMI 25 0.5 P
SMI 41.6 0.5 S
HMS 26.8 1 P
HMS 44.9 1 S
JHE 26.9 0.5 P
JHE 44.3 0.5 S
WMP 28.5 1 P
WMP 49.3 1 S
MXI 29.5 0.5 P
MXI 49.3 0.5 S
AXI 32.1 0.5 P
AXI 54.7 0.5 S
YHZ 34 0.5 P
YHZ 57.5 0.5 S
MEK 34.7 1 P
MEK 56.7 1 S
HSH 34.7 0.5 P
HSH 57.3 0.5 S
DFU 35.9 0.5 P
DFU 59.9 0.5 S
JLO 36.9 0.5 P
JLO 61 0.5 S
LBO 39.3 0.5 P
LBO 64.7 0.5 S
YZP 16.3 1 P
YZP 26.7 1 S
EMS 28.8 1 S
GZA 17.8 0.5 P
GZA 28.8 0.5 S
YGD 19.1 1 P
YGD 31.6 1 S
XJI 20.4 0.5 P
XJI 33.4 0.5 S
GDS 21 1 P
GDS 34.7 1 S
XJP 21.3 1 P
XJP 34.8 1 S
# 2001 01 15 07 57 29.00 26.9667 100.833 0.000 2.7 0 0 0 373
PZH 19 0.5 P
PZH 31.6 0.5 S
XGS 21.8 0.5 P
XGS 36.6 0.5 S
MLI 22.2 0.5 P
MLI 37 0.5 S
PUW 22.5 0.5 P
PUW 37.6 0.5 S
HTW 27.6 0.5 P
HTW 46.5 0.5 S
DBC 32.6 0.5 P
DBC 54.3 0.5 S
# 2001 01 15 08 54 9.10 31.6833 103.817 16.000 1.8 0 0 0 374
MXI 2.9 0.5 P
MXI 4.9 0.5 S
WCH 7.1 0.5 P
WCH 11.6 0.5 S
JHE 8.3 0.5 P
JHE 13.8 0.5 S
AXI 10.3 0.5 P
AXI 17.1 0.5 S
ZJG 13 1 P
ZJG 23.4 1 S
HSH 14.5 0.5 P
HSH 23.9 0.5 S
SPA 17.7 0.5 P
SPA 28.9 0.5 S
YZP 18.2 1 P
YZP 29.9 1 S
MEK 25.9 1 P
MEK 42.7 1 S
# 2001 01 15 18 34 30.80 31.1 103.683 5.000 2.0 0 0 0 381
PWU 32 0.5 P
PWU 53.2 0.5 S
GZA 35.2 0.5 P
GZA 58.2 0.5 S
YZP 9.2 1 P
YZP 14.7 1 S
WCH 9.8 0.5 P
WCH 15.8 0.5 S
JHE 10.5 0.5 P
JHE 17.8 0.5 S
MXI 13.5 0.5 P
MXI 21.9 0.5 S
HSH 24 0.5 P
HSH 39 0.5 S
HSH 39 0.5 S
# 2001 01 15 21 20 39.40 32.0833 104.083 2.000 1.7 0 0 0 385
SPA 23.6 0.5 S
MXI 9.5 0.5 P
MXI 15.3 0.5 S
PWU 10.1 0.5 P
PWU 17.2 0.5 S
AXI 11.2 0.5 P
AXI 18 0.5 S
WCH 14.6 0.5 P
WCH 24.4 0.5 S
HSH 19.1 0.5 P
HSH 31.6 0.5 S
# 2001 01 15 21 29 50.90 28.9333 106.583 0.000 2.6 0 0 0 386
LZZ 15.5 1 P
LZZ 26.5 1 S
LZH 21.9 0.5 P
LZH 35.5 0.5 S
YZW 29.7 0.5 P
YZW 48.5 0.5 S
HWS 33.1 1 P
HWS 55.4 1 S
# 2001 01 17 05 04 33.70 31.6667 103.967 0.000 1.4 0 0 0 400
MXI 4 0.5 P
MXI 6.3 0.5 S
JHE 8.3 0.5 P
JHE 13.7 0.5 S
WCH 8.8 0.5 P
WCH 14.3 0.5 S
AXI 9.1 0.5 P
AXI 14.9 0.5 S
# 2001 01 17 05 21 39.10 31.5667 102.383 5.000 1.9 0 0 0 401
MEK 7.4 1 P
MEK 11.9 1 S
XJI 10.7 0.5 P
XJI 17.5 0.5 S
HSH 13.4 0.5 P
HSH 22.4 0.5 S
WCH 18.7 0.5 P
WCH 30.9 0.5 S
DFU 22.9 0.5 P
DFU 37.9 0.5 S
YZP 22.9 1 P
YZP 37.9 1 S
RTA 25.5 0.5 P
RTA 42.4 0.5 S
# 2001 01 17 05 29 38.50 28.7 103.75 0.000 2.5 0 0 0 402
BYD 22 0.5 P
SMI 27 0.5 P
SMI 45 0.5 S
YPU 28.4 0.5 P
YPU 47.6 0.5 S
WMP 8 1 P
WMP 13.8 1 S
LBO 9.3 0.5 P
LBO 15.2 0.5 S
HWS 18.6 1 P
HWS 31 1 S
EMS 31.8 1 S
HMS 21.9 1 P
HMS 36.7 1 S
HMS 22.5 1 P
HMS 37.5 1 S
YZW 26.7 0.5 P
YZW 43.7 0.5 S
LZH 29.3 0.5 P
LZH 49.9 0.5 S
# 2001 01 17 09 07 19.40 29.5333 101.033 0.000 2.6 0 0 0 405
JLO 11.9 0.5 P
JLO 19.5 0.5 S
GDS 20 1 P
GDS 33.1 1 S
GZA 23 0.5 P
GZA 38.2 0.5 S
SMI 23.3 0.5 P
SMI 38.6 0.5 S
YHZ 24.9 0.5 P
YHZ 41.2 0.5 S
DFU 26.6 0.5 P
DFU 44.6 0.5 S
XJP 29.8 1 P
XJP 49.3 1 S
BTA 34.2 0.5 P
BTA 56.4 0.5 S
# 2001 01 17 12 22 31.10 29.6667 103.217 0.000 1.1 0 0 0 410
WMP 27.6 1 S
GDS 37.4 1 S
XJP 11.7 1 P
XJP 19.1 1 S
HMS 20.9 1 P
HMS 34.5 1 S
YZP 25.2 1 P
YZP 41.7 1 S
# 2001 01 17 14 24 34.00 32.5833 106.133 12.000 1.9 0 0 0 414
YTS 11 1 P
YTS 18.2 1 S
QCH 17.6 0.5 P
QCH 28.8 0.5 S
PWU 28 0.5 P
PWU 46 0.5 S
ZJG 33.4 1 P
ZJG 55.4 1 S
# 2001 01 17 23 11 5.50 31.7833 101.917 3.000 1.4 0 0 0 422
MEK 5.8 1 P
MEK 9.5 1 S
RTA 14.5 0.5 P
RTA 24.1 0.5 S
HSH 18.5 0.5 P
HSH 30.3 0.5 S
XJI 19 0.5 P
XJI 31.5 0.5 S
# 2001 01 18 05 21 29.00 31.4667 102.417 5.000 1.5 0 0 0 426
MEK 7.8 1 P
MEK 12.8 1 S
XJI 10.3 0.5 P
XJI 17.1 0.5 S
HSH 14.5 0.5 P
HSH 23.6 0.5 S
WCH 19.5 0.5 P
WCH 32.3 0.5 S
# 2001 01 18 14 44 34.00 32.05 105.1 18.000 2.0 0 0 0 437
SPA 28.5 0.5 P
SPA 46.8 0.5 S
ZJG 10.9 1 P
ZJG 18.4 1 S
QCH 12.2 0.5 P
QCH 19.6 0.5 S
PWU 12.7 0.5 P
PWU 20.7 0.5 S
YTS 15.8 1 P
YTS 26.6 1 S
AXI 16 0.5 P
AXI 26 0.5 S
JJS 24.5 1 P
JJS 41 1 S
JHE 25 0.5 P
JHE 41 0.5 S
YZP 34.5 1 P
YZP 57.4 1 S
# 2001 01 18 15 26 30.30 29.4667 101.033 12.000 2.6 0 0 0 439
XJI 36.7 0.5 P
JLO 12.4 0.5 P
JLO 20 0.5 S
GDS 20.1 1 P
GDS 33.4 1 S
LFG 21.8 0.5 P
LFG 36.9 0.5 S
SMI 22.7 0.5 P
SMI 37.6 0.5 S
GZA 23.5 0.5 P
GZA 38.5 0.5 S
YHZ 25 0.5 P
YHZ 42.1 0.5 S
XJP 30.1 1 P
XJP 49.7 1 S
# 2001 01 18 18 32 40.40 29.4667 101.067 9.000 2.6 0 0 0 443
LFG 22.7 0.5 P
LFG 37.8 0.5 S
YHZ 25.6 0.5 P
YHZ 42.9 0.5 S
XJI 38.1 0.5 P
JLO 13.4 0.5 P
JLO 21.1 0.5 S
GDS 21.2 1 P
GDS 34.1 1 S
GZA 24.1 0.5 P
GZA 40.2 0.5 S
SMI 24.4 0.5 P
SMI 40.2 0.5 S
MLI 29.1 0.5 P
MLI 48.6 0.5 S
DFU 30.6 0.5 P
DFU 49.6 0.5 S
XJP 30.9 1 P
XJP 50.4 1 S
BTA 35 0.5 P
BTA 57.3 0.5 S
# 2001 01 18 20 06 12.50 31.5833 104.15 10.000 1.1 0 0 0 447
JHE 5.8 0.5 P
JHE 9.3 0.5 S
AXI 6.1 0.5 P
AXI 10.1 0.5 S
MXI 6.5 0.5 P
MXI 10.9 0.5 S
WCH 10 0.5 P
WCH 16.5 0.5 S
# 2001 01 19 09 08 58.70 31.2333 103.883 5.000 1.6 0 0 0 454
JHE 7.3 0.5 P
JHE 11.8 0.5 S
WCH 10.7 0.5 P
WCH 17.3 0.5 S
YZP 12.6 1 P
YZP 21.3 1 S
MXI 12.8 0.5 P
MXI 21.3 0.5 S
JJS 16 1 P
JJS 26.9 1 S
# 2001 01 19 10 45 45.20 29 105.783 9.000 2.1 0 0 0 455
HMS 29.8 1 P
HMS 49 1 S
LZH 10.3 0.5 P
LZH 16.8 0.5 S
LZZ 15.1 1 P
LZZ 25 1 S
HWS 23.2 1 P
HWS 38.9 1 S
WMP 36.2 1 P
WMP 60.1 1 S
# 2001 01 19 10 46 6.60 29 105.783 9.000 1.9 0 0 0 456
LZH 10.4 0.5 P
LZH 16.9 0.5 S
LZZ 15.2 1 P
LZZ 25.2 1 S
HWS 22.5 1 P
HWS 37.4 1 S
HMS 30 1 P
HMS 50 1 S
WMP 36 1 P
WMP 59.6 1 S
# 2001 01 19 11 33 53.50 27.2167 100.95 16.000 2.9 0 0 0 458
XGS 17.6 0.5 P
XGS 29.8 0.5 S
MLI 18 0.5 P
MLI 29.9 0.5 S
PUW 21.3 0.5 P
PUW 33.8 0.5 S
HLI 27.8 0.5 P
HLI 46.5 0.5 S
DBC 29 0.5 P
DBC 49.6 0.5 S
DAQ 30.4 0.5 P
MMZ 31 0.5 P
MMZ 51.9 0.5 S
XSB 31.4 0.5 P
XSB 52.5 0.5 S
SMK 35.9 0.5 P
SMK 58.3 0.5 S
# 2001 01 20 04 11 33.40 29.6667 102.633 12.000 1.8 0 0 0 471
XJP 9.2 1 P
XJP 15.3 1 S
GZA 11.2 0.5 P
GZA 18.8 0.5 S
SMI 12.1 0.5 P
SMI 20.1 0.5 S
GDS 13.5 1 P
GDS 22.4 1 S
JLO 24.9 0.5 P
JLO 41.2 0.5 S
# 2001 01 21 06 09 43.80 31.8833 104.25 1.000 1.9 0 0 0 497
HSH 36.4 0.5 S
AXI 6.4 0.5 P
AXI 10 0.5 S
ZJG 8.4 1 P
ZJG 13.9 1 S
MXI 8.9 0.5 P
MXI 14.2 0.5 S
PWU 13.2 0.5 P
PWU 21.6 0.5 S
WCH 13.9 0.5 P
WCH 22.8 0.5 S
JJS 19.2 1 P
JJS 32 1 S
SPA 20.2 0.5 P
SPA 33.2 0.5 S
YZP 25.2 1 P
YZP 42.2 1 S
YTS 27.4 1 P
YTS 45.9 1 S
# 2001 01 21 08 16 31.60 31.1167 103.767 17.000 2.8 0 0 0 500
PWU 30.2 0.5 P
PWU 50.8 0.5 S
MEK 30.5 1 P
MEK 51.6 1 S
EMS 52.6 1 S
SPA 31.9 0.5 P
SPA 53 0.5 S
HMS 32.4 1 P
HMS 53.9 1 S
HMS 54.9 1 S
GZA 33.4 0.5 P
GZA 55.6 0.5 S
YZP 8.4 1 P
YZP 13.8 1 S
WCH 9.6 0.5 P
WCH 15.8 0.5 S
JHE 9.9 0.5 P
JHE 16.3 0.5 S
JJS 12 1 P
JJS 20.9 1 S
MXI 13.4 0.5 P
MXI 21.4 0.5 S
AXI 17.8 0.5 P
AXI 29.4 0.5 S
ZJG 19 1 P
ZJG 32.4 1 S
YGD 21 1 P
YGD 35.4 1 S
HSH 23.8 0.5 P
HSH 38.8 0.5 S
XJI 25 0.5 P
XJI 40.3 0.5 S
# 2001 01 21 13 08 44.50 31.1167 103.767 17.000 2.9 0 0 0 504
AXI 17.3 0.5 P
AXI 28.5 0.5 S
JJS 17.8 1 P
JJS 26.6 1 S
YGD 19.9 1 P
YGD 35.5 1 S
ZJG 21.7 1 P
ZJG 38 1 S
HSH 23.3 0.5 P
HSH 38.3 0.5 S
XJI 23.5 0.5 P
XJI 39.4 0.5 S
MEK 29.8 1 P
MEK 50.3 1 S
PWU 30.1 0.5 P
PWU 50.1 0.5 S
SPA 30.6 0.5 P
SPA 51 0.5 S
HMS 32.3 1 P
HMS 53 1 S
HMS 55 1 S
GZA 32.5 0.5 P
GZA 54.1 0.5 S
YZP 7.3 1 P
YZP 12.5 1 S
JHE 8.9 0.5 P
JHE 15.1 0.5 S
WCH 9.3 0.5 P
WCH 14.3 0.5 S
MXI 12.8 0.5 P
MXI 20.8 0.5 S
# 2001 01 21 14 05 36.60 31.1167 103.717 5.000 1.7 0 0 0 509
YZP 7 1 P
YZP 11.6 1 S
WCH 8.6 0.5 P
WCH 14.4 0.5 S
JHE 9.1 0.5 P
JHE 14.8 0.5 S
MXI 12.4 0.5 P
MXI 20.5 0.5 S
# 2001 01 21 14 25 45.40 31.1167 103.7 13.000 2.1 0 0 0 510
JJS 15.5 1 P
JJS 25.9 1 S
AXI 19 0.5 P
AXI 31.6 0.5 S
ZJG 22.4 1 P
ZJG 37.4 1 S
HSH 22.6 0.5 P
HSH 37.8 0.5 S
XJI 25 0.5 P
XJI 41 0.5 S
PWU 30 0.5 P
PWU 49.4 0.5 S
SPA 31.6 0.5 P
SPA 52 0.5 S
GZA 33.8 0.5 P
GZA 56.4 0.5 S
YZP 6.8 1 P
YZP 11.8 1 S
WCH 8.4 0.5 P
WCH 14.6 0.5 S
JHE 9.5 0.5 P
JHE 15.2 0.5 S
MXI 12.6 0.5 P
MXI 20.6 0.5 S
# 2001 01 21 16 45 14.30 31.3833 103.933 4.000 1.5 0 0 0 517
JHE 3.3 0.5 P
JHE 5.8 0.5 S
WCH 5.5 0.5 P
WCH 9.1 0.5 S
MXI 6 0.5 P
MXI 10.2 0.5 S
AXI 10.7 0.5 P
AXI 17.7 0.5 S
JJS 15.9 1 P
JJS 25.5 1 S
# 2001 01 22 03 03 47.60 31.1167 103.75 16.000 2.5 0 0 0 528
MXI 12.7 0.5 P
MXI 21.4 0.5 S
JJS 15.6 1 P
JJS 26 1 S
AXI 16.9 0.5 P
AXI 29.6 0.5 S
YGD 20.2 1 P
YGD 34 1 S
HSH 23.2 0.5 P
HSH 38 0.5 S
ZJG 23.5 1 P
ZJG 38.2 1 S
XJI 26.4 0.5 P
XJI 43.2 0.5 S
PWU 30.4 0.5 P
PWU 50.2 0.5 S
SPA 31.6 0.5 P
SPA 51.6 0.5 S
HMS 32.6 1 P
HMS 53 1 S
HMS 54 1 S
MEK 33.4 1 P
MEK 54.8 1 S
GZA 33.4 0.5 P
GZA 55 0.5 S
YZP 7.8 1 P
YZP 13 1 S
JHE 9.3 0.5 P
JHE 15.2 0.5 S
WCH 9.4 0.5 P
WCH 14.8 0.5 S
# 2001 01 22 16 13 55.60 31.0833 103.683 1.000 1.2 0 0 0 545
YZP 6.8 1 P
YZP 11 1 S
WCH 8.2 0.5 P
WCH 13.8 0.5 S
JHE 9.4 0.5 P
JHE 15.2 0.5 S
JJS 19.2 1 P
JJS 31.8 1 S
# 2001 01 23 01 14 0.10 31.1167 103.717 9.000 1.9 0 0 0 549
YZP 7.1 1 P
YZP 12.5 1 S
WCH 9.1 0.5 P
WCH 14.2 0.5 S
JHE 9.2 0.5 P
JHE 15.2 0.5 S
MXI 12.6 0.5 P
MXI 20.8 0.5 S
JJS 16.5 1 P
JJS 27.9 1 S
HSH 23.9 0.5 P
HSH 38.9 0.5 S
ZJG 24 1 P
ZJG 41.1 1 S
XJI 26.7 0.5 P
PWU 30.3 0.5 P
PWU 50.5 0.5 S
# 2001 01 23 11 07 48.70 31.5833 104.117 5.000 1.4 0 0 0 558
JHE 5.9 0.5 P
JHE 9.5 0.5 S
MXI 6.3 0.5 P
MXI 10.5 0.5 S
AXI 6.4 0.5 P
AXI 10.3 0.5 S
WCH 9.7 0.5 P
WCH 15.5 0.5 S
# 2001 01 25 00 31 21.40 29.5167 101.05 5.000 3.1 0 0 0 584
JLO 12.8 0.5 P
JLO 20.2 0.5 S
GDS 20.5 1 P
GDS 33.6 1 S
GZA 23.5 0.5 P
GZA 39.2 0.5 S
SMI 23.6 0.5 P
SMI 39.6 0.5 S
YHZ 24.9 0.5 P
YHZ 41.6 0.5 S
DFU 28.2 0.5 P
DFU 48.4 0.5 S
MLI 30 0.5 P
MLI 50.4 0.5 S
XJP 31.5 1 P
XJP 52.3 1 S
DBC 31.9 0.5 P
DBC 54 0.5 S
BTA 34.2 0.5 P
BTA 56.4 0.5 S
# 2001 01 25 01 35 47.50 29.45 101.017 0.000 2.8 0 0 0 586
JLO 12.6 0.5 P
JLO 20.4 0.5 S
GDS 20.4 1 P
GDS 34.1 1 S
GZA 23.5 0.5 P
GZA 39.1 0.5 S
SMI 23.9 0.5 P
SMI 38.8 0.5 S
YHZ 24.7 0.5 P
YHZ 41.7 0.5 S
MLI 29.9 0.5 P
MLI 50.1 0.5 S
DFU 30.5 0.5 P
DFU 50.3 0.5 S
XJP 31.2 1 P
XJP 52 1 S
DBC 31.8 0.5 P
DBC 54.1 0.5 S
BTA 34.2 0.5 P
BTA 56.4 0.5 S
# 2001 01 25 04 42 12.80 27.85 103.45 0.000 2.2 0 0 0 589
LBO 8.7 0.5 P
LBO 14.2 0.5 S
YPU 13.1 0.5 P
YPU 22.1 0.5 S
XSB 17.1 0.5 P
XSB 28.4 0.5 S
WMP 24.2 1 P
WMP 40.8 1 S
HWS 26.8 1 P
HWS 46.4 1 S
HLI 31.2 0.5 P
HLI 52 0.5 S
# 2001 01 25 08 40 55.60 30.0167 102.983 0.000 2.0 0 0 0 593
SMI 33.1 0.5 S
EMS 22.3 1 S
XJP 15.7 1 P
XJP 26 1 S
GZA 16.1 0.5 P
GZA 26.2 0.5 S
GDS 19 1 P
GDS 31.7 1 S
YZP 21.2 1 P
YZP 34.4 1 S
XJI 23.4 0.5 P
XJI 38 0.5 S
HMS 25 1 P
HMS 42.6 1 S
WCH 29 0.5 P
WCH 48.4 0.5 S
# 2001 01 25 09 46 46.70 30.9833 101.183 0.000 1.9 0 0 0 595
XJI 21.5 0.5 P
XJI 34.7 0.5 S
GDS 23.6 1 P
GDS 40 1 S
RTA 24.1 0.5 P
RTA 41.1 0.5 S
GZA 24.4 0.5 P
GZA 40.2 0.5 S
GZI 25.5 0.5 P
GZI 42.5 0.5 S
MEK 27.5 1 P
MEK 45.5 1 S
DFU 1.1 0.5 P
DFU 2.3 0.5 S
# 2001 01 26 01 17 18.60 29.0167 102.417 10.000 2.2 0 0 0 607
YGD 62.4 1 S
SMI 7.2 0.5 P
SMI 11.6 0.5 S
YHZ 8 0.5 P
YHZ 13.4 0.5 S
XJP 11.2 1 P
XJP 17.9 1 S
JLO 16.9 0.5 P
JLO 28.2 0.5 S
EMS 35.5 1 S
GDS 21.6 1 P
GDS 36.6 1 S
GZA 21.7 0.5 P
GZA 37 0.5 S
HMS 34.8 1 P
HMS 57.2 1 S
YZP 39.6 1 P
YZP 66 1 S
# 2001 01 26 01 19 44.20 31.6833 100.917 0.000 1.6 0 0 0 608
GZI 15.9 0.5 P
GZI 25.7 0.5 S
MEK 24.4 1 P
MEK 39.6 1 S
RTA 11 0.5 P
RTA 18.6 0.5 S
DFU 14.2 0.5 P
DFU 23.6 0.5 S
# 2001 01 26 04 33 33.90 29.9167 103.533 9.000 1.9 0 0 0 610
GDS 28.6 1 P
GDS 48.8 1 S
JJS 29.1 1 P
JJS 48.5 1 S
YZW 30.9 0.5 P
YZW 49.1 0.5 S
XJI 32.3 0.5 P
XJI 54.3 0.5 S
EMS 18 1 S
YGD 14.9 1 P
YGD 24.9 1 S
HMS 19.1 1 P
HMS 29.9 1 S
XJP 20.6 1 P
XJP 34.7 1 S
YZP 22.9 1 P
YZP 38.5 1 S
# 2001 01 26 11 01 38.20 32.1667 104.467 3.000 2.1 0 0 0 618
JJS 25.6 1 P
JJS 42.6 1 S
PWU 5.6 0.5 P
PWU 9.4 0.5 S
ZJG 11.2 1 P
ZJG 19 1 S
AXI 12.2 0.5 P
AXI 20.5 0.5 S
SPA 13.6 0.5 P
SPA 23.1 0.5 S
MXI 13.7 0.5 P
MXI 22.3 0.5 S
QCH 16.6 0.5 P
QCH 27.3 0.5 S
JHE 17.4 0.5 P
JHE 29.2 0.5 S
WCH 19.5 0.5 P
WCH 32.2 0.5 S
HSH 21.7 0.5 P
HSH 35.8 0.5 S
# 2001 01 27 07 21 30.80 27.8333 103.367 0.000 2.0 0 0 0 639
HLI 30.8 0.5 P
HLI 50.9 0.5 S
LBO 8.5 0.5 P
LBO 14.6 0.5 S
YPU 14.3 0.5 P
YPU 23.5 0.5 S
WMP 24.9 1 P
WMP 41 1 S
HWS 28.3 1 P
HWS 46.9 1 S
# 2001 01 28 16 17 7.30 28.7167 103.717 0.000 2.3 0 0 0 653
WMP 9.1 1 P
WMP 15.2 1 S
LBO 9.9 0.5 P
LBO 16.1 0.5 S
EMS 31.8 1 S
HWS 19.6 1 P
HWS 31.9 1 S
XJP 22 1 P
XJP 36.2 1 S
HMS 22.8 1 P
HMS 37.8 1 S
BYD 24.7 0.5 P
SMI 26.8 0.5 P
SMI 44.9 0.5 S
YZW 27.5 0.5 P
YZW 45.1 0.5 S
YPU 29.5 0.5 P
YPU 47.5 0.5 S
LZH 30.7 0.5 P
LZH 51.5 0.5 S
DAQ 32.3 0.5 P
DAQ 52.7 0.5 S
# 2001 01 29 04 14 37.30 30.9167 103.1 5.000 3.0 0 0 0 665
HSH 22.9 0.5 P
HSH 37.1 0.5 S
JJS 24.5 1 P
JJS 41 1 S
MEK 25 1 P
MEK 41 1 S
GDS 25.3 1 P
GDS 42 1 S
AXI 26 0.5 P
AXI 43.7 0.5 S
EMS 45 1 S
ZJG 30.7 1 P
ZJG 51.5 1 S
XJP 31 1 P
XJP 51.7 1 S
DFU 31.5 0.5 P
DFU 53 0.5 S
HMS 32.8 1 P
HMS 54.6 1 S
SPA 35.3 0.5 P
SPA 58.1 0.5 S
YZP 9.3 1 P
YZP 14.9 1 S
WCH 13.7 0.5 P
WCH 21.9 0.5 S
XJI 14 0.5 P
XJI 22.5 0.5 S
JHE 17.5 0.5 P
JHE 29.3 0.5 S
MXI 18.7 0.5 P
MXI 31.3 0.5 S
YGD 21.9 1 P
YGD 36.6 1 S
GZA 22.6 0.5 P
GZA 36.9 0.5 S
# 2001 01 30 03 54 18.70 31.5833 104.067 5.000 1.8 0 0 0 683
MXI 5.4 0.5 P
MXI 8.8 0.5 S
JHE 6 0.5 P
JHE 10 0.5 S
AXI 7.3 0.5 P
AXI 11.8 0.5 S
WCH 8.9 0.5 P
WCH 14.8 0.5 S
# 2001 01 30 13 47 50.70 28.1833 105.017 10.000 1.9 0 0 0 687
LZH 30.5 0.5 S
HWS 10.2 1 P
HWS 17.2 1 S
LBO 28.3 0.5 P
LBO 46.1 0.5 S
HMS 30.9 1 P
HMS 50.9 1 S
LZZ 31.8 1 P
LZZ 53.5 1 S
# 2001 01 31 00 29 59.00 28.9333 102.267 14.000 2.2 0 0 0 692
YHZ 5.7 0.5 P
YHZ 9.4 0.5 S
SMI 7 0.5 P
SMI 11.5 0.5 S
JLO 13.8 0.5 P
JLO 22.3 0.5 S
MMZ 16.4 0.5 P
MMZ 26.9 0.5 S
GZA 22.4 0.5 P
GZA 37.6 0.5 S
# 2001 01 31 17 23 9.60 30.3667 102.017 5.000 2.2 0 0 0 699
GZA 7.4 0.5 P
GZA 11.5 0.5 S
GDS 8.6 1 P
GDS 13.2 1 S
XJI 13.5 0.5 P
XJI 21.6 0.5 S
DFU 17.3 0.5 P
DFU 29.4 0.5 S
XJP 24.5 1 P
XJP 40.1 1 S
YZP 27.7 1 P
YZP 46.4 1 S
MEK 28.7 1 P
MEK 48 1 S
WCH 32.5 0.5 P
WCH 53.4 0.5 S
# 2001 01 31 17 29 17.40 29.4333 103.433 10.000 2.0 0 0 0 700
EMS 11.7 1 S
WMP 13.1 1 P
WMP 21.5 1 S
XJP 17.1 1 P
XJP 28 1 S
SMI 18 0.5 P
SMI 30.8 0.5 S
HMS 19.9 1 P
HMS 33.3 1 S
YZP 31.6 1 P
YZP 53.3 1 S
# 2001 01 31 18 29 21.00 27.3667 100.883 10.000 2.5 0 0 0 701
MLI 14 0.5 P
MLI 23.2 0.5 S
XGS 15 0.5 P
XGS 26.1 0.5 S
PUW 21.1 0.5 P
PUW 34.5 0.5 S
PZH 22.1 0.5 P
PZH 36.5 0.5 S
HTW 22.3 0.5 P
DBC 26.5 0.5 P
DBC 43.2 0.5 S
MMZ 28.5 0.5 P
MMZ 47.3 0.5 S
JLO 34.1 0.5 P
JLO 56.7 0.5 S
# 2001 01 31 21 37 12.60 31.9167 101.367 0.000 1.8 0 0 0 705
RTA 8.4 0.5 P
RTA 13.9 0.5 S
MEK 16.2 1 P
MEK 26 1 S
DFU 19.4 0.5 P
DFU 33 0.5 S
GZI 26.3 0.5 P
GZI 43.2 0.5 S
# 2001 01 31 21 50 55.60 32.2333 104.517 8.000 2.2 0 0 0 707
PWU 5.8 0.5 P
PWU 9.2 0.5 S
ZJG 11.1 1 P
ZJG 18.2 1 S
AXI 13.8 0.5 P
AXI 22.4 0.5 S
QCH 14.4 0.5 P
QCH 23.8 0.5 S
MXI 17 0.5 P
MXI 28.4 0.5 S
SPA 18.2 0.5 P
SPA 29.8 0.5 S
JHE 20.6 0.5 P
JHE 33.9 0.5 S
YTS 20.7 1 P
YTS 33.8 1 S
WCH 22.2 0.5 P
WCH 37.2 0.5 S
JJS 26 1 P
JJS 43.5 1 S
HSH 26.4 0.5 P
HSH 43.2 0.5 S
# 2001 02 02 01 23 34.30 32.0667 102.017 0.000 1.7 0 0 0 725
MEK 9.8 1 P
MEK 15.7 1 S
HSH 16.2 0.5 P
HSH 27.4 0.5 S
RTA 17.3 0.5 P
RTA 28.9 0.5 S
XJI 27.4 0.5 P
XJI 44.9 0.5 S
# 2001 02 02 14 42 34.50 29.55 103.233 8.000 2.6 0 0 0 732
YZP 28.4 1 P
YZP 46.8 1 S
LBO 28.9 0.5 P
LBO 47.1 0.5 S
YZW 30.5 0.5 P
YZW 50.9 0.5 S
JLO 30.9 0.5 P
JLO 51.5 0.5 S
XJI 32.4 0.5 P
XJI 53.4 0.5 S
JJS 35.5 1 P
JJS 59.7 1 S
EMS 9.5 1 S
XJP 9.9 1 P
XJP 16.4 1 S
WMP 13.3 1 P
WMP 22.2 1 S
SMI 16.8 0.5 P
SMI 28 0.5 S
HMS 19.9 1 P
HMS 33.1 1 S
GZA 22.1 0.5 P
GZA 36.3 0.5 S
YHZ 23.8 0.5 P
YHZ 39.5 0.5 S
GDS 24.1 1 P
GDS 40.3 1 S
# 2001 02 02 15 21 22.10 29.4 103.417 0.000 1.8 0 0 0 734
LBO 43.5 0.5 S
EMS 9.9 1 S
WMP 11.1 1 P
WMP 17.7 1 S
XJP 12.7 1 P
XJP 20.7 1 S
HMS 18.2 1 P
HMS 30.5 1 S
YZP 30.5 1 P
YZP 50.9 1 S
# 2001 02 02 17 53 14.50 31.1667 103.883 16.000 1.6 0 0 0 735
JHE 5.3 0.5 P
JHE 8.8 0.5 S
WCH 9.1 0.5 P
WCH 14.5 0.5 S
YZP 11.3 1 P
YZP 18.1 1 S
MXI 11.9 0.5 P
MXI 20 0.5 S
AXI 14.5 0.5 P
AXI 24.1 0.5 S
JJS 14.5 1 P
JJS 24.3 1 S
