# 2001 1 1 16 2 43.60 29.220 101.070 9.0 0 0 0 0 620002
GDS 19.6 1 P
GDS 32.2 1 S
HMS 52.3917 1 P
HWS 63.1114 1 P
MDS 35.82 1 P
MEK 49.19 1 P
WMP 46.16 1 P
XJP 29.4 1 P
XJP 49.4 1 S
YZP 48.7591 1 P
# 2001 1 5 23 20 10.50 29.230 101.050 0.0 0 0 0 0 620003
EMS 40.6051 1 P
GDS 20.3 1 P
GDS 33.3 1 S
HMS 53.2993 1 P
LZZ 68.4868 1 P
MDS 36.85 1 P
MEK 49.462 1 P
WMP 46.7 1 P
XJP 30.2 1 P
XJP 50.9 1 S
YZP 48.8608 1 P
# 2001 1 6 2 28 9.70 29.290 105.520 8.0 0 0 0 0 620004
EMS 38.5604 1 P
GDS 56.5534 1 P
HMS 25.8 1 P
HMS 42.7 1 S
HWS 27 1 P
HWS 45.3 1 S
JJS 34.35 1 P
LZZ 3.2 1 P
MDS 44.0703 1 P
MEK 64.5002 1 P
WMP 35 1 P
WMP 60.6 1 S
XJP 47.8203 1 P
YGD 31.6 1 P
YGD 54.4 1 S
YTS 48.95 1 P
YZP 41.93 1 P
ZJG 43.89 1 P
# 2001 1 6 23 49 58.60 29.080 103.410 10.0 0 0 0 0 620005
EMS 12.4 1 P
GDS 34.21 1 P
HMS 17 1 P
HMS 27.6 1 S
HWS 22.1 1 P
HWS 36.7 1 S
JJS 38.98 1 P
LZZ 37.34 1 P
MDS 23.54 1 P
MEK 55.2603 1 P
WMP 4.7 1 P
WMP 6.7 1 S
XJP 17.7 1 P
XJP 29.4 1 S
YGD 24.2 1 P
YGD 39.4 1 S
YTS 61.5886 1 P
YZP 34.5858 1 P
YZP 57.6 1 S
ZJG 48.66 1 P
# 2001 1 9 5 5 2.20 29.230 101.080 0.0 0 0 0 0 620006
EMS 41.72 1 P
GDS 20.8 1 P
GDS 34.3 1 S
HMS 53.95 1 P
HWS 58.0581 1 P
LZZ 70.8447 1 P
MDS 37.2117 1 P
MEK 50.3 1 P
WMP 46.99 1 P
XJP 31 1 P
XJP 52.7 1 S
YGD 52.8868 1 P
YZP 49.75 1 P
ZJG 66.1647 1 P
# 2001 1 14 21 21 35.30 30.130 103.100 0.0 0 0 0 0 620007
EMS 17.42 1 P
GDS 21 1 P
GDS 34.7 1 S
HMS 26.3319 1 P
HMS 44.9 1 S
HWS 39.81 1 P
JJS 29.0269 1 P
LZZ 42.97 1 P
MDS 9.28 1 P
MEK 34.7 1 P
MEK 56.7 1 S
WMP 27.0583 1 P
WMP 49.3 1 S
XJP 21.3 1 P
XJP 34.8 1 S
YGD 19.1 1 P
YGD 31.6 1 S
YZP 16.3 1 P
YZP 26.7 1 S
ZJG 34.684 1 P
# 2001 1 19 3 33 51.68 30.621 106.967 7.0 0 0 0 0 620008
MDS 66.566 1 P
MDS 111.825 1 S
WMP 63.5098 1 P
# 2001 1 20 15 28 36.00 33.500 102.410 0.0 0 0 0 0 620009
YTS 52.3693 1 P
ZJG 50.21 1 P
# 2001 1 21 5 8 44.50 31.070 103.460 17.0 0 0 0 0 620010
GDS 36.54 1 P
HMS 31.3074 1 P
HMS 55 1 S
HWS 46.1613 1 P
JJS 15.8141 1 P
JJS 26.6 1 S
LZZ 42.96 1 P
MDS 24 1 P
MEK 29.8 1 P
MEK 50.3 1 S
WMP 38.02 1 P
XJP 37.49 1 P
YGD 19.9 1 P
YGD 35.5 1 S
YTS 38.88 1 P
YZP 7.3 1 P
YZP 12.5 1 S
ZJG 21.7 1 P
ZJG 38 1 S
# 2001 1 24 16 31 21.40 29.310 101.030 5.0 0 0 0 0 620011
EMS 41.0306 1 P
GDS 20.5 1 P
GDS 33.6 1 S
HMS 53.28 1 P
HWS 56.9038 1 P
MDS 36.38 1 P
MEK 49.74 1 P
WMP 46.81 1 P
XJP 30.3701 1 P
XJP 52.3 1 S
YZP 49.0904 1 P
# 2001 1 28 20 14 37.30 30.550 103.060 5.0 0 0 0 0 620012
EMS 27.04 1 P
GDS 25.3 1 P
GDS 42 1 S
HMS 32.8 1 P
HMS 54.6 1 S
HWS 45.67 1 P
JJS 24.5 1 P
JJS 41 1 S
LZZ 46.26 1 P
MDS 17.79 1 P
MEK 25 1 P
MEK 41 1 S
WMP 35.97 1 P
XJP 31 1 P
XJP 51.7 1 S
YGD 21.9 1 P
YGD 36.6 1 S
YTS 46.8557 1 P
YZP 9.3 1 P
YZP 14.9 1 S
ZJG 30.7 1 P
ZJG 51.5 1 S
# 2001 2 7 16 20 30.10 30.260 103.320 5.0 0 0 0 0 620013
EMS 19.05 1 P
GDS 28.44 1 P
HMS 22.8 1 P
HMS 37.7 1 S
HWS 38.61 1 P
JJS 21.9 1 P
JJS 35.9 1 S
LZZ 40.063 1 P
MDS 13.83 1 P
MEK 36.54 1 P
WMP 27.22 1 P
XJP 25.61 1 P
YGD 12.44 1 P
YTS 46.5084 1 P
YZP 10.1 1 P
YZP 16.9 1 S
ZJG 32.38 1 P
# 2001 2 12 12 44 50.10 29.250 101.070 10.0 0 0 0 0 620014
EMS 40.69 1 P
GDS 20.4 1 P
GDS 33.4 1 S
HMS 52.74 1 P
HWS 57.3442 1 P
LZZ 67.91 1 P
MDS 36.16 1 P
MEK 49.41 1 P
WMP 45.46 1 P
XJP 29 1 P
XJP 47.3 1 S
YGD 51.1996 1 P
YZP 48.49 1 P
ZJG 65.2005 1 P
# 2001 2 14 5 0 32.60 29.280 101.020 6.0 0 0 0 0 620015
EMS 41.196 1 P
GDS 20.6 1 P
GDS 34 1 S
HMS 53.2042 1 P
MEK 49.99 1 P
WMP 45.93 1 P
XJP 29.6 1 P
XJP 50 1 S
YZP 49.1047 1 P
# 2001 2 14 7 39 50.90 29.111 100.728 6.0 0 0 0 0 620016
GDS 29.2305 1 P
GDS 42.545 1 S
HMS 61.7502 1 P
HMS 103.574 1 S
HWS 115.128 1 S
MDS 45.9945 1 P
MEK 58.3329 1 P
WMP 54.2915 1 P
XJP 38.265 1 P
XJP 59.1873 1 S
YZP 57.641 1 P
YZP 94.6187 1 S
# 2001 2 14 8 24 47.90 29.270 101.010 5.0 0 0 0 0 620017
EMS 40.8435 1 P
GDS 20.3 1 P
GDS 33.7 1 S
HMS 52.54 1 P
HWS 57.3743 1 P
JJS 63.8434 1 P
MDS 36.4993 1 P
MEK 49.4145 1 P
WMP 45.3 1 P
XJP 29.4 1 P
XJP 48.6 1 S
YZP 48.9715 1 P
ZJG 66.1546 1 P
# 2001 2 14 9 50 30.90 29.280 101.020 5.0 0 0 0 0 620018
GDS 19.6 1 P
GDS 32.7 1 S
HMS 52.5571 1 P
XJP 28.9 1 P
XJP 48.7 1 S
# 2001 2 23 1 34 43.00 29.280 101.000 0.0 0 0 0 0 620019
GDS 20.7 1 P
GDS 34.4 1 S
HMS 53.6808 1 P
MDS 37.5491 1 P
MEK 49.6097 1 P
WMP 45.16 1 P
XJP 28.9549 1 P
XJP 50.3 1 S
YZP 49.37 1 P
# 2001 2 23 2 11 51.00 29.260 101.020 0.0 0 0 0 0 620020
EMS 42.53 1 P
GDS 22.2 1 P
GDS 35.9 1 S
HMS 54.85 1 P
HWS 59.0048 1 P
JJS 60.46 1 P
LZZ 69.3756 1 P
MDS 38.35 1 P
MEK 51 1 P
WMP 46.4 1 P
XJP 50.1 1 S
YGD 53.3679 1 P
YTS 83.1301 1 P
YZP 50.69 1 P
ZJG 67.7815 1 P
# 2001 2 23 4 29 43.80 29.270 101.060 10.0 0 0 0 0 620021
GDS 20.2 1 P
GDS 33.3 1 S
MDS 35.6296 1 P
WMP 44.6629 1 P
XJP 28.6508 1 P
# 2001 2 24 23 42 40.10 29.260 101.030 5.0 0 0 0 0 620022
GDS 21.3 1 P
GDS 34.7 1 S
HMS 53.9957 1 P
MDS 38.012 1 P
MEK 50.3725 1 P
WMP 45.723 1 P
XJP 29.7 1 P
XJP 49.5 1 S
# 2001 2 25 6 57 26.90 29.280 101.030 12.0 0 0 0 0 620023
GDS 19.8 1 P
GDS 32.9 1 S
HMS 52.75 1 P
MDS 35.7245 1 P
MEK 49.2 1 P
WMP 44.4076 1 P
XJP 27.9 1 P
XJP 48.4 1 S
YZP 48.3114 1 P
# 2001 2 25 15 56 6.81 25.647 101.199 5.0 0 0 0 0 620024
EMS 82.4257 1 P
EMS 137.754 1 S
GDS 81.9119 1 P
GDS 152.746 1 S
HMS 87.1259 1 P
HWS 84.6343 1 P
JJS 104.133 1 P
LZZ 97.7692 1 P
MDS 86.5565 1 P
MDS 145.635 1 S
MEK 107.274 1 P
WMP 76.3421 1 P
XJP 74.8451 1 P
XJP 126.248 1 S
YGD 93.7512 1 P
YGD 153.809 1 S
YTS 127.071 1 P
YZP 97.3942 1 P
ZJG 113.822 1 P
# 2001 2 25 22 4 43.40 29.270 101.020 10.0 0 0 0 0 620025
GDS 20.5 1 P
GDS 34 1 S
MDS 37.6843 1 P
MEK 49.35 1 P
XJP 29.2 1 P
XJP 49.5 1 S
YZP 47.5755 1 P
# 2001 2 26 4 18 1.60 29.280 101.000 0.0 0 0 0 0 620026
EMS 37.9208 1 P
GDS 21.6 1 P
GDS 34.9 1 S
HMS 54.3737 1 P
JJA 62.9905 1 P
JJS 62.9905 1 P
LZZ 62.9905 1 P
MDS 38.75 1 P
WMP 46.0249 1 P
XJP 29.552 1 P
# 2001 2 27 14 21 48.40 29.250 101.000 5.0 0 0 0 0 620027
GDS 21.2 1 P
GDS 34.9 1 S
HMS 53.861 1 P
MDS 38.2652 1 P
MEK 50.26 1 P
WMP 45.4123 1 P
XJP 29.34 1 P
YZP 49.78 1 P
# 2001 2 27 21 12 56.00 32.150 107.350 0.0 0 0 0 0 620028
LZZ 59.56 1 P
YTS 34 1 P
YTS 55.8 1 S
YZP 69.5 1 P
YZP 114.8 1 S
# 2001 3 1 5 19 54.50 29.280 101.030 0.0 0 0 0 0 620029
EMS 40.75 1 P
GDS 19.9 1 P
GDS 32.9 1 S
HMS 52.3148 1 P
JJS 58.8865 1 P
MDS 36.26 1 P
MEK 49.69 1 P
WMP 45.02 1 P
XJP 27.6681 1 P
XJP 48 1 S
YZP 48.34 1 P
ZJG 65.5273 1 P
# 2001 3 2 16 16 59.60 29.280 101.020 2.0 0 0 0 0 620030
GDS 20.9 1 P
GDS 34.5 1 S
MDS 38.0411 1 P
MEK 49.93 1 P
XJP 29.6 1 P
XJP 49.5 1 S
# 2001 3 6 11 41 4.20 26.912 100.617 6.0 0 0 0 0 620031
EMS 71.8468 1 P
EMS 113.378 1 S
GDS 65.6523 1 P
HMS 79.5453 1 P
HMS 133.343 1 S
MDS 72.059 1 P
MDS 115.14 1 S
MEK 97.953 1 P
WMP 68.9633 1 P
XJP 60.3473 1 P
XJP 91.7568 1 S
YZP 87.4971 1 P
ZJG 102.349 1 P
# 2001 3 7 11 51 23.60 27.450 102.450 6.0 0 0 0 0 620032
EMS 38.32 1 P
GDS 45.06 1 P
HMS 42.84 1 P
HWS 38.18 1 P
MDS 44.85 1 P
MEK 70.4257 1 P
WMP 30.2 1 P
XJP 29.92 1 P
YGD 48.91 1 P
YZP 55.84 1 P
ZJG 70.38 1 P
# 2001 3 7 12 11 11.45 28.121 102.575 5.0 0 0 0 0 620033
HMS 45.4212 1 P
HMS 77.7064 1 S
HWS 40.6316 1 P
HWS 68.3905 1 S
WMP 32.2943 1 P
WMP 53.9857 1 S
XJP 32.476 1 P
XJP 53.1531 1 S
# 2001 3 11 14 32 4.20 29.240 101.030 0.0 0 0 0 0 620034
EMS 42.12 1 P
GDS 21.4 1 P
GDS 34.7 1 S
HMS 54.11 1 P
HWS 60.0246 1 P
JJS 63.1887 1 P
LZZ 68.095 1 P
MDS 38.21 1 P
MEK 50.38 1 P
WMP 44.97 1 P
XJP 28.64 1 P
YGD 52.6823 1 P
YZP 50.27 1 P
ZJG 70.3489 1 P
# 2001 3 12 2 16 46.01 28.513 102.285 14.0 0 0 0 0 620035
GDS 21.1928 1 P
MDS 37.1226 1 P
MDS 62.5574 1 S
YZP 49.8902 1 P
YZP 86.531 1 S
ZJG 70.7904 1 P
ZJG 122.839 1 S
# 2001 3 12 5 27 26.79 27.923 102.118 8.0 0 0 0 0 620036
# 2001 3 17 10 11 43.00 29.090 101.560 0.0 0 0 0 0 620037
EMS 28.33 1 P
GDS 17.6 1 P
GDS 29.4 1 S
HMS 43.16 1 P
HWS 46.77 1 P
JJS 51.6213 1 P
MDS 27.17 1 P
MEK 51.075 1 P
WMP 30.53 1 P
XJP 13.6 1 P
YGD 42.06 1 P
YZP 42.1 1 P
ZJG 59.5521 1 P
# 2001 3 22 22 6 12.83 27.009 100.667 7.0 0 0 0 0 620038
MDS 124.021 1 S
WMP 113.422 1 S
XJP 99.8142 1 S
# 2001 3 26 4 47 28.60 29.130 101.520 0.0 0 0 0 0 620039
EMS 28.8851 1 P
GDS 17.5 1 P
GDS 29 1 S
HMS 43.0607 1 P
HWS 46.5007 1 P
MDS 27.57 1 P
MEK 51.4747 1 P
WMP 30.037 1 P
YGD 42.11 1 P
YZP 42.45 1 P
ZJG 66.0506 1 P
# 2001 3 29 14 49 47.60 29.090 101.550 0.0 0 0 0 0 620040
EMS 28.12 1 P
GDS 16.8 1 P
GDS 27.7 1 S
HMS 42.33 1 P
HWS 45.9107 1 P
JJS 50.94 1 P
MDS 26.69 1 P
MEK 50.33 1 P
WMP 28.8926 1 P
XJP 16.9 1 P
XJP 27.8 1 S
YGD 41.24 1 P
YZP 41.53 1 P
ZJG 58.4594 1 P
# 2001 3 30 11 26 20.29 28.935 100.911 6.0 0 0 0 0 620041
EMS 48.906 1 P
GDS 28.3709 1 P
GDS 42.1353 1 S
HMS 61.1679 1 P
HMS 102.594 1 S
MDS 45.1881 1 P
WMP 54.1114 1 P
WMP 88.0919 1 S
XJP 39.2634 1 P
XJP 59.8103 1 S
YZP 56.6344 1 P
# 2001 4 4 1 20 15.20 28.958 101.323 5.0 0 0 0 0 620042
GDS 22.1989 1 P
HMS 55.2591 1 P
MDS 39.7593 1 P
MDS 66.8802 1 S
XJP 33.4385 1 P
# 2001 4 4 10 55 20.30 28.408 102.017 5.0 0 0 0 0 620043
GDS 27.1358 1 P
LZZ 73.3012 1 P
MDS 43.7217 1 P
MEK 55.912 1 P
YZP 55.5451 1 P
YZP 93.2546 1 S
# 2001 4 6 5 2 7.80 29.290 101.050 0.0 0 0 0 0 620044
EMS 41.14 1 P
HMS 53.27 1 P
HWS 57.6386 1 P
JJS 58.6286 1 P
MDS 36.578 1 P
MEK 49.16 1 P
WMP 46.63 1 P
XJP 31.4 1 P
XJP 52 1 S
YGD 50.3651 1 P
YZP 48.69 1 P
ZJG 64.9153 1 P
# 2001 4 7 15 46 29.00 29.280 101.040 12.0 0 0 0 0 620045
EMS 40.65 1 P
GDS 20.3 1 P
GDS 33.5 1 S
MDS 36.5729 1 P
MEK 49.06 1 P
WMP 47.0275 1 P
XJP 31.55 1 P
# 2001 4 19 4 55 34.44 31.762 102.057 9.0 0 0 0 0 620046
EMS 84.9314 1 S
GDS 60.532 1 S
HMS 59.1101 1 P
HMS 97.2131 1 S
HWS 70.6247 1 P
HWS 123.861 1 S
JJS 49.8476 1 P
JJS 75.4575 1 S
LZZ 73.3507 1 P
LZZ 131.451 1 S
MDS 42.9056 1 P
MDS 65.7197 1 S
MEK 21.985 1 S
WMP 61.9298 1 P
WMP 100.061 1 S
YGD 50.7678 1 P
YGD 79.7844 1 S
YTS 106.246 1 S
YZP 35.3584 1 P
ZJG 48.7632 1 P
ZJG 75.1702 1 S
# 2001 4 19 20 19 15.00 32.300 102.020 0.0 0 0 0 0 620047
EMS 61.1843 1 P
GDS 46.35 1 P
HMS 66.6311 1 P
JJS 50.1324 1 P
MDS 49.78 1 P
MEK 13.2 1 P
MEK 22 1 S
WMP 66.1279 1 P
XJP 62.29 1 P
YGD 55.0709 1 P
YTS 59.3769 1 P
YZP 39.69 1 P
ZJG 45.02 1 P
# 2001 4 24 11 15 9.98 28.520 102.172 5.0 0 0 0 0 620048
EMS 37.1304 1 P
EMS 58.3528 1 S
GDS 35.8347 1 P
GDS 57.2099 1 S
HMS 47.1441 1 P
HMS 78.138 1 S
HWS 45.6262 1 P
JJS 62.0395 1 P
JJS 102.138 1 S
LZZ 64.4091 1 P
LZZ 118.402 1 S
MDS 38.9239 1 P
MDS 62.5701 1 S
MEK 68.3498 1 P
MEK 113.232 1 S
XJP 27.5507 1 P
XJP 39.8221 1 S
YGD 50.5031 1 P
YGD 83.2793 1 S
YTS 84.6026 1 P
YZP 52.277 1 P
YZP 86.7713 1 S
ZJG 70.4834 1 P
ZJG 118.637 1 S
# 2001 4 27 6 39 56.90 31.200 100.560 0.0 0 0 0 0 620049
GDS 29.7 1 P
GDS 51.9 1 S
JJS 54.186 1 P
MEK 25.8 1 P
MEK 40.2 1 S
YTS 81.45 1 P
YZP 42.1221 1 P
ZJG 55.12 1 P
# 2001 4 28 7 16 3.30 30.430 103.290 0.0 0 0 0 0 620050
GDS 30.52 1 P
HMS 29.5 1 P
HMS 49.5 1 S
HWS 40.4 1 P
JJS 21.2 1 P
JJS 35.2 1 S
LZZ 43.5227 1 P
MDS 17.86 1 P
MEK 31.3 1 P
MEK 51.7 1 S
WMP 35.11 1 P
YGD 18.3 1 P
YGD 30.6 1 S
YZP 3.4 1 P
YZP 6.7 1 S
ZJG 29.8599 1 P
ZJG 50.3 1 S
# 2001 5 5 2 35 29.10 29.260 101.060 9.0 0 0 0 0 620051
GDS 20.7 1 P
GDS 33.3 1 S
MDS 34.7066 1 P
XJP 30.8 1 P
XJP 50.5 1 S
# 2001 5 5 5 30 24.20 29.260 101.090 13.0 0 0 0 0 620052
GDS 19.508 1 P
GDS 32.2 1 S
MEK 49.3204 1 P
WMP 46.3912 1 P
XJP 29.8 1 P
XJP 48.9 1 S
YZP 44.88 1 P
# 2001 5 5 10 41 9.20 29.280 101.060 5.0 0 0 0 0 620053
GDS 19.8 1 P
GDS 32.4 1 S
MDS 43.8548 1 P
MEK 49.33 1 P
XJP 30.8 1 P
XJP 50.5 1 S
YZP 45.19 1 P
# 2001 5 5 11 39 25.10 29.110 106.010 0.0 0 0 0 0 620054
GDS 70.5193 1 P
HMS 31.3262 1 P
HMS 51.3 1 S
JJS 42.8771 1 P
LZZ 9.5 1 P
LZZ 15.3 1 S
WMP 39 1 P
WMP 64.5 1 S
YTS 56.9971 1 P
YZP 45.83 1 P
ZJG 51.8264 1 P
# 2001 5 20 3 50 47.90 32.060 101.350 1.0 0 0 0 0 620055
MEK 14.1 1 P
MEK 23.1 1 S
# 2001 5 22 18 28 37.20 28.060 103.300 5.0 0 0 0 0 620056
EMS 30.48 1 P
GDS 44.59 1 P
HMS 33.2 1 P
HMS 54.5 1 S
HWS 23.3 1 P
HWS 38.7 1 S
JJS 54.6491 1 P
MDS 35.75 1 P
MEK 67.8874 1 P
WMP 20.2 1 P
WMP 34 1 S
XJP 30.8 1 P
XJP 50.9 1 S
YGD 41.5243 1 P
YZP 52.7658 1 P
ZJG 63.17 1 P
# 2001 5 23 22 36 27.60 27.756 102.332 14.0 0 0 0 0 620058
EMS 42.1939 1 P
GDS 36.4437 1 P
MDS 39.4596 1 P
MDS 81.5132 1 S
WMP 40.782 1 P
XJP 33.7329 1 P
XJP 65.2537 1 S
YZP 62.4931 1 P
YZP 113.586 1 S
# 2001 5 24 1 5 54.07 28.275 100.694 5.0 0 0 0 0 620059
WMP 58.4599 1 P
WMP 98.0943 1 S
# 2001 5 24 1 44 11.55 27.845 99.932 5.0 0 0 0 0 620060
HMS 82.5023 1 P
HMS 130.251 1 S
WMP 68.7915 1 P
WMP 107.202 1 S
XJP 60.165 1 P
XJP 90.7511 1 S
# 2001 5 27 5 6 12.14 27.507 100.570 12.0 0 0 0 0 620061
MDS 68.1482 1 P
MDS 114.512 1 S
# 2001 5 29 22 6 12.83 27.009 100.667 7.0 0 0 0 0 620062
# 2001 5 30 2 0 45.85 26.554 98.810 5.0 0 0 0 0 620063
GDS 86.2317 1 P
MDS 93.7729 1 P
WMP 90.5431 1 P
XJP 83.2229 1 P
# 2001 5 31 3 22 41.00 29.260 101.040 2.0 0 0 0 0 620064
EMS 39.5476 1 P
GDS 19.2 1 P
GDS 32 1 S
HMS 51.8623 1 P
MDS 35.21 1 P
MEK 49.1 1 P
WMP 45.1521 1 P
XJP 29.3 1 P
XJP 49.4 1 S
YZP 47.79 1 P
# 2001 6 2 16 44 53.30 29.260 101.030 0.0 0 0 0 0 620065
GDS 20.8 1 P
GDS 33.8 1 S
HMS 53.5859 1 P
MEK 50.1 1 P
MEK 83.6 1 S
WMP 47 1 P
WMP 77.5 1 S
XJP 31.6 1 P
XJP 52.6 1 S
YZP 49.1911 1 P
# 2001 6 6 22 59 23.20 29.270 101.050 8.0 0 0 0 0 620066
EMS 39.2985 1 P
GDS 20.2 1 P
GDS 32.9 1 S
HMS 52.56 1 P
MDS 36.19 1 P
MEK 49.99 1 P
WMP 45.9622 1 P
XJP 30.3 1 P
XJP 50.4 1 S
YZP 48.3159 1 P
# 2001 6 7 8 26 51.50 29.240 101.030 0.0 0 0 0 0 620067
EMS 40.9488 1 P
GDS 20.3 1 P
GDS 33.3 1 S
HMS 52.7462 1 P
MDS 37.25 1 P
MEK 49.62 1 P
WMP 46.51 1 P
XJP 31.0789 1 P
XJP 51.8 1 S
YZP 49.0121 1 P
# 2001 6 9 16 10 19.90 29.250 101.050 0.0 0 0 0 0 620068
EMS 39.7938 1 P
GDS 19.6 1 P
GDS 32.5 1 S
HMS 52.1227 1 P
MDS 35.35 1 P
MEK 49.52 1 P
XJP 29.3 1 P
XJP 49 1 S
YZP 48.06 1 P
# 2001 6 14 6 19 8.93 27.216 102.935 9.0 0 0 0 0 620069
HMS 54.2637 1 P
HMS 92.4555 1 S
HWS 43.4461 1 P
HWS 72.5377 1 S
WMP 43.4122 1 P
WMP 73.3776 1 S
# 2001 6 19 10 58 50.20 32.530 104.550 3.0 0 0 0 0 620070
GDS 64.7019 1 P
HMS 59.04 1 P
LZZ 60.5642 1 P
YTS 18.4 1 P
YTS 30.7 1 S
# 2001 6 23 2 48 33.00 29.270 105.290 11.0 0 0 0 0 620071
EMS 34.09 1 P
GDS 53.13 1 P
HMS 20.7 1 P
HMS 34.7 1 S
HWS 21.9 1 P
HWS 35.4 1 S
JJS 34.46 1 P
LZZ 9.6 1 P
LZZ 16.3 1 S
MDS 40.65 1 P
MEK 62.755 1 P
WMP 29.72 1 P
XJP 44.07 1 P
YGD 28.95 1 P
YTS 51.38 1 P
YZP 40.21 1 P
# 2001 6 24 8 35 19.98 27.623 99.807 5.0 0 0 0 0 620072
HMS 80.8594 1 P
HWS 79.2554 1 P
HWS 132.877 1 S
LZZ 97.36 1 P
MDS 73.6508 1 P
MDS 117.487 1 S
WMP 71.924 1 P
WMP 111.39 1 S
XJP 64.2606 1 P
XJP 98.6379 1 S
YGD 81.604 1 P
YZP 84.7822 1 P
YZP 143.594 1 S
# 2001 6 27 1 56 13.50 29.260 105.320 15.0 0 0 0 0 620073
HMS 21.5 1 P
HMS 35.6 1 S
HWS 22.1 1 P
HWS 36.4 1 S
JJS 35.6 1 P
JJS 59.5 1 S
LZZ 9.7 1 P
LZZ 15.9 1 S
WMP 31.7 1 P
WMP 52.8 1 S
YZP 42.7 1 P
YZP 70.6 1 S
# 2001 7 5 5 15 47.90 32.120 103.430 6.0 0 0 0 0 620074
JJS 28.7 1 P
JJS 49.1 1 S
MDS 42.9024 1 P
MEK 26 1 P
MEK 43.4 1 S
YTS 32.4 1 P
YTS 56.8 1 S
YZP 28.2 1 P
YZP 46.5 1 S
ZJG 18.6 1 P
ZJG 30.9 1 S
# 2001 7 7 7 48 47.70 29.260 101.050 10.0 0 0 0 0 620075
GDS 20.1 1 P
GDS 32.4 1 S
HMS 52.5919 1 P
MDS 35.9035 1 P
MEK 49.84 1 P
WMP 46.1742 1 P
XJP 30.2 1 P
XJP 50.5 1 S
YZP 48.28 1 P
# 2001 7 7 9 28 57.40 29.260 101.050 9.0 0 0 0 0 620076
GDS 19.8 1 P
GDS 32.8 1 S
XJP 30.3 1 P
XJP 50.2 1 S
# 2001 7 9 18 13 37.80 27.170 105.280 0.0 0 0 0 0 620077
HWS 34.5 1 P
HWS 57 1 S
ZJG 76.54 1 P
# 2001 7 12 13 54 38.80 30.010 102.180 9.0 0 0 0 0 620078
EMS 21.17 1 P
GDS 6.7 1 P
GDS 10.7 1 S
HMS 34.0121 1 P
HMS 59.2 1 S
HWS 44.3 1 P
JJS 38.0572 1 P
JJS 69.3 1 S
LZZ 52.35 1 P
MDS 12.8 1 P
MEK 35.2 1 P
MEK 59.2 1 S
WMP 30.72 1 P
XJP 16.4 1 P
XJP 26.5 1 S
YGD 29.6408 1 P
YGD 51.9 1 S
YZP 25.9523 1 P
YZP 44.2 1 S
# 2001 7 15 19 28 29.54 28.296 101.072 7.0 0 0 0 0 620079
EMS 47.5524 1 P
GDS 42.6672 1 P
HWS 54.244 1 P
HWS 107.878 1 S
MDS 48.9425 1 P
MDS 90.6111 1 S
WMP 46.8182 1 P
WMP 87.0768 1 S
XJP 39.5916 1 P
XJP 70.6016 1 S
# 2001 7 25 18 24 53.98 27.473 99.886 5.0 0 0 0 0 620080
EMS 69.6344 1 P
EMS 111.238 1 S
GDS 64.2655 1 P
GDS 101.341 1 S
HMS 78.2029 1 P
JJS 91.6939 1 P
LZZ 93.5754 1 P
MDS 72.2801 1 P
MDS 114.324 1 S
MEK 92.8505 1 P
MEK 154.971 1 S
XJP 62.1313 1 P
XJP 90.4437 1 S
YGD 83.7926 1 P
YTS 116.564 1 P
YZP 83.9433 1 P
YZP 140.856 1 S
ZJG 99.6368 1 P
ZJG 180.605 1 S
# 2001 7 26 10 21 33.90 29.260 101.040 0.0 0 0 0 0 620081
EMS 39.9151 1 P
GDS 19.6 1 P
GDS 32.2 1 S
HMS 52.1486 1 P
JJS 64.5758 1 P
MDS 35.08 1 P
MEK 49.27 1 P
WMP 46.3222 1 P
XJP 29.9 1 P
XJP 50 1 S
YZP 48.14 1 P
ZJG 64.6241 1 P
# 2001 7 26 17 55 5.95 27.309 101.263 5.0 0 0 0 0 620082
EMS 59.0642 1 P
EMS 98.0406 1 S
GDS 54.595 1 P
GDS 88.8916 1 S
HMS 66.234 1 P
MDS 60.0457 1 P
MDS 103.088 1 S
MEK 86.8797 1 P
MEK 146.844 1 S
WMP 57.5976 1 P
WMP 95.1981 1 S
XJP 49.7873 1 P
XJP 77.1822 1 S
YZP 73.0241 1 P
YZP 132.258 1 S
# 2001 7 26 18 27 24.20 28.269 101.956 5.0 0 0 0 0 620083
GDS 39.8824 1 P
HMS 52.895 1 P
HWS 50.8922 1 P
YZP 57.9132 1 P
ZJG 76.1095 1 P
# 2001 7 26 19 27 19.00 28.480 103.350 14.0 0 0 0 0 620084
EMS 14.19 1 P
GDS 34.6 1 P
GDS 60.3 1 S
HMS 19.3 1 P
HWS 18.9 1 P
HWS 32.5 1 S
LZZ 37.84 1 P
MDS 25.99 1 P
MEK 55.58 1 P
XJP 18.1 1 P
XJP 30.7 1 S
YGD 27 1 P
YZP 36.58 1 P
# 2001 7 29 1 22 10.90 31.130 103.180 8.0 0 0 0 0 620085
EMS 31.4 1 P
GDS 31.04 1 P
HMS 35.52 1 P
JJS 22.01 1 P
MDS 22.93 1 P
MEK 22.9 1 P
MEK 37.3 1 S
WMP 41.1305 1 P
XJP 37.1 1 P
YGD 24.4524 1 P
YTS 45.2781 1 P
YZP 9.4 1 P
YZP 15.5 1 S
ZJG 25.06 1 P
# 2001 8 5 5 59 22.70 29.260 101.020 0.0 0 0 0 0 620086
GDS 18.4 1 P
GDS 31.5 1 S
MDS 34.1251 1 P
MEK 48.1999 1 P
XJP 29.6998 1 P
YZP 46.752 1 P
# 2001 8 5 18 12 6.44 30.374 103.205 7.0 0 0 0 0 620087
EMS 25.0851 1 P
HMS 32.7394 1 P
HMS 49.3908 1 S
JJS 33.0597 1 P
JJS 53.8293 1 S
LZZ 51.0795 1 P
LZZ 86.6914 1 S
MDS 17.6725 1 P
MDS 23.9033 1 S
WMP 35.3436 1 P
YGD 23.5929 1 P
YGD 40.8891 1 S
YTS 56.8346 1 P
YTS 93.9475 1 S
YZP 20.8268 1 P
YZP 30.6233 1 S
ZJG 42.4644 1 P
ZJG 67.133 1 S
# 2001 8 10 7 26 19.46 27.391 100.865 11.0 0 0 0 0 620088
EMS 64.0195 1 P
EMS 104.744 1 S
GDS 59.2233 1 P
HMS 72.5571 1 P
HWS 70.5297 1 P
HWS 128.164 1 S
JJS 85.9214 1 P
LZZ 87.5082 1 P
MDS 66.0369 1 P
MDS 109.048 1 S
MEK 153.553 1 S
WMP 104.403 1 S
XJP 89.0877 1 S
YZP 79.8489 1 P
ZJG 94.8225 1 P
# 2001 8 10 7 31 2.66 27.883 100.374 5.0 0 0 0 0 620089
EMS 62.5825 1 P
EMS 103.563 1 S
HMS 70.7939 1 P
HWS 69.3163 1 P
JJS 83.661 1 P
MDS 64.8107 1 P
MDS 106.933 1 S
MEK 147.759 1 S
WMP 61.8329 1 P
WMP 102.126 1 S
XJP 54.3606 1 P
XJP 86.5753 1 S
YZP 76.4217 1 P
YZP 134.298 1 S
ZJG 93.8382 1 P
# 2001 8 10 8 16 14.52 27.573 100.937 7.0 0 0 0 0 620090
EMS 60.0732 1 P
GDS 55.5333 1 P
HMS 67.3569 1 P
HWS 66.4993 1 P
JJS 80.5418 1 P
MDS 61.2216 1 P
MDS 101.479 1 S
MEK 144.42 1 S
WMP 59.4808 1 P
WMP 99.7206 1 S
XJP 52.1295 1 P
XJP 83.1938 1 S
YZP 72.3163 1 P
ZJG 90.188 1 P
# 2001 8 11 21 41 39.77 28.075 101.605 5.0 0 0 0 0 620091
EMS 47.9501 1 P
GDS 42.5206 1 P
HMS 55.5717 1 P
HWS 54.0057 1 P
MDS 49.481 1 P
MEK 75.9498 1 P
WMP 46.5323 1 P
XJP 39.297 1 P
# 2001 8 31 0 4 15.90 34.953 105.940 12.0 0 0 0 0 620092
JJS 77.0218 1 P
YTS 51.9407 1 P
YTS 78.6478 1 S
YZP 79.502 1 P
ZJG 63.3507 1 P
ZJG 106.392 1 S
# 2001 8 31 15 17 29.90 29.530 102.460 4.0 0 0 0 0 620093
EMS 14.32 1 P
GDS 14.5654 1 P
GDS 25.8 1 S
HMS 27.6388 1 P
HMS 46.9 1 S
HWS 39.2 1 P
JJS 36.16 1 P
LZZ 47.99 1 P
MDS 7.2 1 P
MEK 38.94 1 P
WMP 24.17 1 P
XJP 13 1 P
XJP 21 1 S
YGD 23.8573 1 P
YGD 40.9 1 S
YTS 57.65 1 P
YZP 24.1 1 P
# 2001 9 5 2 58 3.00 30.280 101.370 0.0 0 0 0 0 620094
EMS 35.4 1 P
GDS 9.9 1 P
GDS 16.6 1 S
HMS 46.61 1 P
HWS 55.7717 1 P
JJS 48.3358 1 P
MDS 25.75 1 P
MEK 28.8 1 P
MEK 49.5 1 S
WMP 44.32 1 P
XJP 29.08 1 P
YGD 41.2364 1 P
YZP 34.32 1 P
ZJG 54.0641 1 P
# 2001 9 6 12 13 23.44 25.495 101.968 5.0 0 0 0 0 620095
EMS 80.7905 1 P
GDS 85.9868 1 P
HMS 86.8767 1 P
JJS 102.011 1 P
LZZ 99.2489 1 P
MDS 83.1739 1 P
WMP 76.3511 1 P
XJP 74.1016 1 P
XJP 124.301 1 S
YGD 91.1188 1 P
YZP 94.5011 1 P
ZJG 110.63 1 P
# 2001 9 6 12 46 16.72 27.558 101.996 10.0 0 0 0 0 620096
EMS 50.9189 1 P
HMS 57.785 1 P
HWS 51.9065 1 P
JJS 72.4744 1 P
MDS 53.3467 1 P
WMP 46.6754 1 P
YZP 64.2722 1 P
# 2001 9 6 14 15 18.28 28.600 103.161 5.0 0 0 0 0 620097
HWS 33.6316 1 P
JJS 54.0631 1 P
MDS 35.6654 1 P
YZP 46.8426 1 P
ZJG 63.36 1 P
