# 2002 12 12 18 7 16.40 32.550 103.580 0.0 0 0 0 0 620180
HMS 61.386 1 P
JJS 69.7 1 S
YTS 32.3 1 P
YTS 54.3 1 S
ZJG 29.4 1 P
ZJG 49 1 S
# 2002 12 14 15 43 38.20 29.590 104.580 12.0 0 0 0 0 620181
EMS 28.82 1 P
GDS 46.898 1 P
HMS 14.8 1 P
HWS 26.7 1 P
HWS 44.5 1 S
JJS 24.2 1 P
JJS 39.6 1 S
LZZ 21.1 1 P
LZZ 35 1 S
MDS 33.52 1 P
MEK 56.9242 1 P
XJP 38.4 1 P
XJP 65.4 1 S
YGD 18.1 1 P
YGD 29.4 1 S
YZP 31.2 1 P
YZP 51.5 1 S
ZJG 35 1 P
# 2002 12 15 22 46 16.99 26.866 102.818 5.0 0 0 0 0 620182
EMS 53.5473 1 P
EMS 99.7592 1 S
HMS 59.9198 1 P
JJS 74.1495 1 P
MDS 54.2785 1 P
MDS 103.167 1 S
WMP 51.4352 1 P
XJP 44.1686 1 P
# 2002 12 21 1 31 4.00 29.140 105.460 0.0 0 0 0 0 620183
EMS 39.5 1 P
EMS 64.9 1 S
JJS 38.1112 1 P
JJS 64.7 1 S
MDS 46.253 1 P
MEK 67.6 1 P
XJP 47.9 1 P
XJP 79.4 1 S
YGD 33.4277 1 P
YGD 56.2 1 S
YZP 43.5531 1 P
YZP 76.5 1 S
ZJG 48.18 1 P
# 2002 12 24 5 38 48.10 28.320 102.420 5.0 0 0 0 0 620184
EMS 25.3 1 P
EMS 42.1 1 S
HMS 35.4 1 P
HMS 59.7 1 S
HWS 35.4 1 P
HWS 58.8 1 S
MDS 31.4197 1 P
WMP 22.9 1 P
WMP 38.1 1 S
XJP 17.3 1 P
XJP 28.6 1 S
YGD 39.7511 1 P
YGD 68 1 S
YZP 46.2253 1 P
YZP 79.1 1 S
# 2003 1 1 18 40 11.40 29.260 105.550 0.0 0 0 0 0 620185
EMS 39.4 1 P
EMS 65.9 1 S
HMS 26.2 1 P
HMS 43.1 1 S
HWS 24.8 1 P
HWS 41.6 1 S
JJS 39.1 1 P
JJS 65.7 1 S
MDS 45.52 1 P
MEK 67.4226 1 P
WMP 35 1 P
WMP 58.6 1 S
XJP 48.7 1 P
XJP 81.2 1 S
YGD 34.3 1 P
YGD 57.2 1 S
YTS 54.86 1 P
YZP 46.5 1 P
YZP 77.6 1 S
ZJG 47.27 1 P
ZJG 85.5 1 S
# 2003 1 9 1 14 17.80 32.120 101.320 0.0 0 0 0 0 620186
HMS 68.38 1 P
JJS 54.6517 1 P
MDS 46.8008 1 P
MEK 13.9555 1 P
MEK 23.8 1 S
WMP 69.7949 1 P
XJP 56.9596 1 P
YGD 57.2375 1 P
YZP 42.97 1 P
ZJG 51.7922 1 P
# 2003 1 9 9 7 20.37 29.051 102.180 9.0 0 0 0 0 620187
MDS 29.2544 1 P
WMP 33.255 1 P
XJP 20.5348 1 P
# 2003 1 13 22 2 7.30 27.350 103.400 0.0 0 0 0 0 620188
EMS 44.3 1 P
EMS 74.4 1 S
HMS 42.9 1 P
HMS 73.1 1 S
HWS 32.2 1 P
HWS 54.8 1 S
MDS 50.2134 1 P
WMP 34.5 1 P
WMP 57.7 1 S
XJP 42.2 1 P
XJP 71.3 1 S
YGD 50.1398 1 P
# 2003 2 2 13 58 2.30 31.280 103.550 0.0 0 0 0 0 620189
EMS 36.1 1 P
EMS 61.4 1 S
GDS 41.85 1 P
HMS 36.3 1 P
HMS 61.6 1 S
HWS 50.0366 1 P
JJS 15.4 1 P
JJS 26.5 1 S
MDS 30.91 1 P
MEK 30.9 1 P
MEK 50.8 1 S
WMP 42.8 1 P
WMP 73.3 1 S
XJP 42.5 1 P
XJP 73.3 1 S
YGD 25.6 1 P
YGD 43.1 1 S
YTS 34.1 1 P
YZP 15 1 P
YZP 24.9 1 S
ZJG 15.5 1 P
ZJG 26.3 1 S
# 2003 2 10 14 25 47.00 29.150 102.140 0.0 0 0 0 0 620190
EMS 22.3 1 P
EMS 37 1 S
GDS 17.1 1 P
GDS 28.5 1 S
HMS 37.6 1 P
HMS 62.5 1 S
HWS 41.1542 1 P
HWS 71.5 1 S
JJS 46.6489 1 P
JJS 83.4 1 S
LZZ 55.1885 1 P
MDS 21.94 1 P
MEK 50.11 1 P
WMP 26.8 1 P
WMP 44.7 1 S
XJP 10.4 1 P
XJP 17.3 1 S
YGD 36.7 1 P
YGD 61 1 S
YZP 38.2 1 P
YZP 63.5 1 S
ZJG 55.3297 1 P
# 2003 2 14 2 57 55.00 27.450 100.520 0.0 0 0 0 0 620191
GDS 49.6 1 P
GDS 83.4 1 S
WMP 53.2 1 P
WMP 93.5 1 S
XJP 44.7 1 P
XJP 77.8 1 S
# 2003 2 15 4 4 5.50 29.160 107.280 7.0 0 0 0 0 620192
HMS 49.3 1 P
HMS 82.1 1 S
HWS 47.9 1 P
HWS 79.5 1 S
LZZ 28.9 1 P
LZZ 48 1 S
ZJG 60.84 1 P
# 2003 2 20 10 4 44.20 29.160 102.150 0.0 0 0 0 0 620193
EMS 22.4 1 P
EMS 37.5 1 S
GDS 16.5 1 P
GDS 27.2 1 S
HMS 36.6 1 P
HMS 61.6 1 S
HWS 41.5 1 P
HWS 71.7 1 S
JJS 46 1 P
JJS 81.4 1 S
LZZ 55.67 1 P
MDS 21.48 1 P
MEK 49.28 1 P
WMP 26.8 1 P
WMP 45.1 1 S
XJP 10.53 1 P
YGD 36.4 1 P
YGD 61.5 1 S
YZP 36.83 1 P
ZJG 53.9609 1 P
# 2003 2 24 13 5 0.20 28.430 105.430 5.0 0 0 0 0 620194
HMS 29.1 1 P
HMS 48.3 1 S
HWS 18.9 1 P
HWS 32 1 S
LZZ 20.7 1 P
LZZ 33.9 1 S
WMP 33.8 1 P
WMP 56.4 1 S
XJP 47.22 1 P
YGD 39.7 1 P
YGD 65.6 1 S
# 2003 3 7 15 1 45.10 28.350 103.440 0.0 0 0 0 0 620195
EMS 23.1 1 P
EMS 37.3 1 S
GDS 42.7 1 P
GDS 70.9 1 S
HMS 25 1 P
HMS 42 1 S
HWS 19.4 1 P
HWS 31.3 1 S
JJS 46.31 1 P
LZZ 40.6 1 P
MDS 33.83 1 P
WMP 12 1 P
WMP 18.8 1 S
XJP 24.1 1 P
XJP 40.7 1 S
YGD 33.5 1 P
YGD 57.1 1 S
YZP 43.7 1 P
YZP 72.8 1 S
ZJG 56.34 1 P
# 2003 3 8 6 28 1.50 28.220 104.480 0.0 0 0 0 0 620196
EMS 34.4 1 P
EMS 56.6 1 S
HMS 26.6 1 P
HMS 43.4 1 S
HWS 7.2 1 P
HWS 11 1 S
JJS 48.8 1 P
JJS 81.6 1 S
LZZ 32.6 1 P
LZZ 53.6 1 S
MDS 43.19 1 P
WMP 24.1 1 P
WMP 39.2 1 S
XJP 39.9 1 P
XJP 66.3 1 S
YGD 37.9 1 P
YGD 63.6 1 S
YZP 48.4 1 P
YZP 80.9 1 S
# 2003 3 10 9 23 2.80 32.080 104.300 15.0 0 0 0 0 620197
HMS 43.48 1 P
JJS 23.2 1 P
JJS 38.7 1 S
MDS 45.8724 1 P
MEK 38.04 1 P
WMP 49.5503 1 P
XJP 58.3355 1 P
YGD 37.2 1 P
YGD 62.6 1 S
YTS 21.9 1 P
YTS 36.7 1 S
YZP 29.6 1 P
YZP 49.4 1 S
ZJG 8.7 1 P
ZJG 14.2 1 S
# 2003 3 18 6 41 19.80 29.160 104.010 10.0 0 0 0 0 620198
EMS 13.1 1 P
EMS 21.6 1 S
GDS 38.2 1 P
GDS 63.6 1 S
HMS 10.6 1 P
HMS 17.2 1 S
HWS 20 1 P
HWS 33.8 1 S
JJS 35.9 1 P
JJS 59.9 1 S
LZZ 34.146 1 P
LZZ 59.4 1 S
MDS 24.44 1 P
WMP 7.2 1 P
WMP 11.8 1 S
XJP 22.1 1 P
XJP 36.7 1 S
YGD 19.8 1 P
YGD 32.9 1 S
YZP 32.5 1 P
YZP 54 1 S
ZJG 45.4281 1 P
ZJG 78.6 1 S
# 2003 3 18 6 48 35.80 29.180 104.000 5.0 0 0 0 0 620199
EMS 13.1 1 P
EMS 21.7 1 S
GDS 38.3 1 P
GDS 63.7 1 S
HMS 10.6 1 P
HMS 18 1 S
HWS 20.6 1 P
HWS 34.4 1 S
JJS 35.3178 1 P
JJS 60.5 1 S
LZZ 34.1775 1 P
LZZ 60 1 S
MDS 24.58 1 P
MEK 55.472 1 P
WMP 7.5 1 P
WMP 12.4 1 S
XJP 22.2 1 P
XJP 36.9 1 S
YGD 19.8 1 P
YGD 32.9 1 S
YTS 59.16 1 P
YZP 32.7333 1 P
YZP 55.8 1 S
ZJG 45.674 1 P
ZJG 79.2 1 S
# 2003 4 10 10 37 44.40 29.250 103.310 5.0 0 0 0 0 620200
EMS 6.1 1 P
EMS 9.8 1 S
HMS 18 1 P
HMS 29.6 1 S
WMP 10 1 P
WMP 17 1 S
XJP 15.2 1 P
XJP 24.9 1 S
# 2003 4 21 15 28 54.40 29.200 105.480 3.0 0 0 0 0 620201
EMS 38.5 1 P
EMS 64.1 1 S
GDS 57.8725 1 P
HMS 24.2 1 P
HMS 40.2 1 S
HWS 23.4 1 P
HWS 38.9 1 S
JJS 38.2 1 P
JJS 63.1 1 S
LZZ 7.6 1 P
LZZ 12.7 1 S
MDS 44.1949 1 P
MEK 65.4767 1 P
WMP 33.9 1 P
WMP 56.3 1 S
XJP 46.3965 1 P
YGD 32.5 1 P
YGD 54.1 1 S
YTS 52.8224 1 P
YZP 43.53 1 P
ZJG 46.4 1 P
# 2003 4 23 22 37 27.70 33.020 108.190 7.0 0 0 0 0 620202
EMS 83.4272 1 P
GDS 95.43 1 P
HMS 77.1 1 P
HWS 83.9164 1 P
JJS 62.34 1 P
LZZ 65.87 1 P
MDS 83.68 1 P
MEK 84.59 1 P
WMP 87.3 1 P
XJP 93.29 1 P
YGD 72.79 1 P
YTS 41.9 1 P
YTS 72.4 1 S
YZP 72.49 1 P
ZJG 55.3 1 P
ZJG 107.4 1 S
# 2003 5 5 18 59 58.20 31.200 103.480 1.0 0 0 0 0 620203
EMS 34 1 P
EMS 58 1 S
GDS 39 1 P
GDS 66.8 1 S
HMS 33.9 1 P
HMS 57.5 1 S
HWS 48.25 1 P
JJS 14.7 1 P
JJS 24.6 1 S
MDS 27.82 1 P
MEK 29.1 1 P
MEK 48.4 1 S
WMP 39.8 1 P
WMP 68.6 1 S
XJP 39.6608 1 P
XJP 69.6 1 S
YGD 22.7 1 P
YGD 38.5 1 S
YTS 34.96 1 P
YZP 11.1 1 P
YZP 19.3 1 S
ZJG 16.68 1 P
# 2003 5 10 15 33 46.50 31.380 102.260 13.0 0 0 0 0 620204
EMS 42.9 1 P
EMS 73 1 S
GDS 30.6 1 P
GDS 51.6 1 S
HMS 49.5 1 P
HMS 84.2 1 S
JJS 37.4 1 P
JJS 63.6 1 S
LZZ 68.0245 1 P
MDS 32.11 1 P
MEK 5.9 1 P
MEK 9.5 1 S
WMP 50.3104 1 P
XJP 43.7 1 P
XJP 74.2 1 S
YGD 38.8 1 P
YGD 65.8 1 S
YTS 54.78 1 P
YZP 24.5 1 P
YZP 41.2 1 S
ZJG 35.9 1 P
ZJG 61.5 1 S
# 2003 5 29 11 24 48.60 32.330 104.110 0.0 0 0 0 0 620205
EMS 58.7 1 P
EMS 97.3 1 S
HMS 51.4 1 P
HMS 89.4 1 S
JJS 32.2 1 P
JJS 53.6 1 S
MDS 49.9833 1 P
MEK 35.9 1 P
MEK 59.3 1 S
WMP 58.511 1 P
WMP 111.7 1 S
XJP 63.3131 1 P
XJP 108.3 1 S
YGD 44.9 1 P
YGD 74.9 1 S
YTS 24.8 1 P
YTS 41.5 1 S
YZP 34.7 1 P
YZP 60.1 1 S
ZJG 18.1 1 P
ZJG 30.4 1 S
# 2003 5 31 4 3 48.60 29.080 104.410 5.0 0 0 0 0 620206
EMS 24.4 1 P
EMS 40.7 1 S
GDS 48.1 1 P
GDS 79.7 1 S
HMS 12 1 P
HMS 20 1 S
HWS 11.9 1 P
HWS 19.8 1 S
JJS 37.3 1 P
JJS 62.2 1 S
LZZ 26.7 1 P
LZZ 44.7 1 S
MDS 33.91 1 P
WMP 17.7 1 P
WMP 29.6 1 S
XJP 33.7 1 P
XJP 56.1 1 S
YGD 25.2 1 P
YGD 42.2 1 S
YZP 39 1 P
YZP 64.7 1 S
ZJG 51.6 1 P
ZJG 85.9 1 S
# 2003 6 1 14 36 12.50 28.360 103.310 0.0 0 0 0 0 620207
JJS 43 1 P
MDS 29.47 1 P
YZP 39.5 1 P
# 2003 6 1 23 4 50.00 28.370 103.340 0.0 0 0 0 0 620208
EMS 20.8 1 P
EMS 33.6 1 S
GDS 40.53 1 P
HMS 24.5 1 P
HMS 40.6 1 S
HWS 21.9 1 P
HWS 36.2 1 S
JJS 45.7 1 P
JJS 79.5 1 S
LZZ 42.5 1 P
MDS 31.93 1 P
WMP 10.7 1 P
WMP 17.8 1 S
XJP 22.8 1 P
XJP 36.9 1 S
YGD 32.6 1 P
YGD 54.7 1 S
YZP 42 1 P
YZP 69.8 1 S
ZJG 55.7 1 P
# 2003 6 2 3 30 7.70 29.040 102.150 7.0 0 0 0 0 620209
EMS 23 1 P
EMS 38.8 1 S
GDS 19.6 1 P
GDS 33.4 1 S
HMS 36.6 1 P
HMS 61.8 1 S
HWS 41.3 1 P
HWS 69.2 1 S
JJS 47.7873 1 P
LZZ 54.5447 1 P
MDS 24.16 1 P
MEK 53.2 1 P
MEK 90.5 1 S
WMP 26.6 1 P
WMP 45.2 1 S
XJP 11.4 1 P
XJP 19.2 1 S
YGD 36.7 1 P
YGD 64.9 1 S
YZP 39.3 1 P
YZP 67.8 1 S
ZJG 56.1553 1 P
# 2003 6 2 23 4 9.20 28.360 103.390 5.0 0 0 0 0 620210
EMS 19.9 1 P
EMS 32.8 1 S
GDS 39.5 1 P
HMS 23.7 1 P
HMS 39.2 1 S
HWS 20.5 1 P
HWS 33.7 1 S
LZZ 40.25 1 P
MDS 30.69 1 P
MEK 60.6063 1 P
WMP 9.5 1 P
WMP 16.6 1 S
XJP 21.7 1 P
XJP 35.6 1 S
YGD 31.6 1 P
YGD 53 1 S
YZP 41.19 1 P
# 2003 6 3 23 9 21.30 28.060 104.420 0.0 0 0 0 0 620211
EMS 37.9 1 P
EMS 63 1 S
HMS 32 1 P
HMS 53.3 1 S
HWS 13.4 1 P
HWS 21.8 1 S
LZZ 37.5 1 P
LZZ 62.3 1 S
WMP 28.4 1 P
WMP 47.6 1 S
XJP 42.1 1 P
XJP 70.5 1 S
YGD 41.8 1 P
YGD 70.1 1 S
# 2003 6 9 0 8 26.90 27.530 102.240 5.0 0 0 0 0 620212
EMS 38.1 1 P
EMS 64 1 S
GDS 42.1 1 P
GDS 70.1 1 S
HMS 45.5 1 P
HMS 78.1 1 S
HWS 42.2 1 P
HWS 71.1 1 S
MDS 44.15 1 P
WMP 33.9 1 P
WMP 56.4 1 S
XJP 29.1 1 P
XJP 49.1 1 S
# 2003 6 11 10 11 53.60 28.400 103.380 0.0 0 0 0 0 620213
EMS 19.7 1 P
EMS 32.8 1 S
GDS 39 1 P
GDS 64.3 1 S
HMS 22.9 1 P
HMS 38.2 1 S
HWS 20.9 1 P
HWS 34 1 S
JJS 44.08 1 P
LZZ 40.3 1 P
MDS 30 1 P
WMP 8.9 1 P
WMP 14.8 1 S
XJP 21.2 1 P
XJP 34.3 1 S
YGD 30.6 1 P
YGD 52.5 1 S
YTS 67.02 1 P
# 2003 6 12 2 2 53.50 29.580 103.150 15.0 0 0 0 0 620214
EMS 11.3 1 P
EMS 17.3 1 S
GDS 22.1 1 P
GDS 36.4 1 S
HMS 21.5 1 P
HMS 36 1 S
HWS 34 1 P
HWS 58 1 S
JJS 30 1 P
JJS 50.7 1 S
LZZ 41.62 1 P
MDS 8.53 1 P
MEK 40.9 1 P
MEK 67.9 1 S
WMP 21.1 1 P
WMP 34.1 1 S
XJP 16.2 1 P
XJP 25.6 1 S
YGD 17.3 1 P
YGD 28 1 S
YZP 20.28 1 P
ZJG 39 1 P
# 2003 6 17 14 46 18.20 27.520 102.180 0.0 0 0 0 0 620215
EMS 40 1 P
EMS 65.9 1 S
GDS 43.3 1 P
GDS 72.1 1 S
HMS 47 1 P
HMS 81.5 1 S
HWS 45 1 P
HWS 73.9 1 S
JJS 64 1 P
JJS 119.2 1 S
LZZ 61.9 1 P
LZZ 117.7 1 S
MDS 44.81 1 P
MEK 69.95 1 P
WMP 36.1 1 P
WMP 59.8 1 S
XJP 31.2 1 P
XJP 50.9 1 S
YGD 51.2 1 P
YGD 92.3 1 S
YZP 57.3 1 P
YZP 102 1 S
ZJG 72.7632 1 P
# 2003 6 18 16 31 58.80 29.030 105.530 0.0 0 0 0 0 620216
EMS 41.1 1 P
EMS 69.4 1 S
HMS 30.2 1 P
HMS 48.7 1 S
HWS 22.9 1 P
HWS 37.8 1 S
JJS 43.7 1 P
JJS 73.2 1 S
LZZ 14.4 1 P
LZZ 23.7 1 S
MDS 49.3272 1 P
WMP 35.4 1 P
WMP 59.8 1 S
XJP 49.6 1 P
XJP 82.6 1 S
YGD 37.7 1 P
YGD 63.7 1 S
YZP 49.0826 1 P
ZJG 52.72 1 P
# 2003 6 23 7 8 39.60 28.280 104.480 0.0 0 0 0 0 620217
EMS 32.9 1 P
EMS 54.2 1 S
GDS 51.7 1 P
GDS 91.6 1 S
HMS 26 1 P
HMS 42.7 1 S
HWS 6.8 1 P
HWS 10.4 1 S
JJS 46.3041 1 P
MDS 41.96 1 P
WMP 23 1 P
WMP 37.4 1 S
XJP 37.9 1 P
XJP 64.6 1 S
YGD 36.8027 1 P
YGD 61.9 1 S
YZP 47.8 1 P
YZP 84.1 1 S
# 2003 6 25 13 43 41.30 27.390 102.440 0.0 0 0 0 0 620218
EMS 40.5 1 P
EMS 66.7 1 S
GDS 47.7 1 P
GDS 79.2 1 S
HMS 45.2 1 P
HWS 39.8 1 P
HWS 66.7 1 S
JJS 62.54 1 P
MDS 47.51 1 P
WMP 33.8 1 P
WMP 56.1 1 S
XJP 34.6 1 P
XJP 57.3 1 S
YGD 50.69 1 P
YZP 57.1608 1 P
ZJG 72.26 1 P
# 2003 7 10 1 33 56.60 27.470 102.280 5.0 0 0 0 0 620219
EMS 39.3 1 P
EMS 66.7 1 S
GDS 43.8 1 P
GDS 75.5 1 S
HMS 45.2 1 P
HMS 79.6 1 S
JJS 63.0345 1 P
LZZ 59.3 1 P
MDS 44.72 1 P
MEK 70.2919 1 P
WMP 34.9 1 P
WMP 60.1 1 S
XJP 30.7 1 P
XJP 52.1 1 S
YGD 53.2 1 P
YGD 92 1 S
YZP 56.3 1 P
ZJG 72.1311 1 P
# 2003 7 10 1 49 11.90 27.470 102.280 5.0 0 0 0 0 620220
EMS 39 1 P
EMS 66.5 1 S
GDS 43.4 1 P
GDS 73.4 1 S
HMS 45.5327 1 P
HMS 79 1 S
JJS 63.1 1 P
JJS 118.7 1 S
LZZ 113.1 1 S
MDS 44.7051 1 P
WMP 34.3 1 P
WMP 59.8 1 S
XJP 30.2 1 P
XJP 51.7 1 S
YGD 52.1 1 P
YGD 91 1 S
YZP 57 1 P
YZP 104.7 1 S
# 2003 7 10 3 5 32.90 34.070 104.480 6.0 0 0 0 0 620221
HMS 75.45 1 P
HWS 86.8202 1 P
JJS 55.8 1 P
JJS 105.9 1 S
LZZ 78.45 1 P
MDS 71.4092 1 P
XJP 82.96 1 P
YGD 64 1 P
YGD 130.1 1 S
YTS 37.4 1 P
YTS 64.1 1 S
YZP 59.3 1 P
YZP 116.1 1 S
ZJG 45 1 P
ZJG 80.7 1 S
# 2003 7 16 11 5 14.99 25.837 104.922 7.0 0 0 0 0 620222
EMS 76.8524 1 P
GDS 71.7756 1 P
JJS 98.7099 1 P
MDS 78.3657 1 P
YZP 163.068 1 S
# 2003 7 21 15 57 15.20 26.010 101.100 0.0 0 0 0 0 620223
HMS 75.3 1 P
HWS 69.4145 1 P
JJS 91.99 1 P
MDS 74.7269 1 P
WMP 68.3 1 P
WMP 113.3 1 S
XJP 64.7 1 P
XJP 110.8 1 S
YZP 84.3362 1 P
# 2003 7 22 0 9 34.87 26.271 101.300 8.0 0 0 0 0 620224
EMS 73.9233 1 P
EMS 124.176 1 S
GDS 73.0866 1 P
HMS 78.4429 1 P
HWS 71.6924 1 P
MDS 77.2254 1 P
MEK 98.0884 1 P
WMP 68.5077 1 P
XJP 66.6766 1 P
XJP 111.445 1 S
YGD 84.504 1 P
YZP 87.8164 1 P
ZJG 104.092 1 P
# 2003 7 23 4 42 16.73 26.153 100.522 7.0 0 0 0 0 620225
EMS 83.1346 1 P
EMS 131.971 1 S
GDS 139.505 1 S
HMS 88.9687 1 P
HWS 82.0702 1 P
JJS 103.712 1 P
MDS 87.2931 1 P
MEK 108.072 1 P
WMP 78.8031 1 P
YGD 92.9738 1 P
YTS 126.235 1 P
YZP 97.9174 1 P
ZJG 114.101 1 P
# 2003 7 23 6 46 28.07 26.313 101.573 5.0 0 0 0 0 620226
JJS 90.6125 1 P
MDS 75.1191 1 P
WMP 65.7159 1 P
XJP 64.6016 1 P
XJP 108.504 1 S
YZP 85.1296 1 P
# 2003 7 23 14 31 56.27 29.005 103.614 5.0 0 0 0 0 620227
JJS 46.4995 1 P
MDS 29.2125 1 P
XJP 18.612 1 P
YZP 40.6885 1 P
# 2003 7 23 23 52 31.95 25.400 105.142 10.0 0 0 0 0 620228
EMS 80.1312 1 P
EMS 134.61 1 S
JJS 100.725 1 P
MDS 83.372 1 P
WMP 74.6368 1 P
XJP 72.2047 1 P
YGD 89.0105 1 P
YGD 148.007 1 S
YTS 122.782 1 P
YZP 92.9188 1 P
YZP 178.82 1 S
ZJG 110.12 1 P
# 2003 7 24 4 37 12.21 25.685 102.336 13.0 0 0 0 0 620229
JJS 98.9937 1 P
JJS 167.41 1 S
MDS 81.6002 1 P
WMP 72.3122 1 P
XJP 71.5136 1 P
XJP 115.874 1 S
YZP 91.9953 1 P
YZP 176.366 1 S
ZJG 108.233 1 P
# 2003 7 25 13 30 40.00 33.370 104.450 4.0 0 0 0 0 620230
HMS 66.1297 1 P
JJS 46.6791 1 P
YTS 27.8 1 P
YTS 46.3 1 S
ZJG 35.98 1 P
# 2003 7 26 5 25 10.80 31.420 104.290 13.0 0 0 0 0 620231
MDS 39.157 1 P
# 2003 7 28 6 46 28.07 26.313 101.573 5.0 0 0 0 0 620232
# 2003 8 4 8 33 24.81 26.461 100.859 7.0 0 0 0 0 620233
HMS 79.9862 1 P
XJP 66.408 1 P
XJP 111.576 1 S
YZP 87.7705 1 P
ZJG 104.22 1 P
# 2003 8 5 12 49 4.40 25.590 101.110 0.0 0 0 0 0 620234
EMS 71 1 P
GDS 70 1 P
HMS 75.1 1 P
HWS 69.3 1 P
MDS 74.9 1 P
MEK 95.5608 1 P
WMP 66 1 P
XJP 63.5 1 P
YGD 80 1 P
YZP 84.7 1 P
# 2003 8 8 22 52 28.40 29.300 100.580 5.0 0 0 0 0 620235
GDS 21 1 P
MDS 38.6434 1 P
MEK 49.7051 1 P
XJP 31.4993 1 P
XJP 54.4 1 S
YGD 53.9581 1 P
YGD 90.2 1 S
# 2003 8 9 13 16 3.50 33.110 105.480 0.0 0 0 0 0 620236
JJS 46.7557 1 P
JJS 85.5 1 S
YTS 19.2 1 P
YTS 31.6 1 S
YZP 54.5 1 P
YZP 100.5 1 S
ZJG 36.9 1 P
ZJG 61.2 1 S
# 2003 8 11 22 41 15.64 29.678 101.880 10.0 0 0 0 0 620237
EMS 30.7973 1 P
GDS 17.3335 1 P
HMS 45.3006 1 P
HMS 74.4066 1 S
HWS 51.3755 1 P
HWS 88.0019 1 S
MDS 27.3918 1 P
MDS 45.9168 1 S
MEK 83.4919 1 S
XJP 19.4847 1 P
XJP 29.4795 1 S
YGD 42.9751 1 P
YGD 71.1468 1 S
YZP 43.2103 1 P
YZP 69.3202 1 S
# 2003 8 12 16 48 14.20 28.550 102.310 11.0 0 0 0 0 620238
EMS 21.5 1 P
EMS 35.5 1 S
GDS 23.9 1 P
GDS 39.8 1 S
HMS 33.7 1 P
HWS 35.5508 1 P
JJS 47.6 1 P
JJS 88.8 1 S
MDS 24.99 1 P
WMP 23 1 P
WMP 38.3 1 S
XJP 11.3 1 P
XJP 18.8 1 S
YGD 36 1 P
YGD 61.8 1 S
YZP 39.85 1 P
# 2003 8 18 10 0 14.90 26.010 101.100 5.0 0 0 0 0 620239
EMS 72.9663 1 P
GDS 71.8893 1 P
HMS 76.6023 1 P
HWS 70.7597 1 P
JJS 93.09 1 P
LZZ 89.0029 1 P
MDS 76.53 1 P
MEK 97.3049 1 P
WMP 66.89 1 P
XJP 65 1 P
XJP 114.1 1 S
YGD 81.7183 1 P
YZP 86.89 1 P
ZJG 102.304 1 P
# 2003 8 21 2 17 48.80 27.250 101.160 5.0 0 0 0 0 620240
EMS 54.95 1 P
GDS 50.5 1 P
HMS 61.69 1 P
HWS 58.6112 1 P
JJS 76.44 1 P
LZZ 76.7396 1 P
MDS 56.95 1 P
MEK 80.987 1 P
WMP 51.78 1 P
XJP 45.44 1 P
YGD 64.9356 1 P
YZP 67.6 1 P
ZJG 83.8243 1 P
# 2003 8 21 5 38 44.83 27.417 100.589 5.0 0 0 0 0 620241
EMS 65.3447 1 P
EMS 104.897 1 S
HMS 71.7537 1 P
HWS 69.0296 1 P
HWS 120.446 1 S
JJS 87.2809 1 P
JJS 159.95 1 S
MDS 67.7853 1 P
MDS 107.147 1 S
WMP 63.0058 1 P
WMP 100.477 1 S
XJP 56.1974 1 P
XJP 87.6391 1 S
YGD 75.5946 1 P
YTS 109.625 1 P
YZP 79.4147 1 P
ZJG 95.1001 1 P
# 2003 8 21 10 57 56.32 27.708 100.462 14.0 0 0 0 0 620242
EMS 107.399 1 S
HMS 74.2791 1 P
HWS 71.5347 1 P
HWS 120.306 1 S
JJS 89.3691 1 P
JJS 163.599 1 S
LZZ 89.1062 1 P
MDS 111.626 1 S
WMP 65.0889 1 P
WMP 104.022 1 S
XJP 92.2045 1 S
YGD 77.9058 1 P
YGD 134.985 1 S
YTS 111.846 1 P
YZP 81.8549 1 P
ZJG 96.7692 1 P
# 2003 8 21 15 20 20.95 27.800 101.004 5.0 0 0 0 0 620243
EMS 58.3618 1 P
HMS 65.1048 1 P
HWS 62.2271 1 P
JJS 79.893 1 P
LZZ 80.1911 1 P
MDS 60.0174 1 P
MDS 100.465 1 S
MEK 81.2895 1 P
WMP 55.1948 1 P
XJP 48.9249 1 P
XJP 82.6391 1 S
YGD 68.4981 1 P
YTS 101.309 1 P
YZP 70.8964 1 P
ZJG 88.2995 1 P
# 2003 8 23 11 28 50.48 28.444 99.807 5.0 0 0 0 0 620244
EMS 61.8642 1 P
EMS 100.319 1 S
MDS 61.8263 1 P
MDS 103.871 1 S
XJP 51.5062 1 P
XJP 84.3921 1 S
# 2003 8 24 11 39 50.70 29.200 104.020 4.0 0 0 0 0 620245
EMS 13.4 1 P
EMS 22.9 1 S
GDS 38.6 1 P
GDS 63.5 1 S
HMS 11.1 1 P
HMS 18.1 1 S
HWS 21.4 1 P
HWS 35.7 1 S
JJS 35.5 1 P
JJS 59.9 1 S
MDS 25.2609 1 P
WMP 8 1 P
WMP 13.4 1 S
XJP 22.8 1 P
XJP 38 1 S
YGD 20.4 1 P
YGD 33.5 1 S
YZP 32.9 1 P
YZP 54.6 1 S
ZJG 46.7 1 P
ZJG 78.1 1 S
# 2003 8 27 15 28 34.30 28.200 102.360 3.0 0 0 0 0 620246
EMS 29.9 1 P
EMS 50.1 1 S
GDS 35.9 1 P
GDS 59.7 1 S
HMS 38.9 1 P
HMS 65.1 1 S
HWS 37.1 1 P
HWS 61.4 1 S
JJS 55.1138 1 P
MDS 36.6832 1 P
WMP 26.6 1 P
WMP 43.1 1 S
XJP 22.6 1 P
XJP 36.3 1 S
YGD 44.8 1 P
YGD 74.2 1 S
YZP 49.2 1 P
YZP 82.5 1 S
# 2003 9 3 0 37 16.00 31.060 103.280 5.0 0 0 0 0 620247
EMS 33.4 1 P
EMS 55.3 1 S
HMS 35.6 1 P
HMS 59.5 1 S
HWS 49.87 1 P
MDS 25.4023 1 P
XJP 38.8 1 P
XJP 64.6 1 S
YGD 23.9 1 P
YGD 39.5 1 S
YZP 8.8 1 P
YZP 14.9 1 S
ZJG 27.7 1 P
ZJG 46 1 S
# 2003 9 5 4 23 57.70 32.550 104.380 10.0 0 0 0 0 620248
EMS 60.83 1 P
HMS 58.84 1 P
HWS 71.5079 1 P
MDS 55.8895 1 P
WMP 66.972 1 P
YGD 51.4 1 P
YGD 85.2 1 S
YTS 21.3 1 P
YTS 35.2 1 S
YZP 71 1 S
# 2003 9 15 9 18 59.30 31.080 103.250 0.0 0 0 0 0 620249
EMS 30.9 1 P
EMS 51.1 1 S
GDS 34.7 1 P
GDS 57.2 1 S
HMS 33.9 1 P
HMS 56 1 S
HWS 47.8189 1 P
HWS 82.5 1 S
JJS 20.2 1 P
JJS 33.2 1 S
MDS 24.19 1 P
MEK 29.6 1 P
MEK 49 1 S
WMP 39.2 1 P
WMP 64.7 1 S
XJP 37.26 1 P
YGD 22.4 1 P
YGD 37 1 S
YZP 6.8 1 P
YZP 10.9 1 S
ZJG 26 1 P
ZJG 42.9 1 S
# 2003 9 15 15 51 30.30 33.320 104.410 0.0 0 0 0 0 620250
YTS 33.9 1 P
YTS 56 1 S
# 2003 9 16 8 0 37.60 29.290 100.580 0.0 0 0 0 0 620251
EMS 42.1 1 P
EMS 69.7 1 S
GDS 21.4 1 P
HMS 53.9 1 P
HMS 95.1 1 S
HWS 58.3 1 P
HWS 108.8 1 S
JJS 59.2 1 P
LZZ 72.1529 1 P
LZZ 143 1 S
MDS 37.53 1 P
MEK 49.5 1 P
MEK 85.7 1 S
WMP 48 1 P
WMP 83.1 1 S
XJP 31.6 1 P
XJP 52.5 1 S
YGD 51.7 1 P
YGD 90.9 1 S
YTS 80.4706 1 P
YZP 49.9 1 P
YZP 87.2 1 S
ZJG 65.4 1 P
ZJG 126 1 S
# 2003 9 16 17 9 40.70 29.160 102.160 0.0 0 0 0 0 620252
EMS 21.4 1 P
EMS 35.8 1 S
GDS 16.9 1 P
GDS 28.3 1 S
HMS 36.1 1 P
HMS 60.2 1 S
HWS 41 1 P
HWS 72.3 1 S
JJS 46.7 1 P
JJS 83.1 1 S
LZZ 55.7 1 P
LZZ 103.8 1 S
MDS 21.8 1 P
MEK 50.32 1 P
WMP 26 1 P
WMP 43.1 1 S
XJP 9.8 1 P
XJP 16.4 1 S
YGD 36.1 1 P
YGD 60.2 1 S
YZP 37.3 1 P
YZP 63.8 1 S
ZJG 54.7 1 P
ZJG 103.6 1 S
# 2003 9 19 1 12 8.40 29.390 103.220 5.0 0 0 0 0 620253
EMS 3.9 1 P
EMS 6.1 1 S
GDS 24.3 1 P
GDS 40.7 1 S
HMS 17.6 1 P
HMS 29.8 1 S
HWS 30.6 1 P
HWS 51.2 1 S
JJS 31.9 1 P
JJS 55.2 1 S
LZZ 42.2 1 P
LZZ 69.7 1 S
MDS 10.88 1 P
WMP 14.1 1 P
WMP 24 1 S
XJP 12.5 1 P
XJP 20.7 1 S
YGD 17.3 1 P
YGD 28.9 1 S
YZP 23.91 1 P
ZJG 41.53 1 P
# 2003 9 20 5 13 16.00 27.550 99.300 0.0 0 0 0 0 620254
GDS 57.5 1 P
GDS 102.6 1 S
HMS 76.1 1 P
HMS 148.3 1 S
HWS 76.8308 1 P
LZZ 93.3049 1 P
MDS 65.9728 1 P
MEK 77.6608 1 P
WMP 67.3 1 P
WMP 127.6 1 S
XJP 57.7 1 P
XJP 103.9 1 S
YGD 88.6703 1 P
YZP 75.5713 1 P
# 2003 9 28 16 39 8.50 29.300 100.590 0.0 0 0 0 0 620255
GDS 20.4 1 P
HMS 54.1 1 P
HMS 95.7 1 S
MEK 49.44 1 P
WMP 47.3705 1 P
XJP 30.91 1 P
# 2003 10 9 9 41 24.00 29.010 102.130 0.0 0 0 0 0 620256
EMS 23.7 1 P
EMS 39.5 1 S
GDS 20.5 1 P
GDS 34.2 1 S
HMS 37.7 1 P
HMS 62.8 1 S
HWS 41.8 1 P
HWS 69.5 1 S
JJS 48.6 1 P
JJS 84.5 1 S
LZZ 55.3927 1 P
MDS 22.24 1 P
MEK 53.6908 1 P
MEK 91.5 1 S
WMP 26.4 1 P
WMP 44.2 1 S
XJP 9.5441 1 P
XJP 19.8 1 S
YGD 37.9099 1 P
YGD 64.1 1 S
YTS 71.1807 1 P
YZP 40.1387 1 P
YZP 69.2 1 S
ZJG 56.8883 1 P
# 2003 10 10 22 7 0.20 28.180 104.000 5.0 0 0 0 0 620257
EMS 26.8 1 P
EMS 44.4 1 S
GDS 45.15 1 P
HMS 26.7 1 P
HMS 44.1 1 S
HWS 14.5 1 P
HWS 24 1 S
JJS 48.7 1 P
LZZ 38.29 1 P
MDS 37.2 1 P
XJP 29.63 1 P
YGD 35.7784 1 P
YZP 44.7937 1 P
ZJG 57.9135 1 P
