# 2001 03 28 18 55 37.00 31.2667 103.883 1.000 1.4 0 0 0 2082
WCH 7.6 0.5 P
WCH 13 0.5 S
MXI 9.2 0.5 P
YZP 11.2 1 P
YZP 18 1 S
# 2001 03 28 21 11 26.60 31.7333 104.233 0.000 1.7 0 0 0 2084
MXI 8.1 0.5 P
MXI 13.1 0.5 S
WCH 12.6 0.5 P
WCH 20.8 0.5 S
YZP 23.4 1 P
YZP 38.8 1 S
# 2001 03 28 23 54 22.70 29.1167 101.833 4.000 2.3 0 0 0 2088
JLO 7.5 0.5 P
JLO 12.3 0.5 S
SMI 8.6 0.5 P
SMI 14.6 0.5 S
GZA 18.5 0.5 P
GZA 30.3 0.5 S
# 2001 03 29 22 49 47.60 29.15 101.917 0.000 2.9 0 0 0 2116
GZA 18 0.5 P
GZA 30.2 0.5 S
XJI 35.3 0.5 P
XJI 58.5 0.5 S
SMI 8.8 0.5 P
SMI 14.8 0.5 S
# 2001 03 29 23 51 14.60 29.1833 101.883 1.000 1.5 0 0 0 2119
JLO 7.4 0.5 P
JLO 12.3 0.5 S
SMI 8.9 0.5 P
SMI 14.6 0.5 S
# 2001 03 29 23 52 15.50 29.15 101.933 0.000 1.4 0 0 0 2120
SMI 14.5 0.5 S
JLO 7.6 0.5 P
JLO 12.6 0.5 S
# 2001 03 29 23 55 33.00 29.1833 101.867 0.000 1.3 0 0 0 2121
JLO 7.5 0.5 P
JLO 12.4 0.5 S
SMI 8.6 0.5 P
SMI 14.4 0.5 S
# 2001 03 30 04 50 36.80 29.2333 101.9 0.000 1.4 0 0 0 2133
JLO 7.5 0.5 P
JLO 12.5 0.5 S
SMI 8.4 0.5 P
SMI 14.2 0.5 S
# 2001 03 30 10 28 13.20 29.4667 101.083 5.000 2.7 0 0 0 2135
JLO 12.8 0.5 P
JLO 21 0.5 S
GZA 23.2 0.5 P
GZA 39.2 0.5 S
SMI 24.5 0.5 P
SMI 40.1 0.5 S
DFU 27 0.5 P
DFU 44.8 0.5 S
# 2001 03 30 14 57 26.30 29.1833 101.867 3.000 1.5 0 0 0 2137
JLO 7.2 0.5 P
JLO 12.1 0.5 S
SMI 8.5 0.5 P
SMI 14.3 0.5 S
# 2001 03 30 15 38 13.90 29.4833 101.05 3.000 2.8 0 0 0 2138
JLO 13.1 0.5 P
JLO 21.4 0.5 S
GZA 23.7 0.5 P
GZA 39.9 0.5 S
SMI 24.5 0.5 P
SMI 40.1 0.5 S
DFU 27.3 0.5 P
DFU 45.7 0.5 S
# 2001 03 30 19 26 28.20 29.4667 101.05 16.000 3.0 0 0 0 2143
XJI 37 0.5 P
XJI 61.4 0.5 S
JLO 12.5 0.5 P
JLO 20.5 0.5 S
GZA 23.6 0.5 P
GZA 38.9 0.5 S
SMI 24.2 0.5 P
SMI 40 0.5 S
DFU 27.2 0.5 P
DFU 45.4 0.5 S
# 2001 03 31 20 26 31.40 29.1667 101.933 0.000 1.5 0 0 0 2163
JLO 8.3 0.5 P
JLO 13.2 0.5 S
# 2001 03 31 23 22 22.20 29.5333 103.333 15.000 1.9 0 0 0 2165
EMS 7 1 S
WMP 12.4 1 P
WMP 20.8 1 S
SMI 18 0.5 P
SMI 29.8 0.5 S
GZA 22.4 0.5 P
GZA 37.2 0.5 S
YZP 26.6 1 P
YZP 43.8 1 S
XJI 32.9 0.5 P
XJI 53.4 0.5 S
XJI 32.9 0.5 P
XJI 53.4 0.5 S
# 2001 04 01 03 23 39.30 29.45 101.083 0.000 2.2 0 0 0 2168
DFU 28.7 0.5 P
DFU 47.7 0.5 S
JLO 11 0.5 P
JLO 17.7 0.5 S
# 2001 04 01 16 37 38.70 31.65 102.367 5.000 1.8 0 0 0 2185
MEK 5.1 1 P
MEK 8.7 1 S
XJI 12.2 0.5 P
XJI 19.8 0.5 S
# 2001 04 02 01 50 2.00 29.4667 101.05 13.000 2.6 0 0 0 2199
JLO 13 0.5 P
JLO 21.1 0.5 S
GZA 24.3 0.5 P
GZA 40.2 0.5 S
SMI 24.4 0.5 P
SMI 41.6 0.5 S
DFU 29.2 0.5 P
DFU 48.6 0.5 S
# 2001 04 02 11 26 46.90 29.2333 101.917 0.000 1.7 0 0 0 2211
GZA 29.7 0.5 S
JLO 7.4 0.5 P
JLO 12.2 0.5 S
# 2001 04 02 12 33 18.30 29.1667 101.917 0.000 1.6 0 0 0 2213
JLO 8.3 0.5 P
JLO 13 0.5 S
# 2001 04 02 20 57 5.90 32.0667 101.267 0.000 2.5 0 0 0 2223
MEK 18 1 P
MEK 29.6 1 S
DFU 25.1 0.5 P
DFU 42.1 0.5 S
XJI 30.3 0.5 P
XJI 50.1 0.5 S
# 2001 04 03 21 35 25.90 29.4333 101.15 12.000 2.7 0 0 0 2238
JLO 11.2 0.5 P
JLO 18 0.5 S
SMI 22.6 0.5 P
SMI 36.7 0.5 S
GZA 22.7 0.5 P
GZA 37.7 0.5 S
DFU 29.5 0.5 P
DFU 49.3 0.5 S
# 2001 04 03 21 51 12.00 29.4167 101.117 0.000 2.3 0 0 0 2239
JLO 11.3 0.5 P
JLO 18.3 0.5 S
GZA 23 0.5 P
GZA 38 0.5 S
# 2001 04 04 03 38 27.70 32.8167 104.017 0.000 2.4 0 0 0 2241
MEK 36.3 1 P
MEK 59.4 1 S
# 2001 04 04 04 20 10.90 31.5833 104.017 5.000 2.2 0 0 0 2244
MXI 5.1 0.5 P
MXI 8.3 0.5 S
WCH 8.7 0.5 P
WCH 13.9 0.5 S
YZP 18.1 1 P
YZP 30.1 1 S
XJI 29.8 0.5 P
XJI 49.1 0.5 S
MEK 30.3 1 P
MEK 50.4 1 S
# 2001 04 04 09 20 16.80 29.4167 101.05 17.000 2.9 0 0 0 2248
JLO 12.4 0.5 P
JLO 20.3 0.5 S
SMI 23.2 0.5 P
SMI 38.2 0.5 S
GZA 23.8 0.5 P
GZA 38.8 0.5 S
DFU 29.4 0.5 P
DFU 49 0.5 S
# 2001 04 04 12 21 28.10 28.2333 104.917 6.000 2.8 0 0 0 2253
EMS 62 1 S
LBO 27.5 0.5 P
LBO 45.1 0.5 S
WMP 27.6 1 P
WMP 46 1 S
# 2001 04 04 18 55 26.90 29.4833 101.05 0.000 3.4 0 0 0 2257
JLO 12.9 0.5 P
JLO 21.4 0.5 S
GZA 23.9 0.5 P
GZA 39.9 0.5 S
SMI 24.1 0.5 P
SMI 39.7 0.5 S
DFU 28.7 0.5 P
DFU 47.1 0.5 S
# 2001 04 04 22 11 17.20 30.4833 101.517 4.000 1.8 0 0 0 2260
DFU 10.8 0.5 P
DFU 18.3 0.5 S
GZA 13.6 0.5 P
GZA 22.8 0.5 S
XJI 16.7 0.5 P
XJI 27.8 0.5 S
# 2001 04 05 09 04 24.40 29.4667 101.15 10.000 2.3 0 0 0 2264
JLO 10.7 0.5 P
JLO 17.7 0.5 S
GZA 22.6 0.5 P
GZA 37.6 0.5 S
DFU 30.6 0.5 P
DFU 50.6 0.5 S
# 2001 04 06 02 30 12.60 29.4833 101.033 0.000 2.3 0 0 0 2275
JLO 12.9 0.5 P
JLO 20.8 0.5 S
GZA 23.5 0.5 P
GZA 38.8 0.5 S
DFU 28.3 0.5 P
DFU 47.4 0.5 S
# 2001 04 06 13 02 7.80 29.4833 101.083 0.000 3.4 0 0 0 2286
JLO 12.5 0.5 P
JLO 20.2 0.5 S
GZA 23.6 0.5 P
GZA 38.6 0.5 S
SMI 24.2 0.5 P
SMI 40 0.5 S
DFU 28.4 0.5 P
DFU 47.2 0.5 S
XJI 36.5 0.5 P
XJI 61.7 0.5 S
MEK 48.5 1 P
WCH 53.2 0.5 P
# 2001 04 07 00 16 14.50 29.1833 101.95 0.000 1.5 0 0 0 2299
JLO 7.5 0.5 P
JLO 12.3 0.5 S
SMI 8.5 0.5 P
SMI 14.5 0.5 S
GZA 18.1 0.5 P
GZA 30.3 0.5 S
# 2001 04 07 00 37 51.40 30.4833 101.583 6.000 2.3 0 0 0 2301
GZA 12.2 0.5 P
GZA 20.4 0.5 S
DFU 13 0.5 P
DFU 22 0.5 S
XJI 16.6 0.5 P
XJI 27.6 0.5 S
MEK 29.8 1 P
MEK 48.9 1 S
# 2001 04 07 09 45 25.50 29.15 101.917 0.000 1.3 0 0 0 2309
JLO 8 0.5 P
JLO 12.9 0.5 S
# 2001 04 07 11 24 7.90 29.2 101.917 7.000 1.7 0 0 0 2315
JLO 7.7 0.5 P
JLO 13.2 0.5 S
SMI 8.3 0.5 P
SMI 14.7 0.5 S
# 2001 04 07 18 15 56.60 30.3833 102.733 8.000 1.8 0 0 0 2318
GZA 9.4 0.5 P
GZA 15.6 0.5 S
XJI 14.2 0.5 P
XJI 23.3 0.5 S
YZP 18.9 1 P
YZP 31.4 1 S
# 2001 04 07 19 51 13.20 29.95 103.183 0.000 1.9 0 0 0 2322
EMS 17.7 1 S
GZA 18.6 0.5 P
GZA 31.4 0.5 S
YZP 20.3 1 P
YZP 33.5 1 S
WMP 20.3 1 P
WMP 33.5 1 S
XJI 25.4 0.5 P
XJI 42.6 0.5 S
# 2001 04 07 20 34 24.80 29.6667 102.633 12.000 2.0 0 0 0 2323
SMI 10.8 0.5 P
SMI 17.8 0.5 S
GZA 11 0.5 P
GZA 18 0.5 S
JLO 23.4 0.5 P
JLO 38.4 0.5 S
WMP 24 1 P
WMP 39.9 1 S
YZP 28.7 1 P
YZP 47.7 1 S
# 2001 04 07 22 36 39.00 29.4667 101.05 0.000 2.5 0 0 0 2329
JLO 13.2 0.5 P
JLO 21.5 0.5 S
GZA 23.4 0.5 P
GZA 38.4 0.5 S
SMI 24 0.5 P
SMI 40 0.5 S
DFU 28.3 0.5 P
DFU 47 0.5 S
# 2001 04 07 23 46 29.00 29.4667 101.067 12.000 2.7 0 0 0 2330
JLO 12.7 0.5 P
JLO 20.7 0.5 S
GZA 23 0.5 P
GZA 38 0.5 S
SMI 23.2 0.5 P
SMI 39.2 0.5 S
DFU 28.3 0.5 P
DFU 46.8 0.5 S
# 2001 04 07 23 59 43.30 29.45 101.067 16.000 3.3 0 0 0 2331
JLO 14.3 0.5 P
# 2001 04 08 02 22 17.10 29.4667 101.083 17.000 2.8 0 0 0 2336
JLO 13.2 0.5 P
JLO 21.5 0.5 S
SMI 22.9 0.5 P
SMI 38.8 0.5 S
GZA 23.3 0.5 P
GZA 38.3 0.5 S
DFU 28.6 0.5 P
DFU 47.3 0.5 S
# 2001 04 08 05 21 41.40 29.5 101.05 14.000 2.5 0 0 0 2338
JLO 12.5 0.5 P
JLO 20.3 0.5 S
GZA 23.3 0.5 P
GZA 38.6 0.5 S
SMI 23.6 0.5 P
SMI 39.6 0.5 S
DFU 29.3 0.5 P
DFU 48.4 0.5 S
# 2001 04 08 06 23 0.40 32.1333 103.617 5.000 2.0 0 0 0 2339
MXI 12.2 0.5 P
MXI 19.8 0.5 S
WCH 14.6 0.5 P
WCH 24.1 0.5 S
MEK 22.1 1 P
MEK 36.5 1 S
XJI 30.4 0.5 P
XJI 50.1 0.5 S
# 2001 04 08 08 33 4.00 29.4667 101.1 5.000 2.3 0 0 0 2341
JLO 13.2 0.5 P
JLO 21.6 0.5 S
GZA 23.1 0.5 P
GZA 38.4 0.5 S
SMI 23.7 0.5 P
SMI 39.5 0.5 S
# 2001 04 08 10 58 39.50 29.1833 101.883 0.000 1.6 0 0 0 2347
JLO 7.7 0.5 P
JLO 12.5 0.5 S
SMI 8.8 0.5 P
SMI 14.6 0.5 S
GZA 18.3 0.5 P
GZA 30.1 0.5 S
# 2001 04 08 14 09 35.90 28.9833 102.467 13.000 1.6 0 0 0 2351
SMI 6.4 0.5 P
SMI 10.4 0.5 S
JLO 16.3 0.5 P
JLO 27 0.5 S
# 2001 04 09 01 56 51.30 29.7 102.083 0.000 1.9 0 0 0 2367
GZA 8.1 0.5 P
GZA 13.9 0.5 S
SMI 10.9 0.5 P
SMI 17.7 0.5 S
JLO 15.7 0.5 P
JLO 26.2 0.5 S
XJI 24.7 0.5 P
XJI 40.9 0.5 S
# 2001 04 09 02 30 55.60 29.6333 102.083 6.000 1.6 0 0 0 2370
GZA 8.4 0.5 P
GZA 14.2 0.5 S
SMI 10.9 0.5 P
SMI 17.9 0.5 S
JLO 15.9 0.5 P
JLO 26.4 0.5 S
# 2001 04 09 04 22 7.60 29.15 103.6 5.000 2.0 0 0 0 2373
WMP 4.1 1 P
WMP 6.9 1 S
EMS 17.4 1 S
LBO 17.9 0.5 P
LBO 29.8 0.5 S
GZA 30.7 0.5 P
GZA 50.8 0.5 S
# 2001 04 09 10 38 44.90 29.1833 101.917 8.000 1.0 0 0 0 2377
JLO 9.1 0.5 P
JLO 14.4 0.5 S
# 2001 04 09 11 14 26.70 29.4667 101.15 4.000 2.1 0 0 0 2379
JLO 11.7 0.5 P
JLO 19.3 0.5 S
GZA 22.9 0.5 P
GZA 37.9 0.5 S
# 2001 04 09 14 35 11.90 29.5 103.467 13.000 2.1 0 0 0 2381
EMS 8.8 1 S
WMP 11.1 1 P
WMP 18.4 1 S
SMI 20.9 0.5 P
SMI 34.9 0.5 S
GZA 27.1 0.5 P
GZA 44.9 0.5 S
YZP 29.1 1 P
YZP 48.1 1 S
# 2001 04 09 16 52 47.10 31.3833 104.067 0.000 1.3 0 0 0 2383
MXI 6.9 0.5 P
MXI 11.4 0.5 S
WCH 9.4 0.5 P
WCH 15.4 0.5 S
# 2001 04 10 04 53 8.70 29.1833 101.9 0.000 1.3 0 0 0 2391
JLO 8 0.5 P
JLO 12.8 0.5 S
SMI 8.8 0.5 P
SMI 14.8 0.5 S
# 2001 04 10 14 35 3.00 29.4833 101.1 12.000 2.5 0 0 0 2398
JLO 13.1 0.5 P
JLO 21.1 0.5 S
GZA 23 0.5 P
GZA 38 0.5 S
# 2001 04 10 18 58 27.10 31.5333 102.333 7.000 2.1 0 0 0 2402
MEK 5.2 1 P
MEK 8.9 1 S
XJI 11.3 0.5 P
XJI 18.5 0.5 S
DFU 23.9 0.5 P
DFU 39.9 0.5 S
# 2001 04 10 19 29 52.80 30.8167 103.117 18.000 2.8 0 0 0 2403
YZP 9.1 1 P
YZP 15.2 1 S
XJI 14.1 0.5 P
XJI 22.8 0.5 S
WCH 14.4 0.5 P
WCH 24.2 0.5 S
MXI 19.4 0.5 P
MXI 32.2 0.5 S
GZA 21.8 0.5 P
GZA 35.9 0.5 S
MEK 24.7 1 P
MEK 41 1 S
EMS 44.2 1 S
SMI 33.4 0.5 P
SMI 56 0.5 S
WMP 35.5 1 P
WMP 58.9 1 S
# 2001 04 11 03 01 38.90 28.25 104.883 0.000 1.8 0 0 0 2411
LBO 24.1 0.5 P
LBO 40.1 0.5 S
WMP 25.3 1 P
WMP 41.4 1 S
# 2001 04 11 06 55 49.20 29.4833 101.133 12.000 2.5 0 0 0 2415
JLO 12.2 0.5 P
JLO 20.1 0.5 S
GZA 23 0.5 P
GZA 37.6 0.5 S
DFU 28.4 0.5 P
DFU 49.8 0.5 S
# 2001 04 11 07 40 7.70 29.1667 101.9 1.000 1.5 0 0 0 2417
JLO 7.9 0.5 P
JLO 12.6 0.5 S
SMI 9.1 0.5 P
SMI 14.7 0.5 S
# 2001 04 11 10 22 56.70 30 101.75 0.000 2.2 0 0 0 2421
GZA 13.6 0.5 P
JLO 17.9 0.5 P
JLO 30 0.5 S
XJI 26.4 0.5 P
XJI 44.4 0.5 S
# 2001 04 11 12 47 57.10 32.0667 105.167 0.000 2.1 0 0 0 2425
WCH 50.1 0.5 S
MXI 25.9 0.5 P
MXI 43.3 0.5 S
# 2001 04 11 13 53 8.90 29.7833 102.367 5.000 1.1 0 0 0 2426
GZA 7.9 0.5 P
GZA 13.3 0.5 S
SMI 13 0.5 P
SMI 21.1 0.5 S
# 2001 04 11 13 57 1.80 28.2833 104.933 0.000 2.2 0 0 0 2427
LBO 26.6 0.5 P
LBO 44.2 0.5 S
WMP 26.9 1 P
WMP 45.1 1 S
# 2001 04 11 17 16 58.50 31.1333 103.6 5.000 2.0 0 0 0 2432
YZP 6.3 1 P
YZP 10.7 1 S
WCH 7.5 0.5 P
WCH 12.5 0.5 S
MXI 11.9 0.5 P
MXI 19.4 0.5 S
XJI 21.8 0.5 P
XJI 35.5 0.5 S
MEK 30.5 1 P
MEK 49.9 1 S
# 2001 04 11 18 30 18.60 31.3333 103.867 8.000 1.9 0 0 0 2434
WCH 6.6 0.5 P
WCH 11 0.5 S
MXI 7.8 0.5 P
MXI 13.1 0.5 S
YZP 12.8 1 P
YZP 20.8 1 S
XJI 26.7 0.5 P
XJI 43.8 0.5 S
# 2001 04 11 19 05 55.70 31.8 104.117 0.000 1.4 0 0 0 2435
MXI 8.2 0.5 P
MXI 13.9 0.5 S
WCH 11.8 0.5 P
WCH 19.7 0.5 S
YZP 25.1 1 P
# 2001 04 12 07 46 21.50 30.6167 103.7 0.000 1.4 0 0 0 2446
YZP 6.4 1 P
YZP 10.9 1 S
# 2001 04 13 09 28 57.10 31.5 104.067 7.000 1.4 0 0 0 2456
MXI 7.9 0.5 P
MXI 12.7 0.5 S
WCH 9.7 0.5 P
WCH 16.3 0.5 S
YZP 17.5 1 P
YZP 28.9 1 S
# 2001 04 13 12 54 12.50 29.85 101.767 0.000 1.0 0 0 0 2460
XJI 42.9 0.5 S
GZA 13.7 0.5 P
GZA 22.7 0.5 S
SMI 19.1 0.5 P
SMI 31.7 0.5 S
# 2001 04 13 14 21 22.80 30.7333 103.483 5.000 1.6 0 0 0 2463
YZP 6.4 1 P
YZP 10.8 1 S
WCH 15.6 0.5 P
WCH 25.8 0.5 S
XJI 20.6 0.5 P
XJI 33.6 0.5 S
# 2001 04 13 16 12 51.10 32.0333 105.133 5.000 2.2 0 0 0 2467
MXI 22.9 0.5 P
MXI 38.3 0.5 S
WCH 28.9 0.5 P
WCH 47.7 0.5 S
YZP 36.1 1 P
YZP 60.3 1 S
# 2001 04 13 17 41 13.50 29.7833 102.333 9.000 2.0 0 0 0 2472
GZA 8.1 0.5 P
GZA 13.3 0.5 S
SMI 12.1 0.5 P
SMI 20.5 0.5 S
XJI 24.4 0.5 P
XJI 39.9 0.5 S
YZP 31.3 1 P
YZP 51.8 1 S
# 2001 04 14 04 32 48.90 32.1833 103.767 1.000 1.8 0 0 0 2485
MXI 12.7 0.5 P
MXI 20.5 0.5 S
WCH 16.5 0.5 P
WCH 26.3 0.5 S
XJI 34.3 0.5 P
XJI 56.7 0.5 S
# 2001 04 14 11 29 43.40 30.0167 102.85 5.000 2.1 0 0 0 2491
SMI 18.6 0.5 P
SMI 30.9 0.5 S
XJI 21 0.5 P
XJI 34.6 0.5 S
YZP 21.4 1 P
YZP 35.6 1 S
WMP 25.5 1 P
WMP 42.4 1 S
JLO 30.5 0.5 P
JLO 50.8 0.5 S
GZA 13.2 0.5 P
GZA 21.4 0.5 S
EMS 25.6 1 S
# 2001 04 14 13 39 22.10 31.2667 103.933 10.000 1.3 0 0 0 2494
MXI 6.7 0.5 P
MXI 11.1 0.5 S
WCH 9.9 0.5 P
WCH 15.9 0.5 S
YZP 13.1 1 P
YZP 21.1 1 S
# 2001 04 14 14 58 58.70 31.6833 104.483 2.000 1.7 0 0 0 2495
WCH 15.3 0.5 P
WCH 25.3 0.5 S
YZP 25.9 1 P
YZP 42.3 1 S
# 2001 04 15 06 44 47.70 29.2 101.883 0.000 1.7 0 0 0 2505
GZA 18.3 0.5 P
GZA 30.5 0.5 S
JLO 7.5 0.5 P
JLO 12.3 0.5 S
SMI 8.9 0.5 P
SMI 14.9 0.5 S
# 2001 04 15 20 21 49.40 31.2167 103.917 8.000 1.4 0 0 0 2516
YZP 12 1 P
YZP 20 1 S
MXI 12.4 0.5 P
MXI 20.4 0.5 S
WCH 10.2 0.5 P
WCH 16.6 0.5 S
# 2001 04 15 23 01 38.10 31.8167 102.933 7.000 1.8 0 0 0 2518
YZP 23.1 1 P
YZP 37.7 1 S
MEK 11 1 P
MEK 18 1 S
WCH 13.7 0.5 P
WCH 22.9 0.5 S
MXI 16.3 0.5 P
MXI 26.9 0.5 S
XJI 19.1 0.5 P
XJI 31 0.5 S
# 2001 04 16 03 34 12.50 28.1667 104.967 3.000 2.3 0 0 0 2522
LBO 26.7 0.5 P
LBO 44.5 0.5 S
WMP 28.3 1 P
WMP 47.1 1 S
# 2001 04 16 09 02 25.80 31.1833 103.733 12.000 1.5 0 0 0 2526
WCH 8.6 0.5 P
WCH 14 0.5 S
YZP 9.1 1 P
YZP 16 1 S
MXI 12 0.5 P
MXI 19.7 0.5 S
# 2001 04 16 14 47 14.90 29.4833 102.1 13.000 1.5 0 0 0 2536
SMI 8.3 0.5 P
SMI 12.1 0.5 S
GZA 10.5 0.5 P
GZA 17.3 0.5 S
JLO 14 0.5 P
JLO 22.3 0.5 S
# 2001 04 17 22 15 44.60 30.6167 102.417 7.000 1.7 0 0 0 2562
YZP 20.4 1 P
YZP 34.2 1 S
DFU 23.2 0.5 P
DFU 38.4 0.5 S
MEK 24.8 1 P
MEK 41.5 1 S
XJI 8.2 0.5 P
XJI 13 0.5 S
GZA 10.4 0.5 P
GZA 17.4 0.5 S
# 2001 04 18 08 36 37.30 30.0167 101.817 5.000 2.5 0 0 0 2566
XJI 22.8 0.5 P
XJI 37.7 0.5 S
GZA 9 0.5 P
GZA 14.7 0.5 S
SMI 18.8 0.5 P
SMI 31.3 0.5 S
JLO 19.1 0.5 P
JLO 31.7 0.5 S
DFU 21.3 0.5 P
DFU 35.8 0.5 S
# 2001 04 18 21 25 16.30 27.2667 103.133 5.000 1.9 0 0 0 2580
LBO 20.3 0.5 P
LBO 33.1 0.5 S
# 2001 04 18 22 56 3.90 31.2 103.917 12.000 1.5 0 0 0 2582
WCH 9.1 0.5 P
WCH 15.4 0.5 S
MXI 11.3 0.5 P
MXI 18.1 0.5 S
# 2001 04 19 12 22 7.30 31.8667 100.883 3.000 2.1 0 0 0 2591
DFU 18.3 0.5 P
DFU 30.7 0.5 S
MEK 24.2 1 P
MEK 39.6 1 S
XJI 31.3 0.5 P
XJI 52 0.5 S
# 2001 04 19 12 55 47.60 31.6667 102.283 0.000 3.8 0 0 0 2593
WCH 19 0.5 P
WCH 31.4 0.5 S
MXI 22.4 0.5 P
DFU 22.9 0.5 P
DFU 38.6 0.5 S
YZP 23.4 1 P
GZA 26.9 0.5 P
GZA 47.4 0.5 S
SMI 42.9 0.5 P
MEK 5.2 1 P
XJI 11.2 0.5 P
# 2001 04 19 18 48 58.60 31.2167 103.833 8.000 1.7 0 0 0 2600
WCH 9.6 0.5 P
WCH 15.6 0.5 S
YZP 11.4 1 P
YZP 19.3 1 S
MXI 11.8 0.5 P
MXI 19.2 0.5 S
# 2001 04 19 18 50 12.00 30.6833 102.733 9.000 1.7 0 0 0 2601
GZA 27 0.5 S
XJI 12.2 0.5 P
XJI 20.6 0.5 S
YZP 15.3 1 P
YZP 25.1 1 S
WCH 23.2 0.5 P
WCH 38.2 0.5 S
MEK 26 1 P
MEK 43.4 1 S
# 2001 04 20 03 38 47.50 29.2333 102.267 0.000 2.0 0 0 0 2609
JLO 16.1 0.5 P
JLO 26.3 0.5 S
GZA 19.3 0.5 P
GZA 31.5 0.5 S
EMS 33.4 1 S
SMI 4.5 0.5 P
SMI 7.2 0.5 S
# 2001 04 20 04 19 15.00 32.5 102.033 0.000 3.6 0 0 0 2610
MEK 13.2 1 P
MEK 22 1 S
XJI 30 0.5 P
XJI 51 0.5 S
WCH 32.6 0.5 P
WCH 54.2 0.5 S
MXI 33.1 0.5 P
DFU 33.2 0.5 P
GZA 45 0.5 P
# 2001 04 20 16 01 9.20 29.7333 102.317 8.000 1.6 0 0 0 2622
GZA 8.2 0.5 P
GZA 13.6 0.5 S
SMI 12.5 0.5 P
SMI 20.4 0.5 S
JLO 22.9 0.5 P
JLO 38.4 0.5 S
# 2001 04 20 17 39 44.70 29.5667 102.05 0.000 1.7 0 0 0 2624
SMI 10.5 0.5 P
SMI 17.3 0.5 S
GZA 10.5 0.5 P
GZA 17.5 0.5 S
JLO 14.1 0.5 P
JLO 22.5 0.5 S
# 2001 04 20 17 46 24.40 29.5333 102.083 5.000 1.7 0 0 0 2626
SMI 8.6 0.5 P
SMI 14.6 0.5 S
GZA 10.6 0.5 P
GZA 17.6 0.5 S
JLO 14 0.5 P
JLO 22.4 0.5 S
# 2001 04 20 18 58 57.70 31.1667 104.117 10.000 1.7 0 0 0 2627
WCH 10.1 0.5 P
WCH 16.3 0.5 S
YZP 12.7 1 P
YZP 21.4 1 S
# 2001 04 21 02 38 56.80 31.5833 103.267 0.000 2.0 0 0 0 2632
WCH 7.4 0.5 P
WCH 12.2 0.5 S
MXI 11.1 0.5 P
MXI 18.6 0.5 S
YZP 16.2 1 P
YZP 26.5 1 S
MEK 16.6 1 P
MEK 27.4 1 S
# 2001 04 21 14 09 49.30 29.2333 101.933 0.000 2.1 0 0 0 2647
JLO 6.7 0.5 P
JLO 11.5 0.5 S
# 2001 04 21 14 53 28.40 30.4167 101.633 8.000 1.9 0 0 0 2652
GZA 12.4 0.5 P
GZA 20.4 0.5 S
DFU 12.8 0.5 P
DFU 21.8 0.5 S
XJI 17.1 0.5 P
XJI 28.3 0.5 S
# 2001 04 22 03 20 10.30 31.5 104.083 11.000 1.3 0 0 0 2662
MXI 7.5 0.5 P
MXI 12.3 0.5 S
WCH 9.7 0.5 P
WCH 15.7 0.5 S
# 2001 04 22 04 46 1.20 29.2667 101.967 0.000 2.0 0 0 0 2663
JLO 7.6 0.5 P
JLO 12.4 0.5 S
SMI 8.8 0.5 P
SMI 15 0.5 S
GZA 18 0.5 P
GZA 30 0.5 S
# 2001 04 22 12 28 42.10 27.7333 100.783 0.000 2.3 0 0 0 2676
JLO 28.9 0.5 P
JLO 47.4 0.5 S
# 2001 04 23 10 54 50.80 32.0667 104.1 3.000 2.0 0 0 0 2703
MXI 12.3 0.5 P
MXI 19.4 0.5 S
WCH 17.7 0.5 P
WCH 28.2 0.5 S
YZP 27.7 1 P
# 2001 04 23 11 26 5.90 29.45 101.1 9.000 2.9 0 0 0 2704
JLO 11.9 0.5 P
JLO 19.7 0.5 S
SMI 22.9 0.5 P
SMI 38.1 0.5 S
GZA 23.1 0.5 P
GZA 38.5 0.5 S
DFU 29.4 0.5 P
DFU 49.2 0.5 S
# 2001 04 23 16 16 57.40 29.2167 101.917 0.000 1.8 0 0 0 2710
JLO 7.2 0.5 P
JLO 11.8 0.5 S
# 2001 04 23 22 33 31.80 32.1167 103.633 0.000 1.8 0 0 0 2715
WCH 23 0.5 S
# 2001 04 24 05 20 21.60 31.4167 103.85 0.000 1.8 0 0 0 2725
WCH 6.4 0.5 P
WCH 10.4 0.5 S
MXI 6.4 0.5 P
MXI 10.4 0.5 S
YZP 14.2 1 P
YZP 24 1 S
# 2001 04 24 14 32 59.50 29.7333 103 0.000 2.0 0 0 0 2735
EMS 15.1 1 S
YZP 26.9 1 P
YZP 43.9 1 S
# 2001 04 24 22 49 36.40 28.4667 104.833 0.000 2.5 0 0 0 2751
LBO 26 0.5 P
LBO 42.6 0.5 S
# 2001 04 25 05 59 10.90 31.5167 104.117 0.000 1.4 0 0 0 2758
MXI 6.5 0.5 P
MXI 10.9 0.5 S
# 2001 04 25 11 01 18.90 29.75 102.967 5.000 2.2 0 0 0 2759
WMP 31.6 1 S
GZA 14.8 0.5 P
GZA 24.1 0.5 S
YZP 25.2 1 P
YZP 43.3 1 S
XJI 27 0.5 P
XJI 43 0.5 S
JLO 28.3 0.5 P
JLO 47.7 0.5 S
# 2001 04 25 23 46 21.60 30.3333 102.233 0.000 1.9 0 0 0 2780
GZA 2.8 0.5 P
GZA 4 0.5 S
XJI 15.6 0.5 P
XJI 25.8 0.5 S
DFU 22.4 0.5 P
DFU 37 0.5 S
MEK 31.5 1 P
MEK 53.7 1 S
# 2001 04 27 14 39 56.90 31.3333 100.933 0.000 3.9 0 0 0 2817
DFU 7.9 0.5 P
XJI 25.7 0.5 P
MEK 25.8 1 P
MEK 40.2 1 S
GZA 32.7 0.5 P
GZA 53.3 0.5 S
YZP 42.2 1 P
WCH 42.9 0.5 P
# 2001 04 28 14 38 17.80 30.8167 103.55 0.000 2.4 0 0 0 2836
YZP 3.5 1 P
YZP 5.2 1 S
WCH 15.7 0.5 P
WCH 26 0.5 S
WMP 35.3 1 P
WMP 58.1 1 S
# 2001 04 28 15 16 3.30 30.7167 103.483 0.000 3.0 0 0 0 2838
YZP 3.4 1 P
YZP 6.7 1 S
WCH 15.3 0.5 P
WCH 25.3 0.5 S
XJI 20.6 0.5 P
XJI 34.1 0.5 S
MXI 23.2 0.5 P
MXI 37.6 0.5 S
GZA 26.3 0.5 P
GZA 43.3 0.5 S
MEK 31.3 1 P
MEK 51.7 1 S
# 2001 04 28 19 17 26.70 29.65 101.95 9.000 1.9 0 0 0 2847
GZA 9.7 0.5 P
GZA 16.3 0.5 S
JLO 14.1 0.5 P
JLO 23.5 0.5 S
# 2001 04 28 21 30 45.10 29.5667 102.033 13.000 1.6 0 0 0 2850
GZA 9.7 0.5 P
GZA 16.3 0.5 S
JLO 14.1 0.5 P
JLO 23.9 0.5 S
# 2001 04 29 09 07 22.30 28.1833 103.417 5.000 2.3 0 0 0 2862
LBO 6.1 0.5 P
LBO 9.6 0.5 S
WMP 22 1 P
WMP 35.5 1 S
# 2001 04 30 08 40 35.40 30.2167 102.833 12.000 2.0 0 0 0 2888
WCH 45.6 0.5 S
MEK 35.7 1 P
MEK 60.1 1 S
GZA 12 0.5 P
GZA 20 0.5 S
EMS 29.1 1 S
YZP 18.7 1 P
YZP 30.3 1 S
XJI 18.7 0.5 P
XJI 30.5 0.5 S
# 2001 04 30 16 14 7.80 31.5833 104.15 9.000 2.2 0 0 0 2899
MXI 8.6 0.5 P
MXI 14.4 0.5 S
WCH 12 0.5 P
WCH 19.6 0.5 S
# 2001 04 30 20 44 48.10 30.9167 103.383 0.000 2.0 0 0 0 2903
WCH 12.1 0.5 P
WCH 20.3 0.5 S
XJI 18.2 0.5 P
XJI 30.7 0.5 S
MXI 20.4 0.5 P
MXI 34.4 0.5 S
MEK 27.3 1 P
MEK 46.3 1 S
EMS 44 1 S
GZA 27.9 0.5 P
GZA 46.7 0.5 S
YZP 2.3 1 P
YZP 5.5 1 S
# 2001 05 01 20 04 50.60 28.2 103.433 12.000 2.2 0 0 0 2923
LBO 5.6 0.5 P
LBO 8.4 0.5 S
# 2001 05 01 22 10 37.10 32.0833 102.583 6.000 1.7 0 0 0 2926
XJI 23 0.5 P
XJI 37.9 0.5 S
MEK 7.4 1 P
MEK 12.8 1 S
# 2001 05 02 09 47 8.90 29.4333 101.067 0.000 2.3 0 0 0 2935
JLO 11.9 0.5 P
JLO 19.7 0.5 S
SMI 23.1 0.5 P
SMI 38.1 0.5 S
GZA 23.3 0.5 P
GZA 38.7 0.5 S
# 2001 05 02 12 35 21.50 31.6167 104.133 5.000 1.4 0 0 0 2937
MXI 6.4 0.5 P
MXI 11.3 0.5 S
WCH 9.9 0.5 P
WCH 16.5 0.5 S
# 2001 05 02 18 32 17.60 28.2 103.417 8.000 2.5 0 0 0 2947
LBO 4.8 0.5 P
LBO 7.6 0.5 S
WMP 20.5 1 P
WMP 33.3 1 S
# 2001 05 03 03 04 43.90 29.3667 101 0.000 1.9 0 0 0 2952
GZA 25.1 0.5 P
GZA 41.7 0.5 S
SMI 25.1 0.5 P
SMI 41.7 0.5 S
JLO 13.2 0.5 P
JLO 21.7 0.5 S
# 2001 05 03 05 41 12.00 29.5333 101.95 3.000 1.7 0 0 0 2956
GZA 10 0.5 P
GZA 16.6 0.5 S
SMI 11.2 0.5 P
SMI 18.6 0.5 S
JLO 15 0.5 P
JLO 24.5 0.5 S
# 2001 05 03 11 32 4.60 31.9333 102.717 8.000 1.8 0 0 0 2963
MEK 7.9 1 P
MEK 12.6 1 S
WCH 18.4 0.5 P
WCH 30.4 0.5 S
XJI 20 0.5 P
XJI 33.4 0.5 S
# 2001 05 03 12 43 30.30 28.1833 103.433 0.000 2.5 0 0 0 2966
LBO 4 0.5 P
LBO 6.1 0.5 S
# 2001 05 03 19 31 54.60 28.1833 103.433 0.000 2.4 0 0 0 2973
LBO 4 0.5 P
LBO 6.1 0.5 S
# 2001 05 04 12 59 12.70 32 103.633 0.000 1.5 0 0 0 2983
MXI 8.1 0.5 P
MXI 13.7 0.5 S
WCH 11.5 0.5 P
WCH 18.7 0.5 S
# 2001 05 04 17 25 21.20 28.4833 101.983 10.000 1.8 0 0 0 2990
JLO 14.6 0.5 P
JLO 23.6 0.5 S
SMI 16.8 0.5 P
SMI 28 0.5 S
# 2001 05 04 23 16 54.10 31.4333 103.917 5.000 2.3 0 0 0 2999
MXI 6.9 0.5 P
MXI 10.4 0.5 S
WCH 7.7 0.5 P
WCH 11.9 0.5 S
YZP 14.9 1 P
YZP 25.3 1 S
XJI 28.7 0.5 P
XJI 46.4 0.5 S
MEK 30.8 1 P
MEK 51.1 1 S
# 2001 05 05 07 09 26.90 28.2 103.433 5.000 1.9 0 0 0 3008
LBO 4.1 0.5 P
LBO 6.3 0.5 S
WMP 19.3 1 P
WMP 32.4 1 S
