# 2001 07 26 02 25 7.70 27.6167 100.883 0.000 4.2 0 0 0 5165
WCH 76.3 0.5 P
MEK 79.3 1 P
JLO 29.9 0.5 P
JLO 49.1 0.5 S
GZA 52.2 0.5 P
# 2001 07 26 03 43 28.20 29.4167 101.083 0.000 2.1 0 0 0 5167
JLO 10.2 0.5 P
JLO 17.2 0.5 S
GZA 22 0.5 P
GZA 36.8 0.5 S
DFU 30.4 0.5 P
DFU 50.4 0.5 S
# 2001 07 26 12 08 37.30 27.6833 100.85 7.000 3.0 0 0 0 5180
JLO 29.7 0.5 P
JLO 48.9 0.5 S
# 2001 07 26 17 18 58.80 30.7 102.833 10.000 1.9 0 0 0 5190
WCH 34.2 0.5 S
XJI 13.3 0.5 P
XJI 21.4 0.5 S
YZP 14.8 1 P
YZP 24.6 1 S
GZA 17.8 0.5 P
GZA 29 0.5 S
# 2001 07 26 18 21 33.90 29.4333 101.067 0.000 3.2 0 0 0 5191
DFU 29.8 0.5 P
DFU 49.9 0.5 S
JLO 10.9 0.5 P
JLO 18.1 0.5 S
GZA 22.7 0.5 P
GZA 37.1 0.5 S
SMI 22.9 0.5 P
SMI 37.5 0.5 S
# 2001 07 26 19 13 59.40 29.4167 101.1 0.000 2.1 0 0 0 5198
JLO 10.8 0.5 P
JLO 18.2 0.5 S
SMI 22.2 0.5 P
SMI 36.6 0.5 S
GZA 22.6 0.5 P
GZA 37.3 0.5 S
# 2001 07 27 00 54 41.10 32.0333 101.833 0.000 1.5 0 0 0 5201
MEK 8.4 1 P
MEK 14.3 1 S
# 2001 07 27 01 55 11.00 27.6333 101.017 0.000 3.1 0 0 0 5202
JLO 28.8 0.5 P
JLO 48.8 0.5 S
# 2001 07 27 02 24 50.30 27.6333 101.017 9.000 2.5 0 0 0 5203
JLO 29.9 0.5 P
JLO 49.7 0.5 S
# 2001 07 27 02 27 15.60 27.6 101.117 8.000 3.4 0 0 0 5204
JLO 29 0.5 P
JLO 48.2 0.5 S
# 2001 07 27 03 27 19.00 28.8 103.583 14.000 3.4 0 0 0 5208
WMP 4.9 1 P
WMP 9.3 1 S
LBO 10 0.5 P
LBO 18.6 0.5 S
EMS 24.8 1 S
SMI 22 0.5 P
SMI 37.2 0.5 S
GZA 32.4 0.5 P
GZA 57.2 0.5 S
# 2001 07 27 09 18 27.40 27.6167 101.1 9.000 2.3 0 0 0 5213
JLO 29.2 0.5 P
JLO 48.6 0.5 S
# 2001 07 27 21 29 22.60 31.4667 104.067 7.000 0.9 0 0 0 5219
MXI 5.2 0.5 P
MXI 8.8 0.5 S
WCH 6.8 0.5 P
WCH 11.3 0.5 S
# 2001 07 28 01 08 4.10 32.2333 103.817 13.000 1.5 0 0 0 5222
WCH 24.9 0.5 S
MXI 12.5 0.5 P
MXI 20.2 0.5 S
# 2001 07 29 01 28 50.70 29.4333 101.1 0.000 2.5 0 0 0 5245
JLO 11.1 0.5 P
JLO 18.1 0.5 S
GZA 22.8 0.5 P
GZA 37.7 0.5 S
DFU 30 0.5 P
DFU 50.1 0.5 S
XJI 36.8 0.5 P
XJI 63.6 0.5 S
# 2001 07 29 01 45 33.70 31.2333 103.3 11.000 1.8 0 0 0 5246
XJI 27.2 0.5 S
WCH 7.3 0.5 P
WCH 12.1 0.5 S
YZP 8.9 1 P
YZP 15 1 S
MXI 12.5 0.5 P
MXI 20.9 0.5 S
# 2001 07 29 08 24 3.10 31.9 103.433 4.000 2.5 0 0 0 5255
MXI 9.1 0.5 P
MXI 15.2 0.5 S
WCH 9.5 0.5 P
WCH 15.9 0.5 S
MEK 17.7 1 P
MEK 29.7 1 S
YZP 21.1 1 P
YZP 35.5 1 S
XJI 23.9 0.5 P
XJI 40.2 0.5 S
# 2001 07 29 09 22 10.90 31.2167 103.3 8.000 3.1 0 0 0 5257
WCH 8.1 0.5 P
WCH 13.1 0.5 S
YZP 9.4 1 P
YZP 15.5 1 S
MXI 12.9 0.5 P
MXI 21.3 0.5 S
XJI 17.5 0.5 P
XJI 28.1 0.5 S
MEK 22.9 1 P
MEK 37.3 1 S
GZA 27.6 0.5 P
GZA 46.3 0.5 S
DFU 36.7 0.5 P
DFU 61.4 0.5 S
# 2001 07 29 16 54 40.90 31.4667 104.05 1.000 1.6 0 0 0 5267
MXI 6 0.5 P
MXI 10 0.5 S
WCH 6.1 0.5 P
WCH 10.3 0.5 S
# 2001 07 30 01 26 54.50 30.25 103.217 0.000 1.8 0 0 0 5274
EMS 24.8 1 S
YZP 14.9 1 P
YZP 24.6 1 S
GZA 18.2 0.5 P
GZA 29.7 0.5 S
XJI 20.9 0.5 P
XJI 34.3 0.5 S
# 2001 07 30 02 59 20.60 31.8833 101.533 8.000 1.9 0 0 0 5276
MEK 11.8 1 P
MEK 19.7 1 S
DFU 21.5 0.5 P
DFU 35.4 0.5 S
XJI 24 0.5 P
XJI 39.6 0.5 S
# 2001 07 30 04 53 35.20 31.6667 101.35 0.000 2.2 0 0 0 5279
DFU 14.8 0.5 P
DFU 24.1 0.5 S
MEK 15.6 1 P
MEK 25.4 1 S
XJI 21.4 0.5 P
XJI 36.2 0.5 S
# 2001 07 30 20 30 47.60 30.8333 100.033 3.000 2.2 0 0 0 5287
DFU 20.2 0.5 P
DFU 33.4 0.5 S
GZA 38.5 0.5 P
GZA 63.9 0.5 S
# 2001 07 31 03 47 25.30 29.1333 103.567 9.000 2.6 0 0 0 5291
WMP 3.8 1 P
WMP 7.1 1 S
EMS 17.1 1 S
LBO 17.7 0.5 P
LBO 29 0.5 S
SMI 20.7 0.5 P
SMI 33.7 0.5 S
GZA 29.9 0.5 P
GZA 49.7 0.5 S
YZP 33.3 1 P
YZP 57.7 1 S
# 2001 07 31 11 18 9.90 30.0167 103.083 0.000 2.2 0 0 0 5299
EMS 19.1 1 S
GZA 16.7 0.5 P
GZA 27.5 0.5 S
YZP 20.7 1 P
YZP 33.7 1 S
WMP 21.8 1 P
WMP 36.5 1 S
XJI 23.4 0.5 P
XJI 38.8 0.5 S
WCH 29.1 0.5 P
WCH 48.3 0.5 S
# 2001 07 31 15 40 59.50 29.9833 103.217 12.000 2.0 0 0 0 5304
EMS 17.1 1 S
GZA 16.7 0.5 P
GZA 28.5 0.5 S
YZP 20.1 1 P
YZP 33.5 1 S
XJI 24 0.5 P
XJI 39.7 0.5 S
# 2001 08 01 12 01 17.50 29.8167 102.317 15.000 2.1 0 0 0 5314
GZA 7.7 0.5 P
GZA 12.5 0.5 S
SMI 12 0.5 P
SMI 19.5 0.5 S
XJI 22.8 0.5 P
XJI 38.3 0.5 S
# 2001 08 01 14 46 8.20 27.1833 103.117 0.000 2.2 0 0 0 5317
LBO 23.6 0.5 P
LBO 38.8 0.5 S
WMP 38.8 1 P
WMP 64.7 1 S
SMI 41.3 0.5 P
SMI 72 0.5 S
# 2001 08 01 20 49 27.80 28.4167 104.767 7.000 2.3 0 0 0 5319
LBO 24.2 0.5 P
WMP 24.8 1 P
WMP 41.4 1 S
# 2001 08 02 10 58 17.10 31.9833 105.233 5.000 1.8 0 0 0 5323
MXI 26.4 0.5 P
MXI 43.9 0.5 S
WCH 31.4 0.5 P
WCH 51.9 0.5 S
# 2001 08 02 14 48 8.20 31.2 103.767 11.000 1.8 0 0 0 5328
WCH 8.6 0.5 P
WCH 14 0.5 S
MXI 12.8 0.5 P
MXI 20.8 0.5 S
XJI 23.6 0.5 P
XJI 39.4 0.5 S
GZA 34.6 0.5 P
GZA 59 0.5 S
# 2001 08 02 16 47 25.30 31.4667 103.1 0.000 1.9 0 0 0 5332
WCH 10.1 0.5 P
WCH 16.7 0.5 S
MEK 14.9 1 P
MEK 24.7 1 S
XJI 15.1 0.5 P
XJI 24.6 0.5 S
MXI 15.9 0.5 P
MXI 24.7 0.5 S
# 2001 08 02 22 48 3.10 31.9333 104.333 10.000 2.2 0 0 0 5336
MXI 10.8 0.5 P
MXI 18.1 0.5 S
WCH 15.5 0.5 P
WCH 26.1 0.5 S
# 2001 08 03 03 02 52.90 32.0833 101.033 8.000 2.0 0 0 0 5338
MEK 20.7 1 P
MEK 34.4 1 S
DFU 22.1 0.5 P
DFU 37.1 0.5 S
# 2001 08 04 08 17 4.60 27.6833 100.767 15.000 2.6 0 0 0 5358
SMI 40.6 0.5 P
SMI 67.4 0.5 S
# 2001 08 04 09 38 57.30 31.1833 103.85 5.000 1.6 0 0 0 5361
WCH 9.7 0.5 P
WCH 16.7 0.5 S
MXI 11.7 0.5 P
MXI 20.1 0.5 S
# 2001 08 05 11 05 7.30 29.9667 103.133 13.000 2.0 0 0 0 5387
EMS 19.6 1 S
GZA 16.5 0.5 P
GZA 27.5 0.5 S
SMI 20.2 0.5 P
SMI 33.7 0.5 S
XJI 22.8 0.5 P
XJI 37.8 0.5 S
# 2001 08 05 13 59 22.70 29.4333 101.033 0.000 3.0 0 0 0 5388
JLO 9.9 0.5 P
JLO 16.8 0.5 S
SMI 21.3 0.5 P
SMI 35.3 0.5 S
GZA 21.3 0.5 P
GZA 35.3 0.5 S
DFU 28.3 0.5 P
DFU 46.5 0.5 S
# 2001 08 05 20 34 43.20 30.65 102.8 13.000 1.8 0 0 0 5394
WCH 21.8 0.5 P
WCH 36.2 0.5 S
MXI 29 0.5 P
MXI 47.8 0.5 S
XJI 12.1 0.5 P
XJI 20 0.5 S
YZP 14.7 1 P
YZP 24.5 1 S
GZA 15.8 0.5 P
GZA 26.8 0.5 S
# 2001 08 06 02 34 55.00 31.6 103.067 5.000 2.5 0 0 0 5407
WCH 9.1 0.5 P
WCH 15 0.5 S
MXI 13 0.5 P
MXI 22 0.5 S
MEK 15.6 1 P
MEK 25.7 1 S
YZP 16.7 1 P
YZP 28.5 1 S
XJI 17 0.5 P
XJI 27.6 0.5 S
GZA 31.4 0.5 P
GZA 52.5 0.5 S
DFU 35 0.5 P
DFU 58 0.5 S
# 2001 08 06 18 46 38.40 29.2167 101.867 5.000 1.4 0 0 0 5412
JLO 7.2 0.5 P
JLO 11.5 0.5 S
GZA 18.6 0.5 P
GZA 30.6 0.5 S
# 2001 08 07 06 37 3.20 29.9333 101.817 8.000 2.4 0 0 0 5420
GZA 9.1 0.5 P
GZA 14.8 0.5 S
SMI 18.6 0.5 P
SMI 30.9 0.5 S
JLO 19 0.5 P
JLO 31.8 0.5 S
DFU 21.5 0.5 P
DFU 35.8 0.5 S
XJI 22.8 0.5 P
XJI 37.6 0.5 S
# 2001 08 07 07 19 51.40 32.2 103.55 0.000 1.9 0 0 0 5421
MXI 12.3 0.5 P
MXI 20.2 0.5 S
# 2001 08 08 13 08 35.10 31.1833 103.883 9.000 1.6 0 0 0 5440
WCH 9.7 0.5 P
WCH 16.5 0.5 S
YZP 12.7 1 P
YZP 20.9 1 S
# 2001 08 08 19 31 38.90 31.4667 104.083 5.000 1.1 0 0 0 5444
MXI 5.1 0.5 P
MXI 8.5 0.5 S
WCH 8.1 0.5 P
WCH 13.6 0.5 S
# 2001 08 08 21 12 57.10 32.0333 102.933 8.000 1.9 0 0 0 5447
MEK 11.2 1 P
MEK 18.3 1 S
WCH 17.9 0.5 P
WCH 29.6 0.5 S
MXI 18.5 0.5 P
MXI 30.9 0.5 S
# 2001 08 08 21 36 10.80 29.1 102.233 9.000 1.5 0 0 0 5448
SMI 5.6 0.5 P
SMI 9 0.5 S
JLO 14.7 0.5 P
JLO 24.5 0.5 S
GZA 20.2 0.5 P
GZA 33.2 0.5 S
# 2001 08 09 09 12 37.80 27.85 101.067 0.000 2.0 0 0 0 5456
JLO 23.2 0.5 P
JLO 38 0.5 S
SMI 34.5 0.5 P
SMI 59.7 0.5 S
# 2001 08 09 15 50 18.50 30.35 103.333 0.000 2.6 0 0 0 5461
YZP 13.3 1 P
YZP 22.1 1 S
EMS 29.1 1 S
GZA 20.5 0.5 P
GZA 33.5 0.5 S
WCH 23.3 0.5 P
WCH 38.5 0.5 S
MXI 27.8 0.5 P
MXI 46.1 0.5 S
WMP 28 1 P
WMP 47.1 1 S
SMI 28.3 0.5 P
SMI 47.1 0.5 S
# 2001 08 09 16 16 41.80 31.5 104.067 9.000 2.6 0 0 0 5462
MXI 9 0.5 P
MXI 13.8 0.5 S
WCH 11 0.5 P
WCH 18 0.5 S
YZP 17.9 1 P
YZP 30.2 1 S
# 2001 08 10 15 26 30.30 27.6833 100.883 0.000 4.3 0 0 0 5486
JLO 27.7 0.5 P
JLO 46.1 0.5 S
SMI 38.1 0.5 P
LBO 45.7 0.5 P
GZA 48.5 0.5 P
WCH 72.7 0.5 P
MEK 76.7 1 P
# 2001 08 10 15 31 11.00 27.6833 100.9 0.000 4.1 0 0 0 5487
JLO 28.5 0.5 P
JLO 47.5 0.5 S
SMI 38.8 0.5 P
SMI 68 0.5 S
GZA 49 0.5 P
MEK 79.5 1 P
# 2001 08 10 16 16 20.30 27.6667 100.917 0.000 3.9 0 0 0 5496
JLO 28.7 0.5 P
JLO 47.2 0.5 S
SMI 38.8 0.5 P
SMI 67.5 0.5 S
GZA 49.5 0.5 P
WCH 74.2 0.5 P
MEK 76.7 1 P
# 2001 08 11 02 03 46.00 27.6833 100.883 15.000 2.9 0 0 0 5514
JLO 28.2 0.5 P
JLO 46.2 0.5 S
# 2001 08 11 02 35 17.30 28.9667 101.883 5.000 1.8 0 0 0 5516
JLO 7.1 0.5 P
JLO 11.7 0.5 S
SMI 9.4 0.5 P
SMI 15.7 0.5 S
# 2001 08 11 02 53 38.00 28.0833 103.967 11.000 2.1 0 0 0 5517
LBO 8.4 0.5 P
LBO 13.7 0.5 S
WMP 20.3 1 P
WMP 33.2 1 S
# 2001 08 11 20 01 11.70 31.4667 104.067 7.000 1.8 0 0 0 5543
WCH 11.3 0.5 P
WCH 17.9 0.5 S
YZP 18.8 1 P
# 2001 08 12 05 48 15.90 27.6667 100.917 18.000 2.8 0 0 0 5559
JLO 28.7 0.5 P
JLO 50.1 0.5 S
# 2001 08 12 06 38 30.90 27.6667 100.867 0.000 2.1 0 0 0 5561
JLO 29.2 0.5 P
JLO 47.8 0.5 S
# 2001 08 12 15 34 7.00 27.6667 100.867 0.000 2.3 0 0 0 5571
JLO 30 0.5 P
JLO 50 0.5 S
# 2001 08 12 16 47 49.00 27.6833 100.817 0.000 2.3 0 0 0 5573
JLO 29 0.5 P
JLO 47.6 0.5 S
# 2001 08 13 04 32 1.30 31.5 104.4 8.000 1.7 0 0 0 5592
MXI 9.7 0.5 P
MXI 16.3 0.5 S
WCH 12.7 0.5 P
WCH 21.3 0.5 S
YZP 19.3 1 P
YZP 31.6 1 S
# 2001 08 13 13 52 5.40 28.4667 103.367 11.000 2.3 0 0 0 5605
LBO 7.8 0.5 P
LBO 12 0.5 S
WMP 15.1 1 P
WMP 24.8 1 S
EMS 40.7 1 S
SMI 25.1 0.5 P
SMI 41 0.5 S
JLO 36.6 0.5 P
JLO 58.1 0.5 S
GZA 39 0.5 P
# 2001 08 13 15 36 49.50 31.3333 103.8 9.000 1.7 0 0 0 5607
YZP 12.6 1 P
YZP 20 1 S
WCH 5.9 0.5 P
WCH 9.3 0.5 S
MXI 8.2 0.5 P
MXI 12.7 0.5 S
# 2001 08 14 02 48 42.90 30.4833 101.8 10.000 2.3 0 0 0 5614
XJI 17.2 0.5 P
XJI 28 0.5 S
JLO 27.7 0.5 P
JLO 46.5 0.5 S
MEK 29.3 1 P
MEK 49.1 1 S
GZA 12.1 0.5 P
GZA 19.7 0.5 S
DFU 13 0.5 P
DFU 22.3 0.5 S
# 2001 08 14 10 21 47.90 30.05 102 9.000 1.7 0 0 0 5623
XJI 18.3 0.5 P
XJI 30.9 0.5 S
JLO 22.3 0.5 P
JLO 37.6 0.5 S
GZA 4.3 0.5 P
GZA 7.1 0.5 S
# 2001 08 15 14 57 3.80 31.5833 103.083 10.000 1.8 0 0 0 5655
WCH 8.8 0.5 P
WCH 14.4 0.5 S
MXI 12.8 0.5 P
MXI 21.4 0.5 S
MEK 15.4 1 P
MEK 25 1 S
XJI 16.6 0.5 P
XJI 27.5 0.5 S
# 2001 08 16 15 14 41.60 28.4667 104.817 0.000 2.3 0 0 0 5679
WMP 24 1 P
WMP 39.6 1 S
LBO 26.4 0.5 P
# 2001 08 17 06 34 18.70 31.15 103.9 7.000 1.9 0 0 0 5699
WCH 9.5 0.5 P
WCH 15.5 0.5 S
MXI 11.4 0.5 P
MXI 18.8 0.5 S
YZP 11.4 1 P
YZP 19.1 1 S
# 2001 08 17 10 01 10.10 31.1667 103.917 5.000 2.2 0 0 0 5702
WCH 10.4 0.5 P
WCH 17.6 0.5 S
YZP 12.1 1 P
YZP 19.8 1 S
MXI 12.3 0.5 P
MXI 20.7 0.5 S
# 2001 08 17 20 43 57.60 32.25 103.8 5.000 1.5 0 0 0 5714
MXI 13.8 0.5 P
MXI 22.4 0.5 S
# 2001 08 17 23 41 23.10 27.65 100.917 13.000 2.9 0 0 0 5718
JLO 29.5 0.5 P
JLO 48.7 0.5 S
# 2001 08 18 12 33 48.40 31.45 104.033 9.000 1.7 0 0 0 5726
MXI 5.3 0.5 P
MXI 8.6 0.5 S
WCH 6.4 0.5 P
WCH 10.6 0.5 S
# 2001 08 19 06 20 8.40 27.6833 100.833 0.000 2.2 0 0 0 5741
JLO 28.6 0.5 P
JLO 47.6 0.5 S
# 2001 08 19 06 55 57.60 30.4167 101.717 0.000 1.5 0 0 0 5743
GZA 11.9 0.5 P
GZA 19.6 0.5 S
DFU 13.3 0.5 P
DFU 22.4 0.5 S
XJI 17 0.5 P
XJI 27.9 0.5 S
# 2001 08 19 10 47 5.40 31.2167 103.283 9.000 2.3 0 0 0 5748
WCH 6.8 0.5 P
WCH 11.4 0.5 S
YZP 8.6 1 P
YZP 14.4 1 S
MXI 12.4 0.5 P
MXI 20.7 0.5 S
XJI 16.6 0.5 P
XJI 26.9 0.5 S
MEK 22.1 1 P
MEK 36.6 1 S
GZA 27.5 0.5 P
GZA 45.5 0.5 S
EMS 52 1 S
# 2001 08 19 11 05 20.90 31.25 103.333 0.000 1.7 0 0 0 5749
WCH 6.9 0.5 P
WCH 11.1 0.5 S
YZP 8.6 1 P
YZP 14.5 1 S
MXI 12.3 0.5 P
MXI 20.4 0.5 S
XJI 16.4 0.5 P
XJI 26.8 0.5 S
# 2001 08 19 22 42 59.30 31.5833 103.067 1.000 1.7 0 0 0 5754
WCH 8.8 0.5 P
WCH 14.5 0.5 S
MXI 13.1 0.5 P
MXI 21.5 0.5 S
MEK 15.3 1 P
MEK 25 1 S
XJI 16.9 0.5 P
XJI 27.9 0.5 S
# 2001 08 19 23 27 41.50 31.9667 102.933 10.000 2.7 0 0 0 5755
XJI 21.3 0.5 P
XJI 34.9 0.5 S
YZP 24.4 1 P
YZP 40.8 1 S
MEK 12 1 P
MEK 19.5 1 S
WCH 15.1 0.5 P
WCH 24.7 0.5 S
MXI 16.3 0.5 P
MXI 26.8 0.5 S
# 2001 08 20 01 48 53.50 27.4667 101.767 0.000 2.7 0 0 0 5759
JLO 28.9 0.5 P
JLO 50.2 0.5 S
# 2001 08 20 03 21 19.40 27.6833 100.883 3.000 2.5 0 0 0 5763
JLO 29 0.5 P
JLO 47.6 0.5 S
# 2001 08 21 18 02 5.90 30.6333 102.8 5.000 2.2 0 0 0 5808
XJI 12.6 0.5 P
XJI 21 0.5 S
YZP 15.2 1 P
YZP 25.2 1 S
GZA 16.5 0.5 P
GZA 27.3 0.5 S
WCH 22.1 0.5 P
WCH 36.3 0.5 S
MXI 29.7 0.5 P
MXI 49.3 0.5 S
WMP 36.4 1 P
WMP 60.5 1 S
# 2001 08 22 07 12 18.50 30.4333 101.7 0.000 1.8 0 0 0 5818
GZA 11.9 0.5 P
GZA 19.7 0.5 S
DFU 13.4 0.5 P
DFU 22.6 0.5 S
XJI 17.2 0.5 P
XJI 28 0.5 S
# 2001 08 22 22 10 8.50 31.5333 103.1 5.000 1.5 0 0 0 5840
WCH 8.5 0.5 P
WCH 13.8 0.5 S
MXI 12.7 0.5 P
MXI 20.9 0.5 S
XJI 16.6 0.5 P
XJI 27.4 0.5 S
# 2001 08 23 01 41 36.90 28.4667 104.867 8.000 2.9 0 0 0 5844
WMP 23.4 1 P
WMP 39.8 1 S
LBO 26.5 0.5 P
LBO 43.9 0.5 S
EMS 56.9 1 S
# 2001 08 23 11 41 59.70 29.3167 105.533 0.000 1.8 0 0 0 5851
WMP 30.5 1 P
WMP 51.4 1 S
# 2001 08 24 12 36 27.70 32.0833 105.133 15.000 2.1 0 0 0 5870
YZP 35.4 1 P
YZP 59.7 1 S
# 2001 08 24 18 30 13.30 32.7667 103.617 7.000 1.8 0 0 0 5880
MXI 23.5 0.5 P
MXI 39.1 0.5 S
# 2001 08 24 19 01 1.90 32.75 103.617 5.000 1.7 0 0 0 5881
MXI 24.6 0.5 P
MXI 40.7 0.5 S
# 2001 08 24 23 21 23.90 31.7167 103.283 2.000 1.5 0 0 0 5888
MXI 10.1 0.5 P
MXI 16.1 0.5 S
MEK 16.9 1 P
MEK 28.1 1 S
XJI 20.9 0.5 P
XJI 35.1 0.5 S
# 2001 08 25 03 13 21.40 31.5667 102.4 5.000 2.3 0 0 0 5890
MEK 8.7 1 P
MEK 13.6 1 S
XJI 11.9 0.5 P
XJI 18.6 0.5 S
DFU 25 0.5 P
DFU 41.9 0.5 S
MXI 25.7 0.5 P
MXI 42.2 0.5 S
# 2001 08 25 10 07 5.30 29.4167 101.083 11.000 2.5 0 0 0 5900
JLO 11.1 0.5 P
JLO 18.3 0.5 S
GZA 22.2 0.5 P
GZA 36.3 0.5 S
SMI 22.3 0.5 P
SMI 36.3 0.5 S
DFU 29.1 0.5 P
DFU 50 0.5 S
# 2001 08 25 14 50 6.20 32.0333 103.633 11.000 1.9 0 0 0 5903
MXI 15.6 0.5 P
MXI 21.5 0.5 S
# 2001 08 26 21 18 27.60 32.2667 103.717 12.000 1.8 0 0 0 5936
MXI 12.6 0.5 P
MXI 21.1 0.5 S
WCH 17.4 0.5 P
WCH 28.4 0.5 S
# 2001 08 27 23 13 28.60 28.2333 103.583 5.000 2.3 0 0 0 5942
LBO 3.6 0.5 P
LBO 5.6 0.5 S
WMP 18.2 1 P
WMP 31 1 S
EMS 45.3 1 S
SMI 28 0.5 P
SMI 46 0.5 S
# 2001 08 28 08 25 42.30 27.6833 100.867 15.000 2.5 0 0 0 5949
JLO 30.3 0.5 P
JLO 48.7 0.5 S
# 2001 08 28 17 26 49.80 31.4167 104.1 14.000 1.7 0 0 0 5954
MXI 6 0.5 P
MXI 10.3 0.5 S
WCH 7 0.5 P
WCH 11.2 0.5 S
# 2001 08 28 21 25 59.70 31.5833 103.083 0.000 1.8 0 0 0 5955
WCH 8.7 0.5 P
WCH 14.5 0.5 S
MXI 12.7 0.5 P
MXI 20.9 0.5 S
XJI 16.8 0.5 P
XJI 27.6 0.5 S
# 2001 08 28 22 13 20.90 31.8667 103.933 8.000 1.8 0 0 0 5957
MXI 5.6 0.5 P
MXI 8.9 0.5 S
WCH 11.1 0.5 P
WCH 17.3 0.5 S
# 2001 08 30 00 49 11.10 32.1833 104.067 3.000 1.9 0 0 0 5979
MXI 11 0.5 P
MXI 17.5 0.5 S
# 2001 08 30 16 39 8.10 30.4667 101.633 0.000 2.6 0 0 0 6000
GZA 11.9 0.5 P
GZA 19.6 0.5 S
DFU 13.1 0.5 P
DFU 21.7 0.5 S
XJI 17.2 0.5 P
XJI 27.9 0.5 S
SMI 26.5 0.5 P
SMI 43.5 0.5 S
MEK 29.3 1 P
MEK 48.5 1 S
JLO 29.9 0.5 P
JLO 49.7 0.5 S
YZP 34.6 1 P
YZP 58.2 1 S
# 2001 08 30 19 55 57.90 32.5167 103.15 5.000 2.1 0 0 0 6004
WCH 41.1 0.5 S
MEK 22.3 1 P
MEK 36.9 1 S
MXI 22.9 0.5 P
MXI 38.4 0.5 S
# 2001 08 31 23 02 31.40 29.9 102.717 0.000 2.4 0 0 0 6020
GZA 11.3 0.5 P
GZA 19.3 0.5 S
EMS 24.2 1 S
XJI 22.7 0.5 P
XJI 36.8 0.5 S
# 2001 08 31 23 17 29.90 29.8833 102.767 4.000 3.6 0 0 0 6021
WCH 32.1 0.5 P
DFU 34.2 0.5 P
MEK 39 1 P
GZA 11.5 0.5 P
GZA 18.8 0.5 S
EMS 23.9 1 S
SMI 15.7 0.5 P
SMI 25.8 0.5 S
XJI 22.6 0.5 P
XJI 37 0.5 S
JLO 27.7 0.5 P
JLO 45.7 0.5 S
# 2001 09 01 00 33 19.50 30.4667 101.633 1.000 2.2 0 0 0 6022
GZA 11.9 0.5 P
GZA 19.6 0.5 S
DFU 13.1 0.5 P
DFU 22.3 0.5 S
XJI 17.1 0.5 P
XJI 28 0.5 S
JLO 28.1 0.5 P
JLO 47.4 0.5 S
MEK 29.7 1 P
MEK 49.2 1 S
# 2001 09 01 01 51 57.70 30.3833 101.717 4.000 1.9 0 0 0 6024
GZA 12.5 0.5 P
GZA 19.4 0.5 S
DFU 12.9 0.5 P
DFU 22.3 0.5 S
XJI 16.7 0.5 P
XJI 27.5 0.5 S
# 2001 09 01 02 26 32.90 29.8167 103.433 5.000 2.2 0 0 0 6025
EMS 11.3 1 S
YZP 22.4 1 P
YZP 39.2 1 S
# 2001 09 01 03 56 18.90 29.9333 102.733 8.000 2.2 0 0 0 6026
GZA 10.3 0.5 P
GZA 17.5 0.5 S
EMS 22.1 1 S
SMI 16.1 0.5 P
SMI 26.1 0.5 S
XJI 22 0.5 P
XJI 36.1 0.5 S
JLO 26.7 0.5 P
JLO 44.3 0.5 S
# 2001 09 02 01 05 41.10 31.75 103.817 8.000 2.1 0 0 0 6037
MEK 26.9 1 P
MEK 44.8 1 S
XJI 28.9 0.5 P
XJI 46.7 0.5 S
MXI 3.3 0.5 P
MXI 5 0.5 S
WCH 7.5 0.5 P
WCH 11.9 0.5 S
# 2001 09 02 02 30 42.50 31.5333 104.367 5.000 2.4 0 0 0 6038
YZP 19.2 1 P
YZP 32.4 1 S
MXI 10.1 0.5 P
MXI 17.1 0.5 S
WCH 13.3 0.5 P
WCH 21.9 0.5 S
WCH 17.1 0.5 P
WCH 28.5 0.5 S
# 2001 09 02 02 45 7.00 31.5333 104.367 7.000 1.3 0 0 0 6039
MXI 9.2 0.5 P
MXI 15.8 0.5 S
# 2001 09 02 02 57 4.90 29.1833 102.317 10.000 2.5 0 0 0 6040
SMI 5.3 0.5 P
SMI 8.4 0.5 S
JLO 15.7 0.5 P
JLO 25.7 0.5 S
GZA 18.5 0.5 P
GZA 31.3 0.5 S
# 2001 09 02 07 35 30.50 31.55 104.367 11.000 1.5 0 0 0 6051
MXI 9.2 0.5 P
MXI 15.9 0.5 S
# 2001 09 02 16 25 21.20 31.5333 104.367 7.000 1.3 0 0 0 6066
MXI 7.8 0.5 P
MXI 13.8 0.5 S
# 2001 09 02 21 33 52.10 30.4833 101.717 10.000 2.4 0 0 0 6074
GZA 11.7 0.5 P
GZA 19.9 0.5 S
DFU 13.1 0.5 P
DFU 22.1 0.5 S
XJI 17 0.5 P
XJI 27.6 0.5 S
MEK 29.1 1 P
MEK 48.6 1 S
# 2001 09 03 07 33 11.50 31.1833 103.467 5.000 2.0 0 0 0 6087
WCH 7.5 0.5 P
WCH 12.1 0.5 S
YZP 7.7 1 P
YZP 13.2 1 S
MXI 12.1 0.5 P
MXI 19.9 0.5 S
XJI 19.5 0.5 P
XJI 32.1 0.5 S
MEK 25.8 1 P
MEK 43 1 S
# 2001 09 03 09 34 9.40 31.5333 104.367 9.000 2.3 0 0 0 6088
MXI 9.8 0.5 P
MXI 16.3 0.5 S
WCH 13.4 0.5 P
WCH 22 0.5 S
XJI 34.5 0.5 P
XJI 57.9 0.5 S
# 2001 09 03 13 37 5.70 30.4667 101.7 4.000 1.5 0 0 0 6089
GZA 11.9 0.5 P
GZA 19.1 0.5 S
DFU 12.7 0.5 P
DFU 21.3 0.5 S
XJI 16.7 0.5 P
XJI 27.3 0.5 S
# 2001 09 04 01 04 19.70 31.4167 104.133 9.000 1.4 0 0 0 6095
MXI 7.9 0.5 P
MXI 12.7 0.5 S
WCH 9.9 0.5 P
WCH 16.3 0.5 S
# 2001 09 04 01 06 25.30 31.45 104.083 10.000 1.3 0 0 0 6096
MXI 7.3 0.5 P
MXI 11.9 0.5 S
WCH 9.3 0.5 P
WCH 15.7 0.5 S
# 2001 09 04 01 19 59.70 29.95 102.767 10.000 1.9 0 0 0 6097
GZA 11.1 0.5 P
GZA 18.3 0.5 S
EMS 23.3 1 S
XJI 22 0.5 P
XJI 35.8 0.5 S
# 2001 09 05 04 19 5.60 30.4333 101.7 4.000 1.9 0 0 0 6117
GZA 12 0.5 P
GZA 19 0.5 S
DFU 12.6 0.5 P
DFU 21.2 0.5 S
XJI 16.5 0.5 P
XJI 27.3 0.5 S
# 2001 09 05 08 30 25.20 31.5333 104.367 8.000 2.1 0 0 0 6119
MXI 9.7 0.5 P
MXI 16.3 0.5 S
# 2001 09 05 10 58 3.00 30.4667 101.617 0.000 3.5 0 0 0 6120
GZA 11.4 0.5 P
GZA 18.4 0.5 S
DFU 13 0.5 P
DFU 22 0.5 S
XJI 16.7 0.5 P
XJI 27.1 0.5 S
JLO 27 0.5 P
JLO 46 0.5 S
MEK 28.8 1 P
MEK 49.5 1 S
WCH 38 0.5 P
WCH 63.4 0.5 S
MXI 44 0.5 P
MXI 73 0.5 S
# 2001 09 05 13 43 0.20 30.4333 101.7 3.000 1.7 0 0 0 6123
GZA 12.1 0.5 P
GZA 19.2 0.5 S
DFU 12.5 0.5 P
DFU 21.7 0.5 S
XJI 16.8 0.5 P
XJI 27.4 0.5 S
# 2001 09 06 10 54 56.60 31.4833 104.067 7.000 1.7 0 0 0 6136
MXI 5 0.5 P
MXI 8.2 0.5 S
WCH 8.2 0.5 P
WCH 13.7 0.5 S
# 2001 09 06 13 11 17.40 32.2667 101.633 0.000 2.5 0 0 0 6141
MEK 14.3 1 P
MEK 23.6 1 S
XJI 29.2 0.5 P
XJI 48.8 0.5 S
# 2001 09 06 17 28 53.80 29.85 102.333 8.000 1.6 0 0 0 6144
GZA 7.8 0.5 P
GZA 13 0.5 S
YZP 29.8 1 P
YZP 49.7 1 S
# 2001 09 07 00 28 31.70 29.6833 102.033 0.000 1.8 0 0 0 6153
GZA 8.6 0.5 P
GZA 14.6 0.5 S
JLO 16.3 0.5 P
JLO 26.4 0.5 S
# 2001 09 07 00 53 40.00 30.4667 101.583 0.000 2.6 0 0 0 6154
SMI 26.6 0.5 P
SMI 44.1 0.5 S
JLO 27.7 0.5 P
JLO 46 0.5 S
MEK 29.7 1 P
MEK 49.7 1 S
YZP 34.6 1 P
YZP 57.2 1 S
EMS 59.7 1 S
# 2001 09 07 06 31 20.30 32.1167 101.617 0.000 2.1 0 0 0 6164
MEK 14.4 1 P
MEK 23.9 1 S
XJI 30.5 0.5 P
# 2001 09 07 08 38 34.70 27.6333 100.883 9.000 2.7 0 0 0 6169
JLO 30.1 0.5 P
JLO 50 0.5 S
# 2001 09 07 12 15 44.20 29.2833 104.75 11.000 2.2 0 0 0 6172
WMP 19.8 1 P
WMP 32.6 1 S
# 2001 09 07 15 13 40.10 29.4333 101.3 0.000 2.0 0 0 0 6180
GZA 22.1 0.5 P
GZA 34.6 0.5 S
JLO 11.4 0.5 P
JLO 18.7 0.5 S
# 2001 09 07 16 03 5.80 27.4 106.083 0.000 2.7 0 0 0 6181
LBO 43.2 0.5 P
LBO 75.2 0.5 S
LBO 75.2 0.5 S
# 2001 09 08 01 33 2.60 27.25 102.683 7.000 2.5 0 0 0 6187
LBO 25.4 0.5 P
LBO 42.6 0.5 S
# 2001 09 08 03 38 44.00 30.4333 101.7 0.000 2.0 0 0 0 6192
XJI 17 0.5 P
XJI 27.8 0.5 S
MEK 29.9 1 P
MEK 49.8 1 S
GZA 10.5 0.5 P
GZA 16.8 0.5 S
DFU 12.6 0.5 P
DFU 20.8 0.5 S
# 2001 09 08 04 32 55.30 30.3833 101.667 0.000 2.1 0 0 0 6193
GZA 11.8 0.5 P
GZA 19 0.5 S
DFU 12.9 0.5 P
DFU 21.8 0.5 S
XJI 16.7 0.5 P
XJI 27.5 0.5 S
MEK 29.5 1 P
MEK 48.5 1 S
# 2001 09 08 05 00 13.00 30.4667 101.717 7.000 1.8 0 0 0 6194
MEK 48.2 1 S
GZA 11.4 0.5 P
GZA 18.6 0.5 S
DFU 12.7 0.5 P
DFU 21.7 0.5 S
XJI 16.3 0.5 P
XJI 27.1 0.5 S
# 2001 09 08 05 14 27.20 30.4 101.683 7.000 2.1 0 0 0 6195
GZA 12 0.5 P
GZA 20 0.5 S
DFU 13.4 0.5 P
DFU 22.6 0.5 S
XJI 17.6 0.5 P
XJI 28.8 0.5 S
MEK 30.9 1 P
MEK 51.6 1 S
# 2001 09 08 07 56 6.90 31.7667 101.683 0.000 2.0 0 0 0 6199
MEK 9.5 1 P
MEK 15.8 1 S
DFU 18.9 0.5 P
DFU 31.1 0.5 S
XJI 20.1 0.5 P
XJI 33.1 0.5 S
