# 2003 2 24 13 5 0.20 28.430 105.430 5.0 0 0 0 0 620194
WMP 33.8 1 P
WMP 56.4 1 S
# 2003 3 7 15 1 45.10 28.350 103.440 0.0 0 0 0 0 620195
EMS 23.1 1 P
EMS 37.3 1 S
MDS 33.83 1 P
WMP 12 1 P
YZP 43.7 1 P
# 2003 3 8 6 28 1.50 28.220 104.480 0.0 0 0 0 0 620196
EMS 34.4 1 P
EMS 56.6 1 S
MDS 43.19 1 P
WMP 24.1 1 P
WMP 39.2 1 S
YZP 48.4 1 P
# 2003 3 10 9 23 2.80 32.080 104.300 15.0 0 0 0 0 620197
MDS 45.8724 1 P
MEK 38.04 1 P
WMP 49.5503 1 P
YZP 29.6 1 P
YZP 49.4 1 S
# 2003 3 18 6 41 19.80 29.160 104.010 10.0 0 0 0 0 620198
EMS 13.1 1 P
EMS 21.6 1 S
MDS 24.44 1 P
WMP 7.2 1 P
WMP 11.8 1 S
YZP 32.5 1 P
YZP 54 1 S
# 2003 3 18 6 48 35.80 29.180 104.000 5.0 0 0 0 0 620199
EMS 13.1 1 P
EMS 21.7 1 S
MDS 24.58 1 P
MEK 55.472 1 P
WMP 7.5 1 P
WMP 12.4 1 S
YZP 32.7333 1 P
YZP 55.8 1 S
# 2003 4 10 10 37 44.40 29.250 103.310 5.0 0 0 0 0 620200
EMS 6.1 1 P
EMS 9.8 1 S
WMP 10 1 P
WMP 17 1 S
# 2003 4 21 15 28 54.40 29.200 105.480 3.0 0 0 0 0 620201
EMS 38.5 1 P
EMS 64.1 1 S
MDS 44.1949 1 P
MEK 65.4767 1 P
WMP 33.9 1 P
YZP 43.53 1 P
# 2003 4 23 22 37 27.70 33.020 108.190 7.0 0 0 0 0 620202
MEK 84.59 1 P
WMP 87.3 1 P
YZP 72.49 1 P
# 2003 5 5 18 59 58.20 31.200 103.480 1.0 0 0 0 0 620203
EMS 34 1 P
EMS 58 1 S
MDS 27.82 1 P
MEK 29.1 1 P
MEK 48.4 1 S
WMP 39.8 1 P
WMP 68.6 1 S
YZP 11.1 1 P
YZP 19.3 1 S
# 2003 5 10 15 33 46.50 31.380 102.260 13.0 0 0 0 0 620204
EMS 42.9 1 P
EMS 73 1 S
MDS 32.11 1 P
MEK 5.9 1 P
WMP 50.3104 1 P
YZP 24.5 1 P
YZP 41.2 1 S
# 2003 5 29 11 24 48.60 32.330 104.110 0.0 0 0 0 0 620205
MDS 49.9833 1 P
MEK 35.9 1 P
MEK 59.3 1 S
WMP 58.511 1 P
YZP 34.7 1 P
# 2003 5 31 4 3 48.60 29.080 104.410 5.0 0 0 0 0 620206
EMS 24.4 1 P
MDS 33.91 1 P
WMP 17.7 1 P
YZP 39 1 P
YZP 64.7 1 S
# 2003 6 1 14 36 12.50 28.360 103.310 0.0 0 0 0 0 620207
MDS 29.47 1 P
YZP 39.5 1 P
# 2003 6 1 23 4 50.00 28.370 103.340 0.0 0 0 0 0 620208
EMS 20.8 1 P
MDS 31.93 1 P
WMP 10.7 1 P
YZP 42 1 P
# 2003 6 2 3 30 7.70 29.040 102.150 7.0 0 0 0 0 620209
EMS 23 1 P
EMS 38.8 1 S
MDS 24.16 1 P
MEK 53.2 1 P
MEK 90.5 1 S
WMP 26.6 1 P
WMP 45.2 1 S
YZP 39.3 1 P
YZP 67.8 1 S
# 2003 6 2 23 4 9.20 28.360 103.390 5.0 0 0 0 0 620210
EMS 19.9 1 P
MDS 30.69 1 P
MEK 60.6063 1 P
YZP 41.19 1 P
# 2003 6 3 23 9 21.30 28.060 104.420 0.0 0 0 0 0 620211
EMS 37.9 1 P
EMS 63 1 S
WMP 28.4 1 P
# 2003 6 9 0 8 26.90 27.530 102.240 5.0 0 0 0 0 620212
EMS 38.1 1 P
MDS 44.15 1 P
WMP 33.9 1 P
# 2003 6 11 10 11 53.60 28.400 103.380 0.0 0 0 0 0 620213
EMS 19.7 1 P
EMS 32.8 1 S
MDS 30 1 P
# 2003 6 12 2 2 53.50 29.580 103.150 15.0 0 0 0 0 620214
EMS 11.3 1 P
EMS 17.3 1 S
MDS 8.53 1 P
MEK 40.9 1 P
WMP 21.1 1 P
YZP 20.28 1 P
# 2003 6 17 14 46 18.20 27.520 102.180 0.0 0 0 0 0 620215
EMS 40 1 P
MDS 44.81 1 P
MEK 69.95 1 P
WMP 36.1 1 P
YZP 57.3 1 P
# 2003 6 18 16 31 58.80 29.030 105.530 0.0 0 0 0 0 620216
EMS 41.1 1 P
MDS 49.3272 1 P
WMP 35.4 1 P
YZP 49.0826 1 P
# 2003 6 23 7 8 39.60 28.280 104.480 0.0 0 0 0 0 620217
EMS 32.9 1 P
EMS 54.2 1 S
MDS 41.96 1 P
WMP 23 1 P
WMP 37.4 1 S
YZP 47.8 1 P
YZP 84.1 1 S
# 2003 6 25 13 43 41.30 27.390 102.440 0.0 0 0 0 0 620218
EMS 40.5 1 P
MDS 47.51 1 P
WMP 33.8 1 P
# 2003 7 10 1 33 56.60 27.470 102.280 5.0 0 0 0 0 620219
EMS 39.3 1 P
MDS 44.72 1 P
WMP 34.9 1 P
# 2003 7 10 1 49 11.90 27.470 102.280 5.0 0 0 0 0 620220
EMS 39 1 P
MDS 44.7051 1 P
WMP 34.3 1 P
# 2003 7 10 3 5 32.90 34.070 104.480 6.0 0 0 0 0 620221
MDS 71.4092 1 P
YZP 59.3 1 P
# 2003 7 16 11 5 14.99 25.837 104.922 7.0 0 0 0 0 620222
EMS 76.8524 1 P
MDS 78.3657 1 P
YZP 163.068 1 S
# 2003 7 21 15 57 15.20 26.010 101.100 0.0 0 0 0 0 620223
MDS 74.7269 1 P
WMP 68.3 1 P
# 2003 7 22 0 9 34.87 26.271 101.300 8.0 0 0 0 0 620224
EMS 73.9233 1 P
EMS 124.176 1 S
MDS 77.2254 1 P
MEK 98.0884 1 P
WMP 68.5077 1 P
YZP 87.8164 1 P
# 2003 7 23 4 42 16.73 26.153 100.522 7.0 0 0 0 0 620225
EMS 83.1346 1 P
EMS 131.971 1 S
MEK 108.072 1 P
WMP 78.8031 1 P
YZP 97.9174 1 P
# 2003 7 23 6 46 28.07 26.313 101.573 5.0 0 0 0 0 620226
MDS 75.1191 1 P
WMP 65.7159 1 P
YZP 85.1296 1 P
# 2003 7 23 14 31 56.27 29.005 103.614 5.0 0 0 0 0 620227
MDS 29.2125 1 P
YZP 40.6885 1 P
# 2003 7 23 23 52 31.95 25.400 105.142 10.0 0 0 0 0 620228
EMS 80.1312 1 P
EMS 134.61 1 S
MDS 83.372 1 P
WMP 74.6368 1 P
YZP 92.9188 1 P
YZP 178.82 1 S
# 2003 7 24 4 37 12.21 25.685 102.336 13.0 0 0 0 0 620229
MDS 81.6002 1 P
YZP 91.9953 1 P
# 2003 7 26 5 25 10.80 31.420 104.290 13.0 0 0 0 0 620231
MDS 39.157 1 P
# 2003 8 4 8 33 24.81 26.461 100.859 7.0 0 0 0 0 620233
YZP 87.7705 1 P
# 2003 8 8 22 52 28.40 29.300 100.580 5.0 0 0 0 0 620235
MDS 38.6434 1 P
MEK 49.7051 1 P
# 2003 8 9 13 16 3.50 33.110 105.480 0.0 0 0 0 0 620236
YZP 54.5 1 P
# 2003 8 11 22 41 15.64 29.678 101.880 10.0 0 0 0 0 620237
EMS 30.7973 1 P
MDS 27.3918 1 P
# 2003 8 12 16 48 14.20 28.550 102.310 11.0 0 0 0 0 620238
EMS 21.5 1 P
MDS 24.99 1 P
WMP 23 1 P
# 2003 8 18 10 0 14.90 26.010 101.100 5.0 0 0 0 0 620239
EMS 72.9663 1 P
MDS 76.53 1 P
MEK 97.3049 1 P
WMP 66.89 1 P
YZP 86.89 1 P
# 2003 8 21 2 17 48.80 27.250 101.160 5.0 0 0 0 0 620240
EMS 54.95 1 P
MDS 56.95 1 P
MEK 80.987 1 P
WMP 51.78 1 P
YZP 67.6 1 P
# 2003 8 21 5 38 44.83 27.417 100.589 5.0 0 0 0 0 620241
EMS 65.3447 1 P
EMS 104.897 1 S
MDS 67.7853 1 P
MDS 107.147 1 S
WMP 63.0058 1 P
WMP 100.477 1 S
YZP 79.4147 1 P
# 2003 8 21 10 57 56.32 27.708 100.462 14.0 0 0 0 0 620242
EMS 107.399 1 S
WMP 65.0889 1 P
WMP 104.022 1 S
# 2003 8 21 15 20 20.95 27.800 101.004 5.0 0 0 0 0 620243
MEK 81.2895 1 P
WMP 55.1948 1 P
YZP 70.8964 1 P
# 2003 8 23 11 28 50.48 28.444 99.807 5.0 0 0 0 0 620244
EMS 61.8642 1 P
MDS 61.8263 1 P
MDS 103.871 1 S
# 2003 8 24 11 39 50.70 29.200 104.020 4.0 0 0 0 0 620245
EMS 13.4 1 P
EMS 22.9 1 S
MDS 25.2609 1 P
WMP 8 1 P
WMP 13.4 1 S
YZP 32.9 1 P
YZP 54.6 1 S
# 2003 8 27 15 28 34.30 28.200 102.360 3.0 0 0 0 0 620246
EMS 29.9 1 P
EMS 50.1 1 S
MDS 36.6832 1 P
WMP 26.6 1 P
YZP 49.2 1 P
# 2003 9 3 0 37 16.00 31.060 103.280 5.0 0 0 0 0 620247
EMS 33.4 1 P
MDS 25.4023 1 P
YZP 8.8 1 P
YZP 14.9 1 S
# 2003 9 5 4 23 57.70 32.550 104.380 10.0 0 0 0 0 620248
EMS 60.83 1 P
WMP 66.972 1 P
# 2003 9 15 9 18 59.30 31.080 103.250 0.0 0 0 0 0 620249
EMS 30.9 1 P
EMS 51.1 1 S
MDS 24.19 1 P
MEK 29.6 1 P
WMP 39.2 1 P
WMP 64.7 1 S
YZP 6.8 1 P
YZP 10.9 1 S
# 2003 9 16 8 0 37.60 29.290 100.580 0.0 0 0 0 0 620251
EMS 42.1 1 P
MDS 37.53 1 P
MEK 49.5 1 P
WMP 48 1 P
WMP 83.1 1 S
YZP 49.9 1 P
# 2003 9 16 17 9 40.70 29.160 102.160 0.0 0 0 0 0 620252
EMS 21.4 1 P
EMS 35.8 1 S
MDS 21.8 1 P
MEK 50.32 1 P
WMP 26 1 P
WMP 43.1 1 S
YZP 37.3 1 P
YZP 63.8 1 S
# 2003 9 19 1 12 8.40 29.390 103.220 5.0 0 0 0 0 620253
EMS 3.9 1 P
EMS 6.1 1 S
MDS 10.88 1 P
WMP 14.1 1 P
WMP 24 1 S
YZP 23.91 1 P
# 2003 9 20 5 13 16.00 27.550 99.300 0.0 0 0 0 0 620254
WMP 127.6 1 S
# 2003 9 28 16 39 8.50 29.300 100.590 0.0 0 0 0 0 620255
MEK 49.44 1 P
WMP 47.3705 1 P
# 2003 10 9 9 41 24.00 29.010 102.130 0.0 0 0 0 0 620256
EMS 23.7 1 P
EMS 39.5 1 S
MDS 22.24 1 P
MEK 53.6908 1 P
MEK 91.5 1 S
WMP 26.4 1 P
WMP 44.2 1 S
YZP 40.1387 1 P
YZP 69.2 1 S
# 2003 10 10 22 7 0.20 28.180 104.000 5.0 0 0 0 0 620257
EMS 26.8 1 P
EMS 44.4 1 S
MDS 37.2 1 P
YZP 44.7937 1 P
# 2003 10 13 15 44 52.60 28.300 103.180 9.0 0 0 0 0 620258
EMS 23.2 1 P
EMS 37.8 1 S
MDS 33.4 1 P
MEK 62.22 1 P
WMP 15.9 1 P
WMP 26.1 1 S
YZP 43.6 1 P
# 2003 10 15 23 18 9.30 27.140 103.060 5.0 0 0 0 0 620259
EMS 45.1 1 P
EMS 74.7 1 S
MDS 51.8593 1 P
WMP 37 1 P
WMP 61.7 1 S
YZP 61.2065 1 P
# 2003 10 16 3 56 28.70 26.000 101.160 0.0 0 0 0 0 620260
MDS 74.9289 1 P
WMP 65.7 1 P
# 2003 10 16 12 28 2.00 26.000 101.160 0.0 0 0 0 0 620261
EMS 73.32 1 P
MDS 77.07 1 P
MEK 98.36 1 P
WMP 67.9 1 P
YZP 87.69 1 P
# 2003 10 16 13 7 34.40 26.000 101.160 0.0 0 0 0 0 620262
EMS 69.9363 1 P
MDS 74.35 1 P
WMP 64.6 1 P
# 2003 10 16 22 41 31.70 26.050 101.030 13.0 0 0 0 0 620263
EMS 71.3155 1 P
MDS 75.6 1 P
MEK 96.11 1 P
WMP 65.9 1 P
# 2003 10 17 0 14 38.70 26.000 101.170 0.0 0 0 0 0 620264
EMS 72 1 P
MDS 75.06 1 P
WMP 66.11 1 P
# 2003 10 19 21 1 12.40 26.000 101.170 0.0 0 0 0 0 620265
EMS 69.9777 1 P
MDS 75.07 1 P
WMP 66.55 1 P
# 2003 10 22 4 42 20.80 27.160 100.560 0.0 0 0 0 0 620266
EMS 58.7 1 P
MDS 60.55 1 P
WMP 56.8 1 P
# 2003 10 24 11 36 19.80 30.290 102.450 0.0 0 0 0 0 620267
EMS 25.1 1 P
EMS 41.7 1 S
MDS 12.99 1 P
MEK 30.2 1 P
MEK 50.2 1 S
WMP 34.7 1 P
WMP 59.9 1 S
YZP 17.8 1 P
# 2003 10 26 13 50 11.90 29.220 105.490 9.0 0 0 0 0 620268
EMS 38.2 1 P
MDS 44.5976 1 P
WMP 33.3 1 P
YZP 43.3 1 P
YZP 77.5 1 S
# 2003 10 27 2 16 52.90 26.010 101.160 0.0 0 0 0 0 620269
MDS 71.53 1 P
WMP 65.8 1 P
WMP 121.6 1 S
# 2003 10 29 1 55 57.20 29.340 102.040 0.0 0 0 0 0 620270
EMS 23.6 1 P
EMS 39.6 1 S
MDS 20.08 1 P
MEK 43.5027 1 P
WMP 30.4 1 P
WMP 50.7 1 S
YZP 35.48 1 P
# 2003 10 30 3 52 30.30 29.340 102.050 0.0 0 0 0 0 620271
EMS 24.08 1 P
MDS 20.81 1 P
MEK 43.9536 1 P
WMP 30.8 1 P
WMP 51.4 1 S
YZP 34.9 1 P
YZP 59.7 1 S
# 2003 10 30 23 16 12.80 29.120 102.150 0.0 0 0 0 0 620272
EMS 22.1 1 P
EMS 37.7 1 S
MDS 22.04 1 P
MEK 50.1293 1 P
WMP 26.7 1 P
WMP 44.6 1 S
YZP 37.44 1 P
# 2003 10 31 18 9 21.70 26.010 101.130 0.0 0 0 0 0 620273
EMS 69.9732 1 P
MDS 75.17 1 P
WMP 65.62 1 P
# 2003 11 14 19 3 42.40 27.140 103.360 0.0 0 0 0 0 620276
EMS 45.2 1 P
EMS 78.2 1 S
MDS 51.4102 1 P
WMP 36.4 1 P
WMP 61.8 1 S
YZP 61.2871 1 P
# 2003 11 15 18 50 8.40 27.130 103.360 0.0 0 0 0 0 620277
EMS 44.8 1 P
EMS 77 1 S
MDS 51.4102 1 P
WMP 36.5 1 P
WMP 62 1 S
YZP 61.3 1 P
# 2003 11 17 21 50 1.90 27.130 103.360 0.0 0 0 0 0 620278
EMS 43.7 1 P
EMS 75.8 1 S
MDS 51.7 1 P
MEK 78.96 1 P
WMP 35.8 1 P
WMP 61.7 1 S
YZP 60.88 1 P
# 2003 11 19 12 40 33.10 29.150 101.120 0.0 0 0 0 0 620279
EMS 38.8 1 P
EMS 66.3 1 S
MEK 52.3 1 P
MEK 90.5 1 S
WMP 44.3 1 P
WMP 76.2 1 S
YZP 48.6 1 P
YZP 84.3 1 S
# 2003 11 20 16 56 35.40 27.110 103.360 0.0 0 0 0 0 620280
EMS 45 1 P
EMS 77.8 1 S
MDS 52.8328 1 P
WMP 36.1 1 P
WMP 62 1 S
YZP 60.8 1 P
YZP 115.5 1 S
# 2003 11 21 9 24 28.60 27.140 103.360 0.0 0 0 0 0 620281
EMS 47.7 1 P
EMS 79.1 1 S
MDS 51.7425 1 P
WMP 38.3 1 P
WMP 63.6 1 S
YZP 61.7718 1 P
# 2003 11 22 21 19 4.20 27.110 103.350 0.0 0 0 0 0 620282
EMS 47.6 1 P
EMS 79.4 1 S
MDS 53.29 1 P
MEK 79.8059 1 P
WMP 37.1508 1 P
WMP 62.8 1 S
YZP 61.86 1 P
# 2003 11 26 7 30 10.70 28.110 101.100 0.0 0 0 0 0 620283
EMS 46.9 1 P
EMS 80.1 1 S
MEK 69.0534 1 P
WMP 46.8 1 P
WMP 81.3 1 S
YZP 59.9 1 P
YZP 108.3 1 S
# 2003 11 26 23 2 58.30 29.310 102.010 0.0 0 0 0 0 620284
EMS 23.9 1 P
EMS 39.9 1 S
MDS 19.91 1 P
MEK 43.66 1 P
WMP 30.5 1 P
WMP 51.2 1 S
YZP 34.8 1 P
# 2003 11 27 10 6 49.60 27.140 103.330 0.0 0 0 0 0 620285
EMS 45.1 1 P
EMS 75.7 1 S
WMP 35.4 1 P
WMP 60.4 1 S
# 2003 11 27 14 14 53.20 29.280 101.000 0.0 0 0 0 0 620286
EMS 40.7 1 P
EMS 70.6 1 S
MDS 36.67 1 P
MEK 49 1 P
MEK 85.8 1 S
WMP 46.4 1 P
WMP 80.4 1 S
YZP 48.9 1 P
YZP 84.3 1 S
# 2003 11 28 5 40 44.30 29.280 101.000 0.0 0 0 0 0 620287
MEK 48.8409 1 P
WMP 46.89 1 P
YZP 49.51 1 P
# 2003 11 28 10 49 55.00 27.140 103.360 5.0 0 0 0 0 620288
EMS 44.6 1 P
EMS 76.4 1 S
WMP 35.5 1 P
WMP 61.1 1 S
# 2003 11 28 23 42 22.80 29.340 102.030 0.0 0 0 0 0 620289
EMS 23.7 1 P
EMS 39.5 1 S
MDS 19.76 1 P
MEK 43.61 1 P
WMP 30.4 1 P
WMP 50.8 1 S
YZP 34.8 1 P
# 2003 11 29 3 15 56.40 27.130 103.360 0.0 0 0 0 0 620290
EMS 46.3 1 P
EMS 78.3 1 S
MDS 52.5676 1 P
WMP 36.5 1 P
WMP 62.7 1 S
YZP 61.09 1 P
# 2003 11 29 3 58 26.40 27.150 103.360 0.0 0 0 0 0 620291
EMS 43.6 1 P
EMS 78.3 1 S
MDS 53.0164 1 P
WMP 36.5 1 P
WMP 62.3 1 S
YZP 61.27 1 P
# 2003 11 29 22 29 2.90 27.140 103.380 0.0 0 0 0 0 620292
EMS 46.3874 1 P
MDS 53.36 1 P
WMP 37.3 1 P
WMP 62 1 S
YZP 62.01 1 P
# 2003 12 1 21 38 56.70 27.130 103.350 0.0 0 0 0 0 620293
EMS 43.7 1 P
EMS 77.1 1 S
MDS 51.758 1 P
WMP 35.6 1 P
WMP 61.7 1 S
YZP 59.87 1 P
# 2003 12 2 23 26 46.20 30.520 101.160 0.0 0 0 0 0 620294
EMS 43.4 1 P
EMS 75.1 1 S
MDS 33.18 1 P
WMP 52.3 1 P
WMP 91 1 S
YZP 38 1 P
YZP 64.3 1 S
# 2003 12 4 11 15 39.30 27.120 103.360 0.0 0 0 0 0 620295
EMS 44.2 1 P
EMS 77.2 1 S
MDS 51.3517 1 P
WMP 35.8 1 P
WMP 61.9 1 S
# 2003 12 5 7 55 59.00 27.130 103.360 0.0 0 0 0 0 620296
EMS 45.7 1 P
EMS 77.3 1 S
MDS 54.73 1 P
WMP 35.7 1 P
WMP 61.1 1 S
# 2003 12 8 2 44 41.50 27.230 103.370 0.0 0 0 0 0 620297
WMP 35.2 1 P
WMP 59.8 1 S
# 2003 12 10 16 53 59.00 30.140 103.060 5.0 0 0 0 0 620298
EMS 16.2 1 P
EMS 26.2 1 S
MDS 7.33 1 P
WMP 26.1 1 P
WMP 43.8 1 S
YZP 16.9 1 P
YZP 27.7 1 S
# 2003 12 14 16 41 16.00 27.200 103.360 5.0 0 0 0 0 620299
EMS 45.8 1 P
EMS 76.2 1 S
MDS 51.3559 1 P
WMP 35.3 1 P
WMP 59 1 S
# 2003 12 18 21 33 15.90 28.090 103.510 7.0 0 0 0 0 620300
EMS 30 1 P
EMS 49.5 1 S
MDS 39.73 1 P
WMP 19.4 1 P
WMP 31.9 1 S
# 2003 12 19 22 55 18.50 27.410 100.540 8.0 0 0 0 0 620301
WMP 57.9 1 P
# 2003 12 20 2 18 15.80 27.370 100.460 0.0 0 0 0 0 620302
MDS 57.71 1 P
WMP 54.8 1 P
# 2003 12 20 2 26 53.00 27.420 100.480 0.0 0 0 0 0 620303
MDS 57.5335 1 P
WMP 54.6 1 P
# 2003 12 20 9 4 57.30 27.540 102.420 6.0 0 0 0 0 620304
MDS 43.7734 1 P
WMP 30.8 1 P
# 2003 12 21 15 14 22.00 26.520 103.400 0.0 0 0 0 0 620305
EMS 50.8 1 P
MDS 57.96 1 P
WMP 41.8 1 P
# 2003 12 23 0 37 14.00 29.270 101.000 0.0 0 0 0 0 620306
MDS 36.84 1 P
WMP 48.5 1 P
WMP 80.4 1 S
# 2003 12 25 1 10 33.00 29.240 101.000 0.0 0 0 0 0 620307
EMS 41.4 1 P
EMS 68.8 1 S
WMP 46.7242 1 P
WMP 79.7 1 S
YZP 51.8 1 P
YZP 86.3 1 S
# 2003 12 25 11 22 11.10 29.440 101.360 0.0 0 0 0 0 620308
EMS 32.5 1 P
EMS 53.9 1 S
MDS 26.15 1 P
WMP 39.5061 1 P
WMP 68.8 1 S
YZP 39.4865 1 P
# 2004 1 4 15 10 47.80 27.030 103.080 0.0 0 0 0 0 620309
EMS 49 1 P
MDS 55.0738 1 P
MEK 81.1714 1 P
WMP 40.52 1 P
YZP 63.9888 1 P
# 2004 1 11 9 52 32.05 27.250 100.258 11.0 0 0 0 0 620310
MDS 72.6261 1 P
MDS 117.13 1 S
WMP 69.4773 1 P
WMP 110.475 1 S
# 2004 1 18 15 48 38.80 28.530 103.360 5.0 0 0 0 0 620311
EMS 15.2 1 P
MDS 26.38 1 P
YZP 37.3041 1 P
# 2004 1 19 21 38 3.60 31.560 101.270 10.0 0 0 0 0 620312
MEK 14.0095 1 P
MEK 23.2 1 S
YZP 42.78 1 P
# 2004 1 23 7 52 50.16 26.069 101.529 5.0 0 0 0 0 620313
EMS 72.9096 1 P
MDS 77.9916 1 P
MDS 131.563 1 S
MEK 98.8615 1 P
WMP 68.2859 1 P
YZP 88.2377 1 P
# 2004 1 23 13 45 11.96 26.486 102.433 12.0 0 0 0 0 620314
MDS 67.6701 1 P
# 2004 1 31 12 57 34.20 28.110 104.400 7.0 0 0 0 0 620315
EMS 35.2 1 P
EMS 59.5 1 S
MDS 44.3746 1 P
WMP 25.7 1 P
WMP 43.4 1 S
YZP 50.8845 1 P
# 2004 1 31 20 53 5.80 29.560 103.190 0.0 0 0 0 0 620316
EMS 9.1 1 P
EMS 14.8 1 S
MDS 10.17 1 P
MEK 41.7624 1 P
WMP 18.1 1 P
WMP 29.8 1 S
YZP 21.3 1 P
# 2004 2 1 2 47 21.80 27.705 100.855 5.0 0 0 0 0 620317
EMS 59.3037 1 P
EMS 100.771 1 S
MDS 60.8682 1 P
WMP 57.0115 1 P
WMP 96.5587 1 S
YZP 73.4417 1 P
# 2004 2 1 12 35 15.70 28.080 104.420 4.0 0 0 0 0 620318
EMS 35.4 1 P
EMS 58.6 1 S
MDS 44.2709 1 P
# 2004 2 20 13 56 12.40 31.040 100.400 5.0 0 0 0 0 620319
MEK 30.4874 1 P
MEK 50.8 1 S
WMP 62.9681 1 P
WMP 108 1 S
YZP 48.1556 1 P
YZP 81.2 1 S
# 2004 3 1 10 15 51.00 28.020 103.240 5.0 0 0 0 0 620320
EMS 30.9 1 P
EMS 50.5 1 S
MDS 40.35 1 P
MEK 67.3 1 P
WMP 20.9 1 P
WMP 35.5 1 S
YZP 49.1 1 P
YZP 85.4 1 S
# 2004 3 5 19 1 14.90 27.270 101.070 0.0 0 0 0 0 620321
EMS 56.0057 1 P
MDS 57.8764 1 P
WMP 54.75 1 P
# 2004 3 5 22 59 58.90 27.140 103.390 4.0 0 0 0 0 620322
EMS 47.494 1 P
MDS 52.4869 1 P
WMP 37.3 1 P
WMP 62.8 1 S
# 2004 3 16 21 6 56.70 27.100 103.040 0.0 0 0 0 0 620323
EMS 46.3 1 P
EMS 80.9 1 S
MDS 53.1676 1 P
YZP 62.23 1 P
# 2004 3 24 15 58 49.59 27.790 101.979 5.0 0 0 0 0 620324
YZP 65.2226 1 P
# 2001 01 01 12 42 42.60 31.1667 104.117 7.000 1.2 0 0 0 4
WCH 10.4 0.5 P
WCH 17.5 0.5 S
MXI 12.2 0.5 P
MXI 20.4 0.5 S
YZP 13 1 P
YZP 21.4 1 S
# 2001 01 01 17 00 20.20 29.1333 102.167 7.000 2.3 0 0 0 5
JLO 12.6 0.5 P
JLO 20.6 0.5 S
GZA 23.8 0.5 P
GZA 38.9 0.5 S
WMP 28.8 1 P
WMP 47.8 1 S
# 2001 01 02 00 02 43.60 29.3667 101.117 9.000 3.0 0 0 0 12
GZA 22.4 0.5 P
GZA 37.4 0.5 S
SMI 23.4 0.5 P
SMI 38.4 0.5 S
DFU 28.8 0.5 P
DFU 48.4 0.5 S
XJI 36.4 0.5 P
XJI 60.8 0.5 S
JLO 11.7 0.5 P
JLO 18.8 0.5 S
# 2001 01 03 06 39 30.50 31.9667 103.567 13.000 1.9 0 0 0 36
MXI 8.6 0.5 P
MXI 14.5 0.5 S
WCH 10.9 0.5 P
WCH 16.9 0.5 S
MEK 21.7 1 P
MEK 35.9 1 S
# 2001 01 03 12 57 45.50 29.9333 101.917 9.000 1.7 0 0 0 44
JLO 18.9 0.5 P
XJI 21.5 0.5 P
XJI 35.5 0.5 S
GZA 5.7 0.5 P
GZA 8.9 0.5 S
# 2001 01 04 20 36 11.10 29.5333 102.083 0.000 1.6 0 0 0 82
GZA 9.9 0.5 P
GZA 16.5 0.5 S
SMI 10.9 0.5 P
SMI 17.9 0.5 S
JLO 14.7 0.5 P
JLO 24.2 0.5 S
# 2001 01 06 07 20 10.50 29.3833 101.083 0.000 3.0 0 0 0 115
JLO 12.4 0.5 P
JLO 20.1 0.5 S
GZA 23.3 0.5 P
GZA 38.1 0.5 S
SMI 23.5 0.5 P
SMI 38.9 0.5 S
DFU 29.5 0.5 P
DFU 48.5 0.5 S
XJI 37.3 0.5 P
XJI 61.5 0.5 S
# 2001 01 06 10 28 9.70 29.4833 105.867 8.000 3.5 0 0 0 120
GZA 53.7 0.5 P
MEK 64.4 1 P
WMP 35 1 P
WMP 60.6 1 S
MXI 46.1 0.5 P
# 2001 01 07 05 49 4.40 31.7333 104.233 5.000 2.8 0 0 0 133
MXI 10.3 0.5 P
MXI 17.4 0.5 S
WCH 14 0.5 P
WCH 23 0.5 S
YZP 21.4 1 P
YZP 35.6 1 S
MEK 34 1 P
MEK 56.3 1 S
XJI 34.3 0.5 P
XJI 57 0.5 S
# 2001 01 07 07 49 58.60 29.1667 103.683 10.000 2.9 0 0 0 137
WMP 4.7 1 P
WMP 6.7 1 S
EMS 19.7 1 S
LBO 18.4 0.5 P
LBO 29.4 0.5 S
GZA 32.4 0.5 P
GZA 54 0.5 S
YZP 35 1 P
YZP 57.6 1 S
# 2001 01 07 07 53 11.10 29.1333 103.683 12.000 2.3 0 0 0 138
WMP 3.4 1 P
WMP 5.4 1 S
EMS 18.2 1 S
LBO 17.3 0.5 P
LBO 27.9 0.5 S
GZA 32.3 0.5 P
GZA 52.5 0.5 S
YZP 33.3 1 P
YZP 55.9 1 S
# 2001 01 07 16 09 42.50 30.2 102.567 8.000 1.5 0 0 0 149
XJI 18.5 0.5 P
XJI 30.5 0.5 S
YZP 24.3 1 P
YZP 39 1 S
GZA 7.9 0.5 P
GZA 12.9 0.5 S
# 2001 01 08 02 02 37.40 31.5 104.05 10.000 2.1 0 0 0 153
MEK 32.4 1 P
MEK 53.5 1 S
MXI 7.3 0.5 P
MXI 11.6 0.5 S
WCH 9.6 0.5 P
WCH 15.6 0.5 S
YZP 16.2 1 P
YZP 27 1 S
# 2001 01 09 13 05 2.20 29.3833 101.133 0.000 3.4 0 0 0 191
JLO 13 0.5 P
JLO 21.1 0.5 S
GZA 23.6 0.5 P
GZA 39 0.5 S
SMI 23.8 0.5 P
SMI 39.5 0.5 S
DFU 27.9 0.5 P
DFU 46.4 0.5 S
# 2001 01 09 14 11 47.00 31.5667 104.2 10.000 1.7 0 0 0 196
MXI 7.6 0.5 P
MXI 12.5 0.5 S
WCH 11 0.5 P
WCH 18 0.5 S
# 2001 01 10 20 26 8.00 31.6167 103.867 5.000 1.3 0 0 0 243
MXI 5 0.5 P
MXI 7.7 0.5 S
WCH 7.6 0.5 P
WCH 12.2 0.5 S
# 2001 01 11 04 53 46.90 29.8333 102.817 0.000 1.3 0 0 0 255
EMS 21.9 1 S
YZP 25.7 1 P
YZP 43.1 1 S
GZA 13.6 0.5 P
GZA 21.9 0.5 S
# 2001 01 12 15 53 18.40 29.9167 103.117 0.000 2.4 0 0 0 293
EMS 20 1 S
GZA 18.3 0.5 P
GZA 29.9 0.5 S
SMI 20.8 0.5 P
SMI 34 0.5 S
YZP 21.3 1 P
YZP 35.2 1 S
WMP 21.6 1 P
WMP 36 1 S
XJI 25.2 0.5 P
XJI 41.6 0.5 S
LBO 32.6 0.5 P
LBO 54.9 0.5 S
JLO 33.1 0.5 P
JLO 55.1 0.5 S
# 2001 01 12 19 17 40.50 31.0333 103.517 8.000 1.5 0 0 0 296
MXI 20.5 0.5 P
YZP 7.1 1 P
YZP 12.6 1 S
WCH 11.9 0.5 P
WCH 19.1 0.5 S
# 2001 01 13 07 02 51.40 31.5833 104.333 11.000 1.5 0 0 0 307
MXI 10.9 0.5 P
MXI 17.5 0.5 S
WCH 14.4 0.5 P
WCH 23.2 0.5 S
# 2001 01 13 07 28 25.70 29.6667 104.533 0.000 2.5 0 0 0 308
YZP 30.3 1 P
YZP 51.1 1 S
LBO 32.3 0.5 P
LBO 54.1 0.5 S
# 2001 01 13 20 39 56.50 31.4167 102.483 10.000 2.8 0 0 0 322
XJI 9.3 0.5 P
XJI 14.7 0.5 S
MEK 10.5 1 P
MEK 17 1 S
WCH 18.5 0.5 P
WCH 30.5 0.5 S
YZP 20.9 1 P
YZP 34.9 1 S
MXI 23 0.5 P
MXI 38 0.5 S
DFU 24.4 0.5 P
DFU 40.5 0.5 S
GZA 24.9 0.5 P
GZA 41.1 0.5 S
# 2001 01 14 09 09 40.10 31.4667 104.067 0.000 1.6 0 0 0 337
MXI 6.4 0.5 P
MXI 10.9 0.5 S
WCH 7.1 0.5 P
WCH 11.3 0.5 S
# 2001 01 14 17 30 8.70 31.1167 103.7 0.000 1.8 0 0 0 353
YZP 7.5 1 P
YZP 12.3 1 S
WCH 9.3 0.5 P
WCH 15.1 0.5 S
MXI 12.7 0.5 P
MXI 21 0.5 S
# 2001 01 14 17 41 38.10 31.1 103.717 5.000 2.4 0 0 0 354
XJI 23.9 0.5 P
XJI 38.6 0.5 S
GZA 32.3 0.5 P
GZA 53.5 0.5 S
YZP 6.4 1 P
YZP 10.6 1 S
WCH 8.5 0.5 P
WCH 14.1 0.5 S
MXI 11.5 0.5 P
MXI 19.3 0.5 S
# 2001 01 14 18 20 23.10 31.1167 103.733 5.000 2.0 0 0 0 356
YZP 8.9 1 P
YZP 14.7 1 S
WCH 10.7 0.5 P
WCH 16.9 0.5 S
MXI 13.4 0.5 P
MXI 21.9 0.5 S
GZA 34.9 0.5 P
GZA 57.7 0.5 S
MEK 35.1 1 P
MEK 51.9 1 S
# 2001 01 15 05 21 35.30 30.2167 103.167 0.000 2.9 0 0 0 370
WCH 24.8 0.5 P
WCH 41.5 0.5 S
SMI 25 0.5 P
SMI 41.6 0.5 S
WMP 28.5 1 P
MXI 29.5 0.5 P
MXI 49.3 0.5 S
MEK 34.7 1 P
MEK 56.7 1 S
DFU 35.9 0.5 P
DFU 59.9 0.5 S
JLO 36.9 0.5 P
JLO 61 0.5 S
LBO 39.3 0.5 P
LBO 64.7 0.5 S
YZP 16.3 1 P
YZP 26.7 1 S
EMS 28.8 1 S
GZA 17.8 0.5 P
GZA 28.8 0.5 S
XJI 20.4 0.5 P
XJI 33.4 0.5 S
# 2001 01 15 08 54 9.10 31.6833 103.817 16.000 1.8 0 0 0 374
MXI 2.9 0.5 P
MXI 4.9 0.5 S
WCH 7.1 0.5 P
WCH 11.6 0.5 S
YZP 18.2 1 P
YZP 29.9 1 S
MEK 25.9 1 P
MEK 42.7 1 S
