# 2001 01 15 18 34 30.80 31.1 103.683 5.000 2.0 0 0 0 381
GZA 35.2 0.5 P
GZA 58.2 0.5 S
YZP 9.2 1 P
YZP 14.7 1 S
WCH 9.8 0.5 P
WCH 15.8 0.5 S
MXI 13.5 0.5 P
MXI 21.9 0.5 S
# 2001 01 15 21 20 39.40 32.0833 104.083 2.000 1.7 0 0 0 385
MXI 9.5 0.5 P
MXI 15.3 0.5 S
WCH 14.6 0.5 P
WCH 24.4 0.5 S
# 2001 01 17 05 04 33.70 31.6667 103.967 0.000 1.4 0 0 0 400
MXI 4 0.5 P
MXI 6.3 0.5 S
WCH 8.8 0.5 P
WCH 14.3 0.5 S
# 2001 01 17 05 21 39.10 31.5667 102.383 5.000 1.9 0 0 0 401
MEK 7.4 1 P
MEK 11.9 1 S
XJI 10.7 0.5 P
XJI 17.5 0.5 S
WCH 18.7 0.5 P
WCH 30.9 0.5 S
DFU 22.9 0.5 P
DFU 37.9 0.5 S
YZP 22.9 1 P
YZP 37.9 1 S
# 2001 01 17 05 29 38.50 28.7 103.75 0.000 2.5 0 0 0 402
SMI 27 0.5 P
SMI 45 0.5 S
WMP 8 1 P
WMP 13.8 1 S
LBO 9.3 0.5 P
LBO 15.2 0.5 S
EMS 31.8 1 S
# 2001 01 17 09 07 19.40 29.5333 101.033 0.000 2.6 0 0 0 405
JLO 11.9 0.5 P
JLO 19.5 0.5 S
GZA 23 0.5 P
GZA 38.2 0.5 S
SMI 23.3 0.5 P
SMI 38.6 0.5 S
DFU 26.6 0.5 P
DFU 44.6 0.5 S
# 2001 01 17 12 22 31.10 29.6667 103.217 0.000 1.1 0 0 0 410
WMP 27.6 1 S
YZP 25.2 1 P
YZP 41.7 1 S
# 2001 01 17 23 11 5.50 31.7833 101.917 3.000 1.4 0 0 0 422
MEK 5.8 1 P
MEK 9.5 1 S
XJI 19 0.5 P
XJI 31.5 0.5 S
# 2001 01 18 05 21 29.00 31.4667 102.417 5.000 1.5 0 0 0 426
MEK 7.8 1 P
MEK 12.8 1 S
XJI 10.3 0.5 P
XJI 17.1 0.5 S
WCH 19.5 0.5 P
WCH 32.3 0.5 S
# 2001 01 18 14 44 34.00 32.05 105.1 18.000 2.0 0 0 0 437
YZP 34.5 1 P
YZP 57.4 1 S
# 2001 01 18 15 26 30.30 29.4667 101.033 12.000 2.6 0 0 0 439
XJI 36.7 0.5 P
JLO 12.4 0.5 P
JLO 20 0.5 S
SMI 22.7 0.5 P
SMI 37.6 0.5 S
GZA 23.5 0.5 P
GZA 38.5 0.5 S
# 2001 01 18 18 32 40.40 29.4667 101.067 9.000 2.6 0 0 0 443
XJI 38.1 0.5 P
JLO 13.4 0.5 P
JLO 21.1 0.5 S
GZA 24.1 0.5 P
GZA 40.2 0.5 S
SMI 24.4 0.5 P
SMI 40.2 0.5 S
DFU 30.6 0.5 P
DFU 49.6 0.5 S
# 2001 01 18 20 06 12.50 31.5833 104.15 10.000 1.1 0 0 0 447
MXI 6.5 0.5 P
MXI 10.9 0.5 S
WCH 10 0.5 P
WCH 16.5 0.5 S
# 2001 01 19 09 08 58.70 31.2333 103.883 5.000 1.6 0 0 0 454
WCH 10.7 0.5 P
WCH 17.3 0.5 S
YZP 12.6 1 P
YZP 21.3 1 S
MXI 12.8 0.5 P
MXI 21.3 0.5 S
# 2001 01 19 10 45 45.20 29 105.783 9.000 2.1 0 0 0 455
WMP 36.2 1 P
WMP 60.1 1 S
# 2001 01 19 10 46 6.60 29 105.783 9.000 1.9 0 0 0 456
WMP 36 1 P
WMP 59.6 1 S
# 2001 01 20 04 11 33.40 29.6667 102.633 12.000 1.8 0 0 0 471
GZA 11.2 0.5 P
GZA 18.8 0.5 S
SMI 12.1 0.5 P
SMI 20.1 0.5 S
JLO 24.9 0.5 P
JLO 41.2 0.5 S
# 2001 01 21 06 09 43.80 31.8833 104.25 1.000 1.9 0 0 0 497
MXI 8.9 0.5 P
MXI 14.2 0.5 S
WCH 13.9 0.5 P
WCH 22.8 0.5 S
YZP 25.2 1 P
YZP 42.2 1 S
# 2001 01 21 08 16 31.60 31.1167 103.767 17.000 2.8 0 0 0 500
MEK 30.5 1 P
MEK 51.6 1 S
EMS 52.6 1 S
GZA 33.4 0.5 P
GZA 55.6 0.5 S
YZP 8.4 1 P
YZP 13.8 1 S
WCH 9.6 0.5 P
WCH 15.8 0.5 S
MXI 13.4 0.5 P
MXI 21.4 0.5 S
XJI 25 0.5 P
XJI 40.3 0.5 S
# 2001 01 21 13 08 44.50 31.1167 103.767 17.000 2.9 0 0 0 504
XJI 23.5 0.5 P
XJI 39.4 0.5 S
MEK 29.8 1 P
MEK 50.3 1 S
GZA 32.5 0.5 P
GZA 54.1 0.5 S
YZP 7.3 1 P
YZP 12.5 1 S
WCH 9.3 0.5 P
WCH 14.3 0.5 S
MXI 12.8 0.5 P
MXI 20.8 0.5 S
# 2001 01 21 14 05 36.60 31.1167 103.717 5.000 1.7 0 0 0 509
YZP 7 1 P
YZP 11.6 1 S
WCH 8.6 0.5 P
WCH 14.4 0.5 S
MXI 12.4 0.5 P
MXI 20.5 0.5 S
# 2001 01 21 14 25 45.40 31.1167 103.7 13.000 2.1 0 0 0 510
XJI 25 0.5 P
XJI 41 0.5 S
GZA 33.8 0.5 P
GZA 56.4 0.5 S
YZP 6.8 1 P
YZP 11.8 1 S
WCH 8.4 0.5 P
WCH 14.6 0.5 S
MXI 12.6 0.5 P
MXI 20.6 0.5 S
# 2001 01 21 16 45 14.30 31.3833 103.933 4.000 1.5 0 0 0 517
WCH 5.5 0.5 P
WCH 9.1 0.5 S
MXI 6 0.5 P
MXI 10.2 0.5 S
# 2001 01 22 03 03 47.60 31.1167 103.75 16.000 2.5 0 0 0 528
MXI 12.7 0.5 P
MXI 21.4 0.5 S
XJI 26.4 0.5 P
XJI 43.2 0.5 S
MEK 33.4 1 P
MEK 54.8 1 S
GZA 33.4 0.5 P
GZA 55 0.5 S
YZP 7.8 1 P
YZP 13 1 S
WCH 9.4 0.5 P
WCH 14.8 0.5 S
# 2001 01 22 16 13 55.60 31.0833 103.683 1.000 1.2 0 0 0 545
YZP 6.8 1 P
YZP 11 1 S
WCH 8.2 0.5 P
WCH 13.8 0.5 S
# 2001 01 23 01 14 0.10 31.1167 103.717 9.000 1.9 0 0 0 549
YZP 7.1 1 P
YZP 12.5 1 S
WCH 9.1 0.5 P
WCH 14.2 0.5 S
MXI 12.6 0.5 P
MXI 20.8 0.5 S
XJI 26.7 0.5 P
# 2001 01 23 11 07 48.70 31.5833 104.117 5.000 1.4 0 0 0 558
MXI 6.3 0.5 P
MXI 10.5 0.5 S
WCH 9.7 0.5 P
WCH 15.5 0.5 S
# 2001 01 25 00 31 21.40 29.5167 101.05 5.000 3.1 0 0 0 584
JLO 12.8 0.5 P
JLO 20.2 0.5 S
GZA 23.5 0.5 P
GZA 39.2 0.5 S
SMI 23.6 0.5 P
SMI 39.6 0.5 S
DFU 28.2 0.5 P
DFU 48.4 0.5 S
# 2001 01 25 01 35 47.50 29.45 101.017 0.000 2.8 0 0 0 586
JLO 12.6 0.5 P
JLO 20.4 0.5 S
GZA 23.5 0.5 P
GZA 39.1 0.5 S
SMI 23.9 0.5 P
SMI 38.8 0.5 S
DFU 30.5 0.5 P
DFU 50.3 0.5 S
# 2001 01 25 04 42 12.80 27.85 103.45 0.000 2.2 0 0 0 589
LBO 8.7 0.5 P
LBO 14.2 0.5 S
WMP 24.2 1 P
WMP 40.8 1 S
# 2001 01 25 08 40 55.60 30.0167 102.983 0.000 2.0 0 0 0 593
SMI 33.1 0.5 S
EMS 22.3 1 S
GZA 16.1 0.5 P
GZA 26.2 0.5 S
YZP 21.2 1 P
YZP 34.4 1 S
XJI 23.4 0.5 P
XJI 38 0.5 S
WCH 29 0.5 P
WCH 48.4 0.5 S
# 2001 01 25 09 46 46.70 30.9833 101.183 0.000 1.9 0 0 0 595
XJI 21.5 0.5 P
XJI 34.7 0.5 S
GZA 24.4 0.5 P
GZA 40.2 0.5 S
MEK 27.5 1 P
MEK 45.5 1 S
DFU 1.1 0.5 P
DFU 2.3 0.5 S
# 2001 01 26 01 17 18.60 29.0167 102.417 10.000 2.2 0 0 0 607
SMI 7.2 0.5 P
SMI 11.6 0.5 S
JLO 16.9 0.5 P
JLO 28.2 0.5 S
EMS 35.5 1 S
GZA 21.7 0.5 P
GZA 37 0.5 S
YZP 39.6 1 P
YZP 66 1 S
# 2001 01 26 01 19 44.20 31.6833 100.917 0.000 1.6 0 0 0 608
MEK 24.4 1 P
MEK 39.6 1 S
DFU 14.2 0.5 P
DFU 23.6 0.5 S
# 2001 01 26 04 33 33.90 29.9167 103.533 9.000 1.9 0 0 0 610
XJI 32.3 0.5 P
XJI 54.3 0.5 S
EMS 18 1 S
YZP 22.9 1 P
YZP 38.5 1 S
# 2001 01 26 11 01 38.20 32.1667 104.467 3.000 2.1 0 0 0 618
MXI 13.7 0.5 P
MXI 22.3 0.5 S
WCH 19.5 0.5 P
WCH 32.2 0.5 S
# 2001 01 27 07 21 30.80 27.8333 103.367 0.000 2.0 0 0 0 639
LBO 8.5 0.5 P
LBO 14.6 0.5 S
WMP 24.9 1 P
WMP 41 1 S
# 2001 01 28 16 17 7.30 28.7167 103.717 0.000 2.3 0 0 0 653
WMP 9.1 1 P
WMP 15.2 1 S
LBO 9.9 0.5 P
LBO 16.1 0.5 S
EMS 31.8 1 S
SMI 26.8 0.5 P
SMI 44.9 0.5 S
# 2001 01 29 04 14 37.30 30.9167 103.1 5.000 3.0 0 0 0 665
MEK 25 1 P
MEK 41 1 S
EMS 45 1 S
DFU 31.5 0.5 P
DFU 53 0.5 S
YZP 9.3 1 P
YZP 14.9 1 S
WCH 13.7 0.5 P
WCH 21.9 0.5 S
XJI 14 0.5 P
XJI 22.5 0.5 S
MXI 18.7 0.5 P
MXI 31.3 0.5 S
GZA 22.6 0.5 P
GZA 36.9 0.5 S
# 2001 01 30 03 54 18.70 31.5833 104.067 5.000 1.8 0 0 0 683
MXI 5.4 0.5 P
MXI 8.8 0.5 S
WCH 8.9 0.5 P
WCH 14.8 0.5 S
# 2001 01 30 13 47 50.70 28.1833 105.017 10.000 1.9 0 0 0 687
LBO 28.3 0.5 P
LBO 46.1 0.5 S
# 2001 01 31 00 29 59.00 28.9333 102.267 14.000 2.2 0 0 0 692
SMI 7 0.5 P
SMI 11.5 0.5 S
JLO 13.8 0.5 P
JLO 22.3 0.5 S
GZA 22.4 0.5 P
GZA 37.6 0.5 S
# 2001 01 31 17 23 9.60 30.3667 102.017 5.000 2.2 0 0 0 699
GZA 7.4 0.5 P
GZA 11.5 0.5 S
XJI 13.5 0.5 P
XJI 21.6 0.5 S
DFU 17.3 0.5 P
DFU 29.4 0.5 S
YZP 27.7 1 P
YZP 46.4 1 S
MEK 28.7 1 P
MEK 48 1 S
WCH 32.5 0.5 P
WCH 53.4 0.5 S
# 2001 01 31 17 29 17.40 29.4333 103.433 10.000 2.0 0 0 0 700
EMS 11.7 1 S
WMP 13.1 1 P
WMP 21.5 1 S
SMI 18 0.5 P
SMI 30.8 0.5 S
YZP 31.6 1 P
YZP 53.3 1 S
# 2001 01 31 18 29 21.00 27.3667 100.883 10.000 2.5 0 0 0 701
JLO 34.1 0.5 P
JLO 56.7 0.5 S
# 2001 01 31 21 37 12.60 31.9167 101.367 0.000 1.8 0 0 0 705
MEK 16.2 1 P
MEK 26 1 S
DFU 19.4 0.5 P
DFU 33 0.5 S
# 2001 01 31 21 50 55.60 32.2333 104.517 8.000 2.2 0 0 0 707
MXI 17 0.5 P
MXI 28.4 0.5 S
WCH 22.2 0.5 P
WCH 37.2 0.5 S
# 2001 02 02 01 23 34.30 32.0667 102.017 0.000 1.7 0 0 0 725
MEK 9.8 1 P
MEK 15.7 1 S
XJI 27.4 0.5 P
# 2001 02 02 14 42 34.50 29.55 103.233 8.000 2.6 0 0 0 732
YZP 28.4 1 P
YZP 46.8 1 S
LBO 28.9 0.5 P
LBO 47.1 0.5 S
JLO 30.9 0.5 P
JLO 51.5 0.5 S
XJI 32.4 0.5 P
XJI 53.4 0.5 S
EMS 9.5 1 S
WMP 13.3 1 P
WMP 22.2 1 S
SMI 16.8 0.5 P
SMI 28 0.5 S
GZA 22.1 0.5 P
GZA 36.3 0.5 S
# 2001 02 02 15 21 22.10 29.4 103.417 0.000 1.8 0 0 0 734
LBO 43.5 0.5 S
EMS 9.9 1 S
WMP 11.1 1 P
WMP 17.7 1 S
YZP 30.5 1 P
YZP 50.9 1 S
# 2001 02 02 17 53 14.50 31.1667 103.883 16.000 1.6 0 0 0 735
WCH 9.1 0.5 P
WCH 14.5 0.5 S
YZP 11.3 1 P
YZP 18.1 1 S
MXI 11.9 0.5 P
MXI 20 0.5 S
# 2001 02 03 16 13 41.00 32 102.717 9.000 1.6 0 0 0 746
MEK 11.5 1 P
MEK 19 1 S
XJI 25.4 0.5 P
# 2001 02 04 04 42 4.40 29.9833 103.117 0.000 2.0 0 0 0 753
EMS 20.9 1 S
GZA 18 0.5 P
GZA 29.2 0.5 S
YZP 20.8 1 P
YZP 33.4 1 S
SMI 21.2 0.5 P
SMI 34.9 0.5 S
XJI 24.4 0.5 P
XJI 40.2 0.5 S
JLO 33.2 0.5 P
JLO 55.6 0.5 S
# 2001 02 04 08 42 4.30 31.75 104.433 0.000 1.8 0 0 0 755
MXI 9.5 0.5 P
MXI 16.3 0.5 S
WCH 19.1 0.5 P
WCH 30.7 0.5 S
YZP 27.7 1 P
# 2001 02 04 16 55 46.20 31.5333 104.083 5.000 1.4 0 0 0 762
MXI 7.3 0.5 P
MXI 12.1 0.5 S
WCH 10 0.5 P
WCH 15.8 0.5 S
# 2001 02 04 17 42 53.90 31.6 104.433 0.000 1.5 0 0 0 763
MXI 10.6 0.5 P
MXI 17.1 0.5 S
WCH 15.5 0.5 P
WCH 24.7 0.5 S
# 2001 02 04 21 08 3.00 31.5667 101.917 12.000 1.7 0 0 0 768
MEK 8.2 1 P
MEK 13.4 1 S
XJI 13.8 0.5 P
XJI 22.5 0.5 S
DFU 18 0.5 P
DFU 29.7 0.5 S
# 2001 02 04 22 22 10.60 29.1833 101.983 5.000 2.3 0 0 0 769
JLO 7.5 0.5 P
JLO 13.1 0.5 S
SMI 8.8 0.5 P
SMI 14.6 0.5 S
GZA 18.2 0.5 P
GZA 29.7 0.5 S
# 2001 02 05 20 48 57.40 31.1667 103.65 5.000 1.5 0 0 0 784
YZP 7.6 1 P
YZP 12 1 S
WCH 7.6 0.5 P
WCH 12.1 0.5 S
MXI 11.2 0.5 P
MXI 18.8 0.5 S
# 2001 02 07 00 09 52.00 29.2333 101.983 0.000 2.3 0 0 0 796
JLO 8.4 0.5 P
JLO 14.4 0.5 S
SMI 9.6 0.5 P
SMI 15.5 0.5 S
GZA 19.1 0.5 P
GZA 31.6 0.5 S
# 2001 02 07 18 39 56.70 31.15 103.667 8.000 2.0 0 0 0 805
YZP 8.3 1 P
YZP 14.3 1 S
WCH 9.1 0.5 P
WCH 14.9 0.5 S
MXI 13.1 0.5 P
MXI 21.1 0.5 S
# 2001 02 08 00 20 30.10 30.4333 103.533 5.000 2.9 0 0 0 807
YZP 10.1 1 P
YZP 16.9 1 S
WCH 21.1 0.5 P
WCH 35.3 0.5 S
XJI 24.1 0.5 P
XJI 39.6 0.5 S
GZA 24.9 0.5 P
GZA 41.1 0.5 S
MXI 28.9 0.5 P
MXI 45.3 0.5 S
# 2001 02 09 11 33 16.60 30.6167 103.05 8.000 2.1 0 0 0 821
YZP 11.2 1 P
YZP 20 1 S
XJI 14.5 0.5 P
XJI 24 0.5 S
GZA 18 0.5 P
GZA 29.8 0.5 S
WCH 18.6 0.5 P
WCH 30.6 0.5 S
MEK 29.4 1 P
MEK 47.9 1 S
# 2001 02 09 17 44 48.60 30.4167 102.617 5.000 2.7 0 0 0 822
GZA 11.7 0.5 P
GZA 19.3 0.5 S
XJI 14.2 0.5 P
XJI 22.4 0.5 S
YZP 19.6 1 P
YZP 32.8 1 S
SMI 24.3 0.5 P
SMI 40.3 0.5 S
WCH 26.4 0.5 P
WCH 44.4 0.5 S
DFU 29.6 0.5 P
DFU 48.4 0.5 S
MEK 30.5 1 P
MEK 50.8 1 S
# 2001 02 10 11 06 21.10 29.0333 101.867 10.000 2.7 0 0 0 830
JLO 7.3 0.5 P
JLO 11.5 0.5 S
SMI 10.2 0.5 P
SMI 16.9 0.5 S
GZA 21.9 0.5 P
GZA 36.4 0.5 S
# 2001 02 10 15 10 52.70 28.4667 101.95 5.000 2.4 0 0 0 833
JLO 15.5 0.5 P
JLO 25.8 0.5 S
SMI 18.4 0.5 P
SMI 31 0.5 S
SMI 18.4 0.5 P
SMI 31 0.5 S
# 2001 02 11 00 02 52.00 29.3167 105.667 10.000 2.8 0 0 0 844
WMP 33.9 1 P
WMP 56.7 1 S
# 2001 02 11 00 41 37.50 26.8833 102.967 10.000 2.5 0 0 0 845
LBO 30.3 0.5 P
LBO 52.5 0.5 S
# 2001 02 11 01 33 20.40 29.1833 101.983 0.000 2.1 0 0 0 846
JLO 7.8 0.5 P
JLO 12.5 0.5 S
SMI 8.7 0.5 P
SMI 14.6 0.5 S
GZA 18.6 0.5 P
GZA 34 0.5 S
# 2001 02 11 05 16 18.00 29.2 105.6 3.000 2.0 0 0 0 852
WMP 30 1 P
WMP 50 1 S
# 2001 02 11 06 25 36.20 29.6667 102.283 0.000 2.1 0 0 0 854
XJI 26.6 0.5 P
XJI 43.3 0.5 S
YZP 31.9 1 P
YZP 52.9 1 S
SMI 8.6 0.5 P
SMI 15.8 0.5 S
GZA 9.6 0.5 P
GZA 14.9 0.5 S
JLO 19 0.5 P
JLO 32 0.5 S
# 2001 02 12 17 55 4.60 29.4333 101.083 6.000 2.7 0 0 0 895
JLO 11.8 0.5 P
JLO 19.5 0.5 S
SMI 22.7 0.5 P
SMI 37 0.5 S
GZA 22.9 0.5 P
GZA 37.4 0.5 S
DFU 28.6 0.5 P
DFU 48 0.5 S
# 2001 02 12 20 22 15.40 29.35 101.133 8.000 2.3 0 0 0 898
JLO 10.2 0.5 P
JLO 16.6 0.5 S
GZA 21.9 0.5 P
GZA 36.6 0.5 S
SMI 22.1 0.5 P
SMI 36.5 0.5 S
# 2001 02 12 20 44 50.10 29.4167 101.117 10.000 3.3 0 0 0 899
JLO 12.1 0.5 P
JLO 18.9 0.5 S
SMI 22.9 0.5 P
SMI 37.9 0.5 S
GZA 23 0.5 P
GZA 38.1 0.5 S
DFU 28.9 0.5 P
DFU 47.9 0.5 S
# 2001 02 12 21 01 50.20 29.3667 101.05 5.000 2.4 0 0 0 902
JLO 11.5 0.5 P
JLO 19.2 0.5 S
GZA 22.7 0.5 P
GZA 37.2 0.5 S
SMI 22.8 0.5 P
SMI 37.4 0.5 S
# 2001 02 13 01 00 9.40 29.45 101.033 15.000 2.8 0 0 0 911
JLO 11.8 0.5 P
JLO 20 0.5 S
GZA 22.8 0.5 P
GZA 37.8 0.5 S
SMI 22.9 0.5 P
SMI 37.6 0.5 S
DFU 29.2 0.5 P
DFU 48.6 0.5 S
# 2001 02 13 15 32 21.90 29.4833 101.067 5.000 2.4 0 0 0 924
JLO 12.6 0.5 P
JLO 19.9 0.5 S
SMI 23.1 0.5 P
SMI 38.2 0.5 S
GZA 23.1 0.5 P
GZA 39.1 0.5 S
DFU 29.1 0.5 P
DFU 48.1 0.5 S
# 2001 02 13 18 33 21.50 31.2 104.2 5.000 1.6 0 0 0 934
WCH 9.5 0.5 P
WCH 15.5 0.5 S
MXI 11.1 0.5 P
MXI 17.9 0.5 S
YZP 12.5 1 P
YZP 21.5 1 S
# 2001 02 14 01 42 22.20 29.3833 101.083 0.000 2.1 0 0 0 938
JLO 13.1 0.5 P
JLO 21 0.5 S
GZA 23.8 0.5 P
GZA 39.2 0.5 S
# 2001 02 14 05 36 5.20 29.1167 104.817 9.000 2.0 0 0 0 940
LBO 27.8 0.5 P
LBO 46 0.5 S
# 2001 02 14 13 00 32.60 29.4667 101.033 6.000 3.1 0 0 0 945
DFU 29.8 0.5 P
DFU 49.6 0.5 S
JLO 12.4 0.5 P
JLO 20.4 0.5 S
SMI 23.4 0.5 P
SMI 38.6 0.5 S
GZA 23.8 0.5 P
GZA 39.4 0.5 S
# 2001 02 14 15 27 28.20 29.4 101.083 8.000 0.0 0 0 0 946
YZP 48.8 1 P
JLO 12.8 0.5 P
JLO 20.8 0.5 S
SMI 23.4 0.5 P
SMI 38.5 0.5 S
GZA 23.4 0.5 P
GZA 38.6 0.5 S
DFU 29.2 0.5 P
DFU 49 0.5 S
# 2001 02 14 15 39 59.90 29.5 101.033 3.000 3.0 0 0 0 951
JLO 12.7 0.5 P
JLO 20.5 0.5 S
GZA 23.3 0.5 P
GZA 38.7 0.5 S
SMI 23.5 0.5 P
SMI 39.1 0.5 S
DFU 29.1 0.5 P
DFU 48.9 0.5 S
# 2001 02 14 15 51 22.00 29.4 101.033 0.000 2.5 0 0 0 955
JLO 12.5 0.5 P
JLO 20 0.5 S
GZA 23.4 0.5 P
GZA 39 0.5 S
# 2001 02 14 15 52 56.20 29.4167 101.083 5.000 1.9 0 0 0 956
JLO 12.2 0.5 P
JLO 20.1 0.5 S
GZA 23.8 0.5 P
GZA 39.2 0.5 S
# 2001 02 14 15 54 36.90 29.4167 101.033 6.000 2.5 0 0 0 957
GZA 23.2 0.5 P
GZA 38.5 0.5 S
JLO 12 0.5 P
JLO 19.9 0.5 S
# 2001 02 14 16 00 51.10 29.4167 101.133 0.000 2.1 0 0 0 959
JLO 11.9 0.5 P
JLO 19.6 0.5 S
GZA 23.3 0.5 P
GZA 38.3 0.5 S
# 2001 02 14 16 24 47.90 29.45 101.017 5.000 3.3 0 0 0 960
JLO 12.3 0.5 P
JLO 20.3 0.5 S
GZA 23.1 0.5 P
GZA 38.6 0.5 S
SMI 23.5 0.5 P
SMI 39.1 0.5 S
DFU 29.1 0.5 P
DFU 48.1 0.5 S
# 2001 02 14 16 48 45.40 29.4333 101.117 5.000 2.3 0 0 0 965
GZA 22.6 0.5 P
GZA 37.8 0.5 S
JLO 11.5 0.5 P
JLO 19.2 0.5 S
# 2001 02 14 17 50 30.90 29.4667 101.033 5.000 2.9 0 0 0 970
JLO 12.5 0.5 P
JLO 20.5 0.5 S
GZA 23.3 0.5 P
GZA 38.1 0.5 S
SMI 23.4 0.5 P
SMI 38.5 0.5 S
DFU 28.5 0.5 P
DFU 47.1 0.5 S
# 2001 02 14 18 34 57.00 29.45 101.017 5.000 2.6 0 0 0 976
JLO 12.6 0.5 P
JLO 20.2 0.5 S
GZA 23.3 0.5 P
GZA 38.6 0.5 S
SMI 23.4 0.5 P
SMI 38.8 0.5 S
DFU 30 0.5 P
DFU 49 0.5 S
# 2001 02 14 21 37 24.20 31.4333 104.1 9.000 1.9 0 0 0 990
MXI 7.2 0.5 P
MXI 11.6 0.5 S
WCH 9.6 0.5 P
WCH 15.8 0.5 S
YZP 16 1 P
YZP 26.9 1 S
# 2001 02 15 03 45 16.10 29.4167 101.117 9.000 2.1 0 0 0 999
JLO 12.5 0.5 P
JLO 20.3 0.5 S
GZA 23.9 0.5 P
GZA 39.3 0.5 S
# 2001 02 15 09 15 58.70 29.4667 101.017 8.000 2.7 0 0 0 1010
JLO 12.2 0.5 P
JLO 20.1 0.5 S
GZA 23.3 0.5 P
GZA 38.3 0.5 S
SMI 23.6 0.5 P
SMI 38.9 0.5 S
DFU 29.1 0.5 P
DFU 48.3 0.5 S
# 2001 02 15 12 11 11.70 31.9167 104.367 0.000 2.3 0 0 0 1015
MXI 10.5 0.5 P
MXI 17.1 0.5 S
WCH 15.5 0.5 P
WCH 25.7 0.5 S
YZP 25.7 1 P
YZP 42 1 S
# 2001 02 16 06 37 57.10 29.4833 101.017 9.000 2.7 0 0 0 1034
JLO 12.4 0.5 P
JLO 20.3 0.5 S
GZA 23.4 0.5 P
GZA 38.4 0.5 S
SMI 23.6 0.5 P
SMI 38.5 0.5 S
DFU 29.1 0.5 P
DFU 48.1 0.5 S
# 2001 02 16 07 03 16.80 29.4333 101.05 5.000 2.7 0 0 0 1035
JLO 12.4 0.5 P
JLO 20.6 0.5 S
GZA 23.2 0.5 P
GZA 38.6 0.5 S
SMI 23.6 0.5 P
SMI 38.6 0.5 S
DFU 29.2 0.5 P
DFU 48.8 0.5 S
# 2001 02 16 10 16 3.20 29.4333 101.067 5.000 2.2 0 0 0 1041
JLO 13 0.5 P
JLO 21.2 0.5 S
GZA 23.8 0.5 P
GZA 39.2 0.5 S
SMI 24.6 0.5 P
SMI 40.8 0.5 S
# 2001 02 16 10 31 41.30 29.3667 101.117 0.000 2.0 0 0 0 1042
GZA 23.5 0.5 P
GZA 38.3 0.5 S
JLO 11.9 0.5 P
JLO 19.2 0.5 S
# 2001 02 16 10 38 22.00 29.4 101.117 0.000 2.1 0 0 0 1043
JLO 12.5 0.5 P
JLO 20 0.5 S
GZA 23.4 0.5 P
GZA 39.4 0.5 S
# 2001 02 16 13 15 59.50 31.8667 104.367 0.000 1.7 0 0 0 1049
WCH 24.5 0.5 S
MXI 9.9 0.5 P
MXI 16.1 0.5 S
YZP 25.1 1 P
YZP 42.1 1 S
# 2001 02 16 22 41 49.40 31.25 103.867 4.000 1.7 0 0 0 1063
MXI 11.2 0.5 P
MXI 18.4 0.5 S
YZP 12.6 1 P
YZP 21.4 1 S
WCH 9.8 0.5 P
WCH 16.2 0.5 S
# 2001 02 17 03 46 46.30 29.4667 101.067 0.000 2.2 0 0 0 1070
GZA 22.3 0.5 P
GZA 37.3 0.5 S
DFU 28.7 0.5 P
DFU 48.7 0.5 S
JLO 12.1 0.5 P
JLO 19.9 0.5 S
# 2001 02 17 07 59 1.90 28.7167 103.617 0.000 1.2 0 0 0 1076
LBO 16.1 0.5 S
WMP 8.9 1 P
WMP 14.7 1 S
EMS 31.8 1 S
GZA 39.1 0.5 P
GZA 64.9 0.5 S
# 2001 02 17 13 43 44.80 29.4333 101.033 4.000 2.3 0 0 0 1082
SMI 23.2 0.5 P
SMI 38.8 0.5 S
GZA 23.3 0.5 P
GZA 38.2 0.5 S
JLO 12.1 0.5 P
JLO 19.9 0.5 S
# 2001 02 17 17 43 43.50 31.1833 103.5 5.000 2.2 0 0 0 1095
MXI 20.3 0.5 S
XJI 18.7 0.5 P
XJI 31 0.5 S
MEK 25.4 1 P
MEK 41.1 1 S
GZA 30.5 0.5 P
GZA 50 0.5 S
WCH 7.5 0.5 P
WCH 12.1 0.5 S
YZP 7.9 1 P
YZP 13.3 1 S
# 2001 02 17 18 05 51.10 29.4 101.033 11.000 2.1 0 0 0 1096
JLO 12.8 0.5 P
JLO 20.6 0.5 S
GZA 23.5 0.5 P
GZA 38.9 0.5 S
# 2001 02 17 19 08 10.20 32.1833 103.6 16.000 1.8 0 0 0 1098
MXI 14 0.5 P
MXI 22.6 0.5 S
WCH 16 0.5 P
WCH 26.8 0.5 S
MEK 22.8 1 P
MEK 37.8 1 S
# 2001 02 17 21 41 17.60 29.7167 102.217 7.000 1.9 0 0 0 1102
GZA 7 0.5 P
GZA 11.6 0.5 S
JLO 17.9 0.5 P
JLO 29.7 0.5 S
WMP 30.4 1 P
WMP 50.8 1 S
# 2001 02 18 09 23 19.80 29.4667 101.05 4.000 2.2 0 0 0 1116
JLO 12 0.5 P
JLO 20 0.5 S
GZA 23 0.5 P
GZA 38.2 0.5 S
SMI 23.2 0.5 P
SMI 38.2 0.5 S
# 2001 02 18 09 55 17.30 29.3667 105.617 1.000 2.3 0 0 0 1118
WMP 30.5 1 P
WMP 50.4 1 S
WMP 50.4 1 S
# 2001 02 18 12 10 43.40 29.7333 102.367 12.000 1.2 0 0 0 1120
WMP 27.6 1 P
WMP 45.7 1 S
YZP 30.2 1 P
YZP 50.3 1 S
GZA 8.3 0.5 P
GZA 13.7 0.5 S
# 2001 02 18 15 50 36.80 29.4167 105.533 0.000 2.8 0 0 0 1126
WMP 28.9 1 P
WMP 48 1 S
# 2001 02 19 02 13 14.20 29.4667 101.117 5.000 2.1 0 0 0 1141
JLO 11.8 0.5 P
JLO 19.8 0.5 S
GZA 23.4 0.5 P
GZA 37.9 0.5 S
# 2001 02 19 02 29 22.60 29.3833 101.067 8.000 1.8 0 0 0 1142
JLO 12.3 0.5 P
JLO 20.2 0.5 S
GZA 23.2 0.5 P
GZA 38.8 0.5 S
# 2001 02 19 13 16 49.10 29.4333 101.083 14.000 2.6 0 0 0 1153
JLO 12.5 0.5 P
JLO 20.2 0.5 S
GZA 23.2 0.5 P
GZA 38.5 0.5 S
SMI 23.7 0.5 P
SMI 38.7 0.5 S
DFU 29.5 0.5 P
DFU 48.5 0.5 S
# 2001 02 19 13 37 16.20 29.4333 101.083 11.000 2.5 0 0 0 1155
JLO 12.5 0.5 P
JLO 20.3 0.5 S
GZA 23.1 0.5 P
GZA 38.4 0.5 S
SMI 23.8 0.5 P
SMI 38.5 0.5 S
DFU 29.8 0.5 P
DFU 49.2 0.5 S
# 2001 02 19 23 30 39.40 28.2667 103.45 5.000 2.4 0 0 0 1162
EMS 50.1 1 S
LBO 4.8 0.5 P
LBO 7.2 0.5 S
WMP 19.5 1 P
WMP 32.2 1 S
# 2001 02 20 08 21 28.40 29.4333 101.083 5.000 2.8 0 0 0 1171
JLO 12.8 0.5 P
JLO 20.6 0.5 S
GZA 23.4 0.5 P
GZA 38.8 0.5 S
SMI 23.6 0.5 P
SMI 38.5 0.5 S
DFU 29.3 0.5 P
DFU 49 0.5 S
# 2001 02 20 18 04 29.70 31.8333 104.417 2.000 1.5 0 0 0 1189
MXI 11.9 0.5 P
MXI 19.7 0.5 S
WCH 16.7 0.5 P
WCH 27.9 0.5 S
# 2001 02 20 20 17 39.50 31.6333 104.483 0.000 1.6 0 0 0 1192
MXI 11.9 0.5 P
MXI 19.5 0.5 S
WCH 16.7 0.5 P
WCH 27.5 0.5 S
# 2001 02 21 08 44 55.20 31.7667 103.283 0.000 1.5 0 0 0 1202
WCH 7.6 0.5 P
WCH 13 0.5 S
MXI 10.7 0.5 P
MXI 17.2 0.5 S
MEK 16.1 1 P
MEK 26.8 1 S
# 2001 02 21 19 39 12.90 29.4333 101.067 3.000 2.0 0 0 0 1217
JLO 12.5 0.5 P
JLO 20.5 0.5 S
GZA 23.3 0.5 P
GZA 38.3 0.5 S
# 2001 02 21 19 44 14.00 29.4667 101.067 7.000 2.4 0 0 0 1218
JLO 12.5 0.5 P
JLO 20.2 0.5 S
GZA 23.1 0.5 P
GZA 38.6 0.5 S
DFU 29.6 0.5 P
DFU 49.4 0.5 S
# 2001 02 21 23 25 58.60 29.4167 101.1 8.000 2.0 0 0 0 1222
JLO 12.2 0.5 P
JLO 20.2 0.5 S
GZA 22.8 0.5 P
GZA 37.8 0.5 S
# 2001 02 21 23 57 52.60 31.8667 104.183 1.000 1.9 0 0 0 1223
MXI 8 0.5 P
MXI 13.2 0.5 S
WCH 13 0.5 P
WCH 21.6 0.5 S
# 2001 02 22 19 05 56.50 29.7333 102.567 5.000 1.8 0 0 0 1240
GZA 11.3 0.5 P
GZA 18.1 0.5 S
SMI 11.7 0.5 P
SMI 19.3 0.5 S
XJI 25.1 0.5 P
XJI 41.3 0.5 S
YZP 28.3 1 P
YZP 47.1 1 S
# 2001 02 23 01 55 52.00 31.6333 102.383 10.000 2.0 0 0 0 1243
XJI 14 0.5 P
XJI 22.8 0.5 S
WCH 20 0.5 P
WCH 33 0.5 S
MXI 23.9 0.5 P
MXI 39.6 0.5 S
YZP 25.8 1 P
YZP 43.2 1 S
GZA 30.7 0.5 P
GZA 50.6 0.5 S
MEK 4.9 1 P
MEK 7.5 1 S
# 2001 02 23 08 07 4.50 29.4167 101.033 5.000 2.3 0 0 0 1245
JLO 12 0.5 P
JLO 19.8 0.5 S
GZA 23.3 0.5 P
GZA 38.3 0.5 S
SMI 23.3 0.5 P
SMI 38.5 0.5 S
# 2001 02 23 08 09 18.90 29.4167 101.1 6.000 0.0 0 0 0 1246
JLO 13.3 0.5 P
SMI 24 0.5 P
GZA 24.1 0.5 P
GZA 39.5 0.5 S
# 2001 02 23 09 34 43.00 29.4667 101 0.000 3.0 0 0 0 1247
GZA 23.8 0.5 P
GZA 40 0.5 S
SMI 24.1 0.5 P
SMI 40.2 0.5 S
DFU 29.6 0.5 P
DFU 49.5 0.5 S
JLO 12.5 0.5 P
JLO 20.5 0.5 S
# 2001 02 23 09 39 38.00 29.4333 101.1 8.000 2.7 0 0 0 1248
SMI 22.1 0.5 P
SMI 36.5 0.5 S
GZA 23.3 0.5 P
GZA 38.8 0.5 S
SMI 23.5 0.5 P
SMI 39.5 0.5 S
DFU 29 0.5 P
DFU 48.2 0.5 S
JLO 12.5 0.5 P
JLO 20.3 0.5 S
# 2001 02 23 10 11 51.00 29.4333 101.033 0.000 4.2 0 0 0 1250
JLO 14 0.5 P
JLO 21.8 0.5 S
SMI 25.2 0.5 P
SMI 40.3 0.5 S
GZA 25.2 0.5 P
GZA 40.6 0.5 S
DFU 30.5 0.5 P
DFU 49.5 0.5 S
