# 2001 05 05 10 35 29.10 29.4333 101.1 9.000 2.7 0 0 0 3011
DFU 31.1 0.5 P
DFU 51.3 0.5 S
JLO 11.8 0.5 P
JLO 18.9 0.5 S
SMI 22.5 0.5 P
SMI 36.9 0.5 S
GZA 23.7 0.5 P
GZA 39.3 0.5 S
# 2001 05 05 13 27 0.20 29.4333 101.083 5.000 2.5 0 0 0 3020
JLO 11.4 0.5 P
JLO 18.4 0.5 S
SMI 21.8 0.5 P
SMI 35.8 0.5 S
GZA 23.2 0.5 P
GZA 38.2 0.5 S
DFU 30.2 0.5 P
DFU 49.8 0.5 S
# 2001 05 05 13 30 24.20 29.4333 101.15 13.000 3.1 0 0 0 3022
JLO 10.6 0.5 P
JLO 17.6 0.5 S
SMI 20.9 0.5 P
SMI 34.9 0.5 S
GZA 22.4 0.5 P
GZA 37.4 0.5 S
DFU 29.8 0.5 P
DFU 50 0.5 S
XJI 36.6 0.5 P
XJI 60.8 0.5 S
# 2001 05 05 17 15 26.00 29.4167 101.1 0.000 2.2 0 0 0 3035
JLO 11 0.5 P
JLO 17.8 0.5 S
SMI 22.6 0.5 P
SMI 37.6 0.5 S
GZA 22.8 0.5 P
GZA 38 0.5 S
# 2001 05 05 17 24 5.20 29.4 101.1 0.000 2.4 0 0 0 3037
JLO 11.9 0.5 P
JLO 19 0.5 S
SMI 22.8 0.5 P
SMI 37.8 0.5 S
GZA 23.4 0.5 P
GZA 38.6 0.5 S
# 2001 05 05 17 29 20.90 31.9 101.533 0.000 2.4 0 0 0 3038
MEK 11.7 1 P
MEK 19.6 1 S
DFU 19.9 0.5 P
DFU 31.2 0.5 S
XJI 21.9 0.5 P
XJI 35.7 0.5 S
# 2001 05 05 18 41 9.20 29.4667 101.1 5.000 3.0 0 0 0 3044
JLO 12.4 0.5 P
JLO 20.2 0.5 S
SMI 22.2 0.5 P
SMI 36.8 0.5 S
GZA 22.8 0.5 P
GZA 38.2 0.5 S
DFU 29.8 0.5 P
DFU 49.8 0.5 S
XJI 36.4 0.5 P
XJI 60.8 0.5 S
# 2001 05 05 19 39 25.10 29.1833 106.017 0.000 3.4 0 0 0 3048
WMP 39 1 P
WMP 64.5 1 S
LBO 44.9 0.5 P
LBO 73.9 0.5 S
# 2001 05 06 11 23 35.20 29.4 101.05 8.000 2.5 0 0 0 3077
JLO 11 0.5 P
JLO 18.6 0.5 S
GZA 22.9 0.5 P
GZA 37.8 0.5 S
# 2001 05 06 17 38 24.20 29.4333 101.15 6.000 2.1 0 0 0 3085
JLO 10.6 0.5 P
JLO 17.8 0.5 S
GZA 22.8 0.5 P
GZA 37.6 0.5 S
# 2001 05 06 19 46 26.60 29.4 101.083 8.000 2.4 0 0 0 3087
JLO 11.2 0.5 P
JLO 18.4 0.5 S
GZA 22.8 0.5 P
GZA 37.9 0.5 S
# 2001 05 07 09 36 32.20 29.3167 105.517 0.000 2.6 0 0 0 3098
WMP 30.2 1 P
WMP 50.3 1 S
# 2001 05 07 21 50 34.00 30.1 104.033 5.000 2.4 0 0 0 3107
WCH 32.2 0.5 P
WCH 54 0.5 S
GZA 33.8 0.5 P
GZA 56 0.5 S
XJI 36.7 0.5 P
YZP 20.2 1 P
YZP 32.7 1 S
# 2001 05 07 23 37 36.80 29.4167 101.1 9.000 2.0 0 0 0 3109
GZA 23.3 0.5 P
GZA 38.9 0.5 S
JLO 12.6 0.5 P
JLO 20.4 0.5 S
# 2001 05 08 15 45 47.60 29.1167 102.45 16.000 2.3 0 0 0 3132
JLO 17 0.5 P
JLO 28.1 0.5 S
GZA 21.1 0.5 P
GZA 35 0.5 S
WMP 25 1 P
WMP 39.2 1 S
XJI 36.6 0.5 P
XJI 60.8 0.5 S
SMI 5.8 0.5 P
SMI 9.2 0.5 S
# 2001 05 08 18 45 5.40 29.1167 102.333 13.000 2.1 0 0 0 3136
SMI 5.2 0.5 P
SMI 8.8 0.5 S
JLO 15.4 0.5 P
JLO 25.5 0.5 S
GZA 20.4 0.5 P
GZA 33.6 0.5 S
# 2001 05 08 21 41 51.60 31.7333 103.4 0.000 1.7 0 0 0 3140
WCH 5.8 0.5 P
WCH 9.4 0.5 S
MXI 7.3 0.5 P
MXI 12.2 0.5 S
# 2001 05 08 21 52 11.20 29.7667 102.517 0.000 1.7 0 0 0 3141
WCH 63.2 0.5 S
GZA 9.8 0.5 P
GZA 16.2 0.5 S
JLO 22.8 0.5 P
JLO 37.4 0.5 S
# 2001 05 08 23 29 43.50 32.5333 102.567 17.000 1.7 0 0 0 3143
MEK 17.9 1 P
MEK 29.1 1 S
# 2001 05 09 07 19 17.20 29.4333 101 0.000 2.8 0 0 0 3152
JLO 12.5 0.5 P
JLO 20.5 0.5 S
GZA 23.8 0.5 P
GZA 39 0.5 S
SMI 23.8 0.5 P
SMI 39 0.5 S
DFU 29.2 0.5 P
DFU 48.8 0.5 S
# 2001 05 10 16 47 6.30 31.1667 103.617 12.000 1.9 0 0 0 3185
YZP 7.9 1 P
YZP 13.1 1 S
WCH 8.5 0.5 P
WCH 14.1 0.5 S
MXI 12.4 0.5 P
MXI 20.5 0.5 S
# 2001 05 11 14 07 25.70 31.9167 104.733 5.000 1.6 0 0 0 3201
MXI 16.3 0.5 P
MXI 27.1 0.5 S
WCH 22.3 0.5 P
WCH 36.3 0.5 S
# 2001 05 11 18 27 42.00 32.0667 103.667 0.000 1.8 0 0 0 3206
MXI 8.2 0.5 P
MXI 14 0.5 S
WCH 11.6 0.5 P
WCH 18.6 0.5 S
# 2001 05 12 07 34 9.60 29.4 101.117 0.000 2.0 0 0 0 3218
SMI 37.8 0.5 S
JLO 10.8 0.5 P
JLO 17.8 0.5 S
GZA 22.4 0.5 P
GZA 37.4 0.5 S
# 2001 05 12 09 36 51.70 29.3667 101.1 0.000 2.7 0 0 0 3221
JLO 11.5 0.5 P
JLO 18.6 0.5 S
SMI 22.5 0.5 P
SMI 37.3 0.5 S
GZA 23.1 0.5 P
GZA 38.1 0.5 S
# 2001 05 12 19 54 40.40 31.2167 103.817 5.000 1.6 0 0 0 3234
WCH 9.2 0.5 P
WCH 15.4 0.5 S
MXI 11.6 0.5 P
MXI 19.6 0.5 S
# 2001 05 12 20 50 51.60 30.1167 102.833 8.000 2.0 0 0 0 3236
GZA 12 0.5 P
GZA 19.4 0.5 S
XJI 19.9 0.5 P
XJI 32.4 0.5 S
# 2001 05 12 22 00 54.00 29.4667 102.15 0.000 1.8 0 0 0 3238
SMI 6.2 0.5 P
SMI 10.4 0.5 S
GZA 11.1 0.5 P
GZA 19 0.5 S
JLO 15 0.5 P
JLO 24 0.5 S
# 2001 05 14 03 29 36.00 31.5167 104.05 12.000 1.9 0 0 0 3262
MXI 9.2 0.5 P
MXI 14.2 0.5 S
WCH 10.1 0.5 P
WCH 17.5 0.5 S
YZP 18.5 1 P
YZP 31 1 S
# 2001 05 14 03 57 37.00 29.9333 103.167 0.000 2.5 0 0 0 3263
XJI 25.6 0.5 P
XJI 42.4 0.5 S
WCH 31 0.5 P
WCH 51 0.5 S
LBO 32.8 0.5 P
LBO 54.6 0.5 S
JLO 33.5 0.5 P
JLO 56 0.5 S
MXI 34.8 0.5 P
MXI 58.1 0.5 S
EMS 17.7 1 S
GZA 18.6 0.5 P
GZA 30.8 0.5 S
SMI 20.4 0.5 P
SMI 34 0.5 S
YZP 20.5 1 P
YZP 34 1 S
# 2001 05 14 10 39 44.10 29.4167 101.1 0.000 2.0 0 0 0 3267
SMI 23.1 0.5 P
SMI 38.7 0.5 S
GZA 23.3 0.5 P
GZA 38.7 0.5 S
JLO 11.3 0.5 P
JLO 18.4 0.5 S
# 2001 05 14 12 30 55.70 30.2667 102.633 0.000 1.7 0 0 0 3269
SMI 36.3 0.5 S
GZA 9.7 0.5 P
GZA 15.9 0.5 S
XJI 14.6 0.5 P
XJI 23.8 0.5 S
YZP 14.6 1 P
# 2001 05 15 00 13 4.90 29.2 102.417 12.000 1.6 0 0 0 3281
GZA 28.5 0.5 S
SMI 1.7 0.5 P
SMI 2.9 0.5 S
JLO 14.8 0.5 P
JLO 24.9 0.5 S
# 2001 05 15 03 26 19.50 29.4 101.1 0.000 2.0 0 0 0 3284
SMI 37.5 0.5 S
JLO 10.9 0.5 P
JLO 17.9 0.5 S
GZA 22.5 0.5 P
GZA 37.1 0.5 S
# 2001 05 15 08 04 10.50 29.4167 101.1 0.000 1.9 0 0 0 3296
SMI 37.5 0.5 S
JLO 10.5 0.5 P
JLO 17.4 0.5 S
GZA 23.3 0.5 P
GZA 38.3 0.5 S
# 2001 05 15 09 22 51.30 29.4 101.1 0.000 1.9 0 0 0 3299
SMI 38.9 0.5 S
JLO 11.6 0.5 P
JLO 18.9 0.5 S
GZA 22.7 0.5 P
GZA 37.7 0.5 S
# 2001 05 15 13 33 55.00 29.4833 102.083 0.000 1.8 0 0 0 3307
SMI 6.4 0.5 P
SMI 10.8 0.5 S
GZA 11.4 0.5 P
GZA 19.2 0.5 S
JLO 15.3 0.5 P
JLO 24.3 0.5 S
# 2001 05 15 16 23 35.10 29.8833 102.433 8.000 1.9 0 0 0 3311
GZA 8.9 0.5 P
GZA 14.1 0.5 S
SMI 13.1 0.5 P
SMI 22.9 0.5 S
XJI 24.5 0.5 P
XJI 40.1 0.5 S
# 2001 05 16 07 17 56.30 31.2833 103.783 12.000 2.0 0 0 0 3324
WCH 5.7 0.5 P
WCH 8.7 0.5 S
YZP 6 1 P
YZP 10.9 1 S
MXI 7.9 0.5 P
MXI 13.2 0.5 S
XJI 25.4 0.5 P
XJI 41.7 0.5 S
MEK 28.7 1 P
MEK 47.7 1 S
GZA 36.3 0.5 P
GZA 59.7 0.5 S
# 2001 05 16 12 43 35.30 29.8333 102.417 14.000 1.6 0 0 0 3329
GZA 8 0.5 P
GZA 13.1 0.5 S
SMI 11.6 0.5 P
SMI 19.5 0.5 S
JLO 22.3 0.5 P
JLO 36.9 0.5 S
# 2001 05 16 18 28 4.30 31.8667 102.7 12.000 1.7 0 0 0 3337
MEK 7.6 1 P
MEK 12.4 1 S
WCH 16.2 0.5 P
WCH 26.7 0.5 S
XJI 17.9 0.5 P
XJI 29.5 0.5 S
# 2001 05 16 19 25 16.10 29.5333 102.183 5.000 1.9 0 0 0 3339
SMI 6.4 0.5 P
SMI 10.5 0.5 S
GZA 11.4 0.5 P
GZA 19.2 0.5 S
JLO 14.9 0.5 P
JLO 24.3 0.5 S
# 2001 05 17 11 20 57.00 31.2667 100.917 10.000 2.6 0 0 0 3354
DFU 6.4 0.5 P
DFU 10.5 0.5 S
XJI 24.5 0.5 P
XJI 40.6 0.5 S
MEK 25.4 1 P
MEK 42 1 S
# 2001 05 17 12 42 55.20 29.4667 101.083 0.000 1.7 0 0 0 3358
JLO 12.6 0.5 P
JLO 20.8 0.5 S
GZA 23.3 0.5 P
GZA 38.1 0.5 S
# 2001 05 18 02 05 20.60 32.7 103.717 5.000 2.3 0 0 0 3377
MXI 24.4 0.5 P
MXI 40.4 0.5 S
WCH 27.9 0.5 P
WCH 46.4 0.5 S
MEK 31.4 1 P
MEK 51.9 1 S
# 2001 05 18 02 44 3.60 29.4333 101.033 0.000 2.4 0 0 0 3379
JLO 13.4 0.5 P
JLO 21.4 0.5 S
GZA 24 0.5 P
GZA 39.1 0.5 S
SMI 24.6 0.5 P
SMI 40.4 0.5 S
# 2001 05 18 16 29 20.70 28.4667 101.95 13.000 1.9 0 0 0 3391
JLO 13.7 0.5 P
JLO 22.1 0.5 S
SMI 16.8 0.5 P
SMI 27.3 0.5 S
# 2001 05 19 03 05 27.90 31.5333 103.967 10.000 1.5 0 0 0 3408
MXI 4.3 0.5 P
MXI 7.1 0.5 S
WCH 6.6 0.5 P
WCH 11.1 0.5 S
# 2001 05 19 17 57 9.60 29.1333 102.367 5.000 2.0 0 0 0 3425
SMI 6 0.5 P
SMI 10 0.5 S
JLO 16 0.5 P
JLO 26.8 0.5 S
GZA 19.9 0.5 P
GZA 33.4 0.5 S
WMP 24.7 1 P
WMP 40.6 1 S
# 2001 05 20 02 58 7.20 29.5333 101.033 5.000 2.3 0 0 0 3431
JLO 13 0.5 P
JLO 21.2 0.5 S
GZA 23.6 0.5 P
GZA 39 0.5 S
SMI 24.3 0.5 P
SMI 39.8 0.5 S
DFU 28.6 0.5 P
DFU 47.6 0.5 S
# 2001 05 20 09 02 4.90 29.2333 102.35 5.000 1.9 0 0 0 3436
SMI 4.3 0.5 P
SMI 6.8 0.5 S
JLO 14.9 0.5 P
JLO 24.5 0.5 S
# 2001 05 20 11 50 47.90 32.1 101.583 1.000 3.0 0 0 0 3441
MEK 14.1 1 P
MEK 23.1 1 S
DFU 24.5 0.5 P
DFU 41.1 0.5 S
XJI 27.6 0.5 P
XJI 45.9 0.5 S
YZP 38.7 1 P
YZP 64 1 S
# 2001 05 20 11 52 47.40 32.1 101.583 8.000 2.8 0 0 0 3442
MEK 14 1 P
MEK 23.1 1 S
DFU 24.6 0.5 P
DFU 40.8 0.5 S
XJI 27.8 0.5 P
XJI 46.1 0.5 S
YZP 37.9 1 P
YZP 63.2 1 S
# 2001 05 20 11 57 51.60 32.1 101.517 0.000 2.2 0 0 0 3443
MEK 13.7 1 P
MEK 22.4 1 S
XJI 27.9 0.5 P
XJI 46.4 0.5 S
# 2001 05 21 00 57 25.50 29.4167 101.083 7.000 1.9 0 0 0 3467
JLO 10.5 0.5 P
JLO 17.3 0.5 S
GZA 22.5 0.5 P
GZA 37.5 0.5 S
# 2001 05 21 17 06 51.50 31.6667 104.65 2.000 1.8 0 0 0 3493
MXI 12.7 0.5 P
MXI 20.5 0.5 S
WCH 17.5 0.5 P
WCH 29.5 0.5 S
YZP 28.9 1 P
# 2001 05 21 19 30 18.90 29.4833 103.683 5.000 2.5 0 0 0 3499
WMP 19.6 1 S
EMS 12 1 S
YZP 28.2 1 P
YZP 46.7 1 S
GZA 30.7 0.5 P
# 2001 05 22 05 33 19.60 31.9833 101.417 0.000 2.1 0 0 0 3519
MEK 14.2 1 P
MEK 23.9 1 S
DFU 25.4 0.5 P
XJI 28 0.5 P
XJI 46.2 0.5 S
# 2001 05 22 14 16 54.00 32 101.05 0.000 2.1 0 0 0 3535
MEK 20.7 1 P
MEK 34.1 1 S
XJI 30.2 0.5 P
XJI 51.2 0.5 S
# 2001 05 22 20 39 2.60 29.4167 101.083 5.000 2.4 0 0 0 3548
JLO 11.2 0.5 P
JLO 18.2 0.5 S
GZA 23 0.5 P
GZA 38.4 0.5 S
# 2001 05 22 23 28 43.70 31.2667 103.9 10.000 1.7 0 0 0 3555
WCH 10.5 0.5 P
WCH 17.3 0.5 S
MXI 11.5 0.5 P
MXI 19.3 0.5 S
YZP 12.5 1 P
YZP 20.8 1 S
# 2001 05 22 23 41 35.10 31.4667 102.117 5.000 2.2 0 0 0 3556
GZA 25.1 0.5 P
GZA 42.3 0.5 S
YZP 26.5 1 P
YZP 43.4 1 S
MXI 28.2 0.5 P
MXI 48.3 0.5 S
MEK 8.4 1 P
MEK 14 1 S
XJI 10 0.5 P
XJI 16.9 0.5 S
DFU 18.7 0.5 P
DFU 31.5 0.5 S
WCH 23.9 0.5 P
WCH 39.9 0.5 S
# 2001 05 23 02 28 37.20 28.1 103.5 5.000 3.3 0 0 0 3558
SMI 29.9 0.5 P
SMI 52.4 0.5 S
EMS 49.8 1 S
JLO 38.4 0.5 P
GZA 43.8 0.5 P
WCH 57.2 0.5 P
LBO 5.2 0.5 P
LBO 8.8 0.5 S
MEK 68.9 1 P
WMP 20.2 1 P
WMP 34 1 S
# 2001 05 23 07 32 8.30 29.1833 101.867 5.000 2.2 0 0 0 3560
JLO 7.7 0.5 P
JLO 12.7 0.5 S
SMI 9 0.5 P
SMI 14.9 0.5 S
GZA 18.5 0.5 P
GZA 30.5 0.5 S
# 2001 05 23 11 01 11.80 29.2833 103.033 10.000 2.0 0 0 0 3564
EMS 18 1 S
SMI 12.3 0.5 P
SMI 20.4 0.5 S
WMP 14.2 1 P
WMP 23.5 1 S
GZA 22.2 0.5 P
GZA 36.6 0.5 S
LBO 23.8 0.5 P
LBO 39.8 0.5 S
JLO 27 0.5 P
JLO 44.2 0.5 S
YZP 31 1 P
# 2001 05 23 13 17 45.30 32.0333 105.2 10.000 2.0 0 0 0 3570
WCH 50.1 0.5 S
MXI 25.9 0.5 P
MXI 43.1 0.5 S
# 2001 05 24 03 45 4.20 31.45 104.083 10.000 1.7 0 0 0 3588
MXI 7.2 0.5 P
MXI 11.8 0.5 S
WCH 9.4 0.5 P
WCH 15.6 0.5 S
WCH 9.4 0.5 P
WCH 15.6 0.5 S
# 2001 05 24 04 47 28.80 31.0333 103.333 0.000 1.4 0 0 0 3591
WCH 17.6 0.5 S
MXI 26.8 0.5 S
YZP 6.2 1 P
YZP 9.6 1 S
XJI 15.1 0.5 P
XJI 24.3 0.5 S
MEK 23.7 1 P
MEK 39.9 1 S
# 2001 05 24 05 10 37.20 27.6167 100.917 11.000 0.0 0 0 0 3592
JLO 29.2 0.5 P
JLO 49 0.5 S
SMI 39.8 0.5 P
SMI 66.6 0.5 S
GZA 50 0.5 P
MEK 77 1 P
# 2001 05 24 05 20 49.10 27.6167 100.933 0.000 4.0 0 0 0 3594
MEK 78 1 P
JLO 29.1 0.5 P
JLO 48.3 0.5 S
SMI 39.6 0.5 P
GZA 50.9 0.5 P
# 2001 05 24 05 30 34.40 27.6833 100.9 0.000 2.6 0 0 0 3595
JLO 29.6 0.5 P
JLO 48.2 0.5 S
# 2001 05 24 06 12 37.40 27.65 100.867 0.000 2.6 0 0 0 3596
JLO 30.2 0.5 P
JLO 49.6 0.5 S
# 2001 05 24 06 36 13.40 27.6667 100.883 0.000 3.3 0 0 0 3597
JLO 29.2 0.5 P
JLO 48.4 0.5 S
SMI 40 0.5 P
# 2001 05 24 07 00 21.80 27.7167 100.867 0.000 2.4 0 0 0 3598
JLO 28.2 0.5 P
JLO 46.2 0.5 S
# 2001 05 24 08 24 18.50 27.7167 100.867 0.000 2.4 0 0 0 3599
JLO 28.3 0.5 P
JLO 46.5 0.5 S
# 2001 05 24 09 05 55.50 27.65 100.867 4.000 3.2 0 0 0 3601
JLO 32.1 0.5 P
JLO 52.3 0.5 S
# 2001 05 24 09 44 24.90 27.65 100.917 0.000 3.2 0 0 0 3602
SMI 39.7 0.5 P
JLO 27.5 0.5 P
JLO 45.9 0.5 S
# 2001 05 24 11 34 8.20 27.65 100.867 15.000 2.7 0 0 0 3604
JLO 30.8 0.5 P
JLO 50.7 0.5 S
# 2001 05 24 11 42 21.10 27.6667 100.933 0.000 2.6 0 0 0 3605
JLO 30.4 0.5 P
JLO 50.5 0.5 S
# 2001 05 24 13 39 31.50 27.6333 100.867 0.000 2.8 0 0 0 3609
JLO 28.9 0.5 P
JLO 46.5 0.5 S
# 2001 05 24 13 47 18.70 31.9833 105.25 5.000 2.3 0 0 0 3610
YZP 37.2 1 P
YZP 61.7 1 S
# 2001 05 24 18 09 37.70 27.7 100.917 6.000 2.4 0 0 0 3616
JLO 28.7 0.5 P
JLO 47.3 0.5 S
# 2001 05 24 18 10 40.10 27.6833 100.933 13.000 2.9 0 0 0 3617
JLO 28.9 0.5 P
JLO 47.9 0.5 S
# 2001 05 24 18 31 17.00 27.6833 100.867 1.000 2.6 0 0 0 3618
JLO 29.6 0.5 P
JLO 48.6 0.5 S
# 2001 05 24 22 36 3.70 29.95 103.1 0.000 1.2 0 0 0 3623
EMS 18.5 1 S
GZA 16.3 0.5 P
GZA 26.9 0.5 S
YZP 19.5 1 P
YZP 32.3 1 S
WMP 21.3 1 P
WMP 35.4 1 S
# 2001 05 25 02 30 5.60 27.6667 100.867 4.000 2.6 0 0 0 3628
JLO 29.6 0.5 P
JLO 48.4 0.5 S
# 2001 05 25 15 17 49.90 27.6833 100.9 0.000 2.3 0 0 0 3636
JLO 28.1 0.5 P
JLO 46.9 0.5 S
# 2001 05 25 21 34 2.90 29.6333 102.617 8.000 2.1 0 0 0 3644
SMI 10.3 0.5 P
SMI 17.5 0.5 S
GZA 12.1 0.5 P
GZA 20.1 0.5 S
JLO 23.4 0.5 P
JLO 38.5 0.5 S
# 2001 05 26 05 58 14.80 28.2167 101.183 0.000 2.1 0 0 0 3649
JLO 15.5 0.5 P
JLO 25.5 0.5 S
SMI 28.6 0.5 P
SMI 47.7 0.5 S
# 2001 05 26 11 36 27.50 29.1333 101.917 12.000 1.7 0 0 0 3652
JLO 7.5 0.5 P
JLO 12.2 0.5 S
SMI 8.5 0.5 P
SMI 14.6 0.5 S
# 2001 05 26 21 57 52.40 31.8667 100.983 0.000 2.0 0 0 0 3666
DFU 17.4 0.5 P
DFU 30.2 0.5 S
MEK 21.8 1 P
MEK 35.4 1 S
# 2001 05 27 00 35 0.10 29.4167 102.917 15.000 2.8 0 0 0 3669
SMI 11.9 0.5 P
SMI 19.4 0.5 S
EMS 19.3 1 S
WMP 17.9 1 P
WMP 29.9 1 S
GZA 18.3 0.5 P
GZA 30.5 0.5 S
JLO 25.7 0.5 P
JLO 42.3 0.5 S
LBO 26.1 0.5 P
LBO 43.2 0.5 S
XJI 31.2 0.5 P
XJI 51.9 0.5 S
# 2001 05 27 02 10 19.50 28.2333 104.95 0.000 2.4 0 0 0 3671
LBO 27.1 0.5 P
LBO 44.9 0.5 S
# 2001 05 27 07 48 42.50 27.6333 100.933 0.000 2.8 0 0 0 3679
JLO 29.3 0.5 P
JLO 48 0.5 S
# 2001 05 27 13 06 25.50 27.65 100.867 17.000 3.3 0 0 0 3684
JLO 26.9 0.5 P
JLO 46.9 0.5 S
# 2001 05 27 19 33 31.60 29.85 103.267 11.000 1.6 0 0 0 3690
EMS 14 1 S
GZA 20.3 0.5 P
GZA 33.6 0.5 S
SMI 21.2 0.5 P
SMI 35.4 0.5 S
YZP 23.7 1 P
YZP 39.2 1 S
# 2001 05 27 20 58 19.10 29.1667 101.867 4.000 2.2 0 0 0 3694
JLO 7.1 0.5 P
JLO 11.9 0.5 S
SMI 8.7 0.5 P
SMI 14.5 0.5 S
GZA 19.5 0.5 P
GZA 31.7 0.5 S
# 2001 05 28 08 00 35.80 30.6667 102.833 9.000 2.8 0 0 0 3705
EMS 42.9 1 S
SMI 30 0.5 P
SMI 49.7 0.5 S
DFU 32.2 0.5 P
DFU 53.4 0.5 S
XJI 13.2 0.5 P
XJI 21.9 0.5 S
YZP 14.4 1 P
YZP 24.3 1 S
GZA 17.4 0.5 P
GZA 28 0.5 S
WCH 21 0.5 P
WCH 34.6 0.5 S
# 2001 05 28 13 05 31.90 27.3167 100.967 0.000 2.7 0 0 0 3709
JLO 35.1 0.5 P
JLO 57.7 0.5 S
# 2001 05 28 20 52 17.00 28.95 102.55 11.000 1.7 0 0 0 3721
GZA 37.8 0.5 S
SMI 7.6 0.5 P
SMI 12.2 0.5 S
JLO 16.8 0.5 P
JLO 28 0.5 S
# 2001 05 29 00 37 47.70 29.4167 101.1 7.000 2.8 0 0 0 3724
SMI 22.4 0.5 P
SMI 37.1 0.5 S
GZA 22.5 0.5 P
GZA 37.3 0.5 S
JLO 10.3 0.5 P
JLO 17.3 0.5 S
# 2001 05 29 10 21 29.30 32.3167 103.583 6.000 2.0 0 0 0 3730
MXI 15.9 0.5 P
MXI 26.3 0.5 S
WCH 18.1 0.5 P
WCH 29.7 0.5 S
# 2001 05 29 13 07 28.10 31.6667 104.467 1.000 1.6 0 0 0 3733
MXI 11.5 0.5 P
MXI 18.5 0.5 S
# 2001 05 29 19 35 38.90 27.6833 100.833 11.000 2.8 0 0 0 3740
JLO 26.7 0.5 P
JLO 44.3 0.5 S
# 2001 05 29 21 25 58.70 29.4333 101.1 12.000 2.4 0 0 0 3742
JLO 10.9 0.5 P
JLO 17.9 0.5 S
GZA 22.7 0.5 P
GZA 37.5 0.5 S
SMI 22.9 0.5 P
SMI 38.3 0.5 S
DFU 29.7 0.5 P
DFU 51.9 0.5 S
# 2001 05 29 23 08 3.40 27.6667 100.867 13.000 2.4 0 0 0 3745
JLO 27.4 0.5 P
JLO 46 0.5 S
# 2001 05 30 02 26 18.30 29.4167 101.083 9.000 2.8 0 0 0 3751
JLO 10.7 0.5 P
JLO 17.7 0.5 S
SMI 21.9 0.5 P
SMI 36.3 0.5 S
GZA 22.6 0.5 P
GZA 37.6 0.5 S
DFU 29.9 0.5 P
DFU 50.5 0.5 S
# 2001 05 30 04 07 21.00 27.7 100.833 0.000 2.7 0 0 0 3752
JLO 28 0.5 P
JLO 46.6 0.5 S
# 2001 05 30 06 07 11.30 27.6667 100.9 15.000 2.9 0 0 0 3753
JLO 27.7 0.5 P
JLO 45.7 0.5 S
# 2001 05 30 07 24 12.90 31.4833 104.05 0.000 1.4 0 0 0 3756
MXI 7.5 0.5 P
MXI 12.2 0.5 S
WCH 9.2 0.5 P
WCH 14.7 0.5 S
# 2001 05 30 07 37 1.90 31.1833 103.867 7.000 1.6 0 0 0 3757
WCH 8.1 0.5 P
WCH 13.1 0.5 S
YZP 9.9 1 P
YZP 16.9 1 S
MXI 10.7 0.5 P
MXI 18 0.5 S
# 2001 05 30 10 01 20.70 27.6833 100.8 14.000 3.0 0 0 0 3761
JLO 30.1 0.5 P
JLO 49.3 0.5 S
# 2001 05 30 11 43 25.80 27.6667 100.883 0.000 2.3 0 0 0 3766
JLO 27.9 0.5 P
JLO 46.2 0.5 S
# 2001 05 31 03 51 33.50 31.75 103.267 0.000 1.8 0 0 0 3783
WCH 7.5 0.5 P
WCH 12.1 0.5 S
MXI 9.7 0.5 P
MXI 15.6 0.5 S
MEK 17.1 1 P
MEK 28.7 1 S
YZP 18.7 1 P
YZP 31.1 1 S
XJI 20.7 0.5 P
XJI 33.9 0.5 S
# 2001 05 31 11 19 52.70 31.25 103.833 5.000 1.6 0 0 0 3790
WCH 9.6 0.5 P
WCH 15.8 0.5 S
MXI 11.8 0.5 P
MXI 19.1 0.5 S
YZP 11.9 1 P
YZP 19.9 1 S
# 2001 05 31 11 22 41.00 29.4333 101.067 2.000 3.0 0 0 0 3791
SMI 22 0.5 P
SMI 36.2 0.5 S
GZA 22.1 0.5 P
GZA 37 0.5 S
DFU 29.3 0.5 P
DFU 50 0.5 S
JLO 10.4 0.5 P
JLO 17 0.5 S
# 2001 06 01 02 08 39.20 31.3833 103.883 5.000 1.4 0 0 0 3816
WCH 6.6 0.5 P
WCH 11 0.5 S
MXI 7.8 0.5 P
MXI 12.1 0.5 S
YZP 12.8 1 P
YZP 21.1 1 S
# 2001 06 01 03 51 41.00 28.9833 102.467 10.000 1.8 0 0 0 3818
WMP 38.9 1 S
GZA 23.3 0.5 P
GZA 38.6 0.5 S
SMI 7.6 0.5 P
SMI 12.4 0.5 S
JLO 17.4 0.5 P
JLO 29 0.5 S
# 2001 06 01 13 32 10.70 29.15 102.317 5.000 2.0 0 0 0 3826
SMI 5.1 0.5 P
SMI 8.7 0.5 S
JLO 15.7 0.5 P
JLO 26.3 0.5 S
GZA 20.1 0.5 P
GZA 32.5 0.5 S
# 2001 06 01 15 42 52.20 29.4333 103.533 8.000 2.1 0 0 0 3829
WMP 12.2 1 P
WMP 20.1 1 S
YZP 30.8 1 P
YZP 52.8 1 S
XJI 39.1 0.5 P
XJI 63.5 0.5 S
EMS 10.9 1 S
# 2001 06 02 00 38 41.50 27.6833 100.917 15.000 2.6 0 0 0 3841
JLO 30.1 0.5 P
JLO 49.1 0.5 S
# 2001 06 02 06 23 15.90 27.7 100.9 9.000 2.2 0 0 0 3853
JLO 28.7 0.5 P
JLO 47.1 0.5 S
# 2001 06 02 18 07 1.70 29.1833 102.267 4.000 1.5 0 0 0 3863
SMI 4.9 0.5 P
SMI 7.7 0.5 S
JLO 13.7 0.5 P
JLO 22.3 0.5 S
# 2001 06 03 00 22 19.60 27.6667 100.9 3.000 2.0 0 0 0 3867
JLO 47.4 0.5 S
# 2001 06 03 00 44 53.30 29.4333 101.05 0.000 3.1 0 0 0 3869
JLO 13.3 0.5 P
JLO 21 0.5 S
GZA 23.7 0.5 P
GZA 39.3 0.5 S
SMI 24.3 0.5 P
SMI 40.5 0.5 S
DFU 30.1 0.5 P
DFU 50.7 0.5 S
XJI 37.5 0.5 P
XJI 61.5 0.5 S
EMS 69.3 1 S
WMP 47 1 P
WMP 77.5 1 S
MEK 50.1 1 P
MEK 83.6 1 S
# 2001 06 03 03 53 15.10 32.5167 103.683 5.000 1.8 0 0 0 3874
MEK 48.9 1 S
WCH 20.9 0.5 P
WCH 34.8 0.5 S
MXI 21.6 0.5 P
# 2001 06 03 07 41 21.00 27.6667 100.883 4.000 2.1 0 0 0 3877
JLO 29.4 0.5 P
JLO 48.5 0.5 S
# 2001 06 03 09 21 16.40 29.1167 101.867 0.000 1.4 0 0 0 3879
JLO 8.8 0.5 P
JLO 13.1 0.5 S
SMI 9.3 0.5 P
SMI 15.2 0.5 S
# 2001 06 03 11 21 33.60 31.6167 103.967 8.000 2.0 0 0 0 3881
MXI 5 0.5 P
MXI 8 0.5 S
WCH 7.8 0.5 P
WCH 12.8 0.5 S
# 2001 06 03 16 44 4.60 27.6667 100.867 0.000 2.3 0 0 0 3886
JLO 30.4 0.5 P
JLO 50.5 0.5 S
# 2001 06 04 03 12 9.90 29.1333 102.017 5.000 1.3 0 0 0 3902
SMI 13.7 0.5 S
JLO 8.4 0.5 P
JLO 13.3 0.5 S
# 2001 06 04 15 27 31.10 29.8333 102.333 5.000 2.1 0 0 0 3915
YZP 29.3 1 P
YZP 49.2 1 S
GZA 7.7 0.5 P
GZA 12.5 0.5 S
SMI 12.2 0.5 P
SMI 19.5 0.5 S
JLO 22.3 0.5 P
JLO 36.9 0.5 S
XJI 23.2 0.5 P
XJI 40 0.5 S
# 2001 06 04 17 57 30.00 31.0167 103.933 14.000 2.0 0 0 0 3918
YZP 9.2 1 P
YZP 15.3 1 S
WCH 9.7 0.5 P
WCH 16 0.5 S
MXI 11.8 0.5 P
MXI 19.8 0.5 S
XJI 26.6 0.5 P
XJI 43 0.5 S
# 2001 06 04 19 26 31.90 31.1667 103.917 10.000 1.5 0 0 0 3920
WCH 10.1 0.5 P
WCH 16.1 0.5 S
MXI 12.6 0.5 P
MXI 21.5 0.5 S
# 2001 06 05 02 34 25.40 29.7833 102.383 9.000 2.1 0 0 0 3931
GZA 8.4 0.5 P
GZA 14.4 0.5 S
SMI 12.2 0.5 P
SMI 20 0.5 S
EMS 33.6 1 S
JLO 23 0.5 P
JLO 38.2 0.5 S
WMP 28.2 1 P
WMP 47.7 1 S
YZP 30.2 1 P
YZP 50.5 1 S
# 2001 06 05 10 31 6.20 29.5333 100.983 0.000 2.2 0 0 0 3941
JLO 12.3 0.5 P
JLO 20.6 0.5 S
GZA 22.6 0.5 P
GZA 38 0.5 S
# 2001 06 05 11 06 51.40 27.7167 100.85 3.000 2.4 0 0 0 3942
JLO 27.6 0.5 P
JLO 45.8 0.5 S
# 2001 06 05 16 58 6.90 31.2667 103.917 14.000 1.6 0 0 0 3947
WCH 10.1 0.5 P
WCH 16.7 0.5 S
MXI 11.4 0.5 P
MXI 18.9 0.5 S
# 2001 06 06 05 31 28.80 27.6833 100.85 5.000 2.1 0 0 0 3957
JLO 29.2 0.5 P
JLO 48.2 0.5 S
# 2001 06 06 11 52 8.90 30.3667 102.433 5.000 2.2 0 0 0 3967
GZA 8.5 0.5 P
GZA 14.3 0.5 S
XJI 11.5 0.5 P
XJI 18.8 0.5 S
YZP 20.6 1 P
YZP 35.2 1 S
SMI 22.4 0.5 P
SMI 38.2 0.5 S
MEK 28 1 P
MEK 47.4 1 S
JLO 32.3 0.5 P
JLO 53.6 0.5 S
# 2001 06 06 13 06 23.70 29.2333 101.833 0.000 1.6 0 0 0 3970
GZA 30.7 0.5 S
JLO 7.8 0.5 P
JLO 12.6 0.5 S
SMI 9 0.5 P
SMI 15.2 0.5 S
# 2001 06 06 14 03 2.90 27.6833 100.867 0.000 2.5 0 0 0 3971
JLO 29.7 0.5 P
JLO 48.6 0.5 S
JLO 29.7 0.5 P
JLO 48.6 0.5 S
# 2001 06 06 14 33 16.50 27.6667 100.867 0.000 2.3 0 0 0 3973
JLO 29.5 0.5 P
JLO 48.9 0.5 S
# 2001 06 07 04 53 9.40 29.2167 101.867 0.000 1.8 0 0 0 3989
JLO 7.5 0.5 P
JLO 12.2 0.5 S
SMI 8.5 0.5 P
SMI 14.4 0.5 S
GZA 18.4 0.5 P
GZA 30.6 0.5 S
# 2001 06 07 06 59 23.20 29.45 101.083 8.000 3.0 0 0 0 3992
JLO 11.2 0.5 P
JLO 18.2 0.5 S
SMI 22.2 0.5 P
SMI 37.4 0.5 S
GZA 22.9 0.5 P
GZA 38 0.5 S
DFU 30.3 0.5 P
DFU 53.1 0.5 S
XJI 37.2 0.5 P
XJI 61.6 0.5 S
