# 2001 1 1 16 2 43.60 29.220 101.070 9.0 0 0 0 0 620002
MDS 35.82 1 P
MEK 49.19 1 P
WMP 46.16 1 P
YZP 48.7591 1 P
# 2001 1 5 23 20 10.50 29.230 101.050 0.0 0 0 0 0 620003
EMS 40.6051 1 P
MDS 36.85 1 P
MEK 49.462 1 P
WMP 46.7 1 P
YZP 48.8608 1 P
# 2001 1 6 2 28 9.70 29.290 105.520 8.0 0 0 0 0 620004
EMS 38.5604 1 P
MDS 44.0703 1 P
MEK 64.5002 1 P
WMP 35 1 P
YZP 41.93 1 P
# 2001 1 6 23 49 58.60 29.080 103.410 10.0 0 0 0 0 620005
EMS 12.4 1 P
MDS 23.54 1 P
MEK 55.2603 1 P
WMP 4.7 1 P
WMP 6.7 1 S
YZP 34.5858 1 P
YZP 57.6 1 S
# 2001 1 9 5 5 2.20 29.230 101.080 0.0 0 0 0 0 620006
EMS 41.72 1 P
MDS 37.2117 1 P
MEK 50.3 1 P
WMP 46.99 1 P
YZP 49.75 1 P
# 2001 1 14 21 21 35.30 30.130 103.100 0.0 0 0 0 0 620007
EMS 17.42 1 P
MDS 9.28 1 P
MEK 34.7 1 P
MEK 56.7 1 S
WMP 27.0583 1 P
YZP 16.3 1 P
YZP 26.7 1 S
# 2001 1 19 3 33 51.68 30.621 106.967 7.0 0 0 0 0 620008
MDS 66.566 1 P
MDS 111.825 1 S
# 2001 1 21 5 8 44.50 31.070 103.460 17.0 0 0 0 0 620010
MDS 24 1 P
MEK 29.8 1 P
MEK 50.3 1 S
WMP 38.02 1 P
YZP 7.3 1 P
YZP 12.5 1 S
# 2001 1 24 16 31 21.40 29.310 101.030 5.0 0 0 0 0 620011
EMS 41.0306 1 P
MDS 36.38 1 P
MEK 49.74 1 P
WMP 46.81 1 P
YZP 49.0904 1 P
# 2001 1 28 20 14 37.30 30.550 103.060 5.0 0 0 0 0 620012
EMS 27.04 1 P
MDS 17.79 1 P
MEK 25 1 P
WMP 35.97 1 P
YZP 9.3 1 P
YZP 14.9 1 S
# 2001 2 7 16 20 30.10 30.260 103.320 5.0 0 0 0 0 620013
EMS 19.05 1 P
MDS 13.83 1 P
MEK 36.54 1 P
WMP 27.22 1 P
YZP 10.1 1 P
YZP 16.9 1 S
# 2001 2 12 12 44 50.10 29.250 101.070 10.0 0 0 0 0 620014
EMS 40.69 1 P
MDS 36.16 1 P
MEK 49.41 1 P
WMP 45.46 1 P
YZP 48.49 1 P
# 2001 2 14 5 0 32.60 29.280 101.020 6.0 0 0 0 0 620015
EMS 41.196 1 P
MEK 49.99 1 P
WMP 45.93 1 P
YZP 49.1047 1 P
# 2001 2 14 7 39 50.90 29.111 100.728 6.0 0 0 0 0 620016
MDS 45.9945 1 P
MEK 58.3329 1 P
WMP 54.2915 1 P
YZP 57.641 1 P
YZP 94.6187 1 S
# 2001 2 14 8 24 47.90 29.270 101.010 5.0 0 0 0 0 620017
EMS 40.8435 1 P
MDS 36.4993 1 P
MEK 49.4145 1 P
WMP 45.3 1 P
YZP 48.9715 1 P
# 2001 2 23 1 34 43.00 29.280 101.000 0.0 0 0 0 0 620019
MDS 37.5491 1 P
MEK 49.6097 1 P
WMP 45.16 1 P
YZP 49.37 1 P
# 2001 2 23 2 11 51.00 29.260 101.020 0.0 0 0 0 0 620020
EMS 42.53 1 P
MDS 38.35 1 P
MEK 51 1 P
WMP 46.4 1 P
YZP 50.69 1 P
# 2001 2 23 4 29 43.80 29.270 101.060 10.0 0 0 0 0 620021
MDS 35.6296 1 P
WMP 44.6629 1 P
# 2001 2 24 23 42 40.10 29.260 101.030 5.0 0 0 0 0 620022
MDS 38.012 1 P
MEK 50.3725 1 P
WMP 45.723 1 P
# 2001 2 25 6 57 26.90 29.280 101.030 12.0 0 0 0 0 620023
MDS 35.7245 1 P
MEK 49.2 1 P
WMP 44.4076 1 P
YZP 48.3114 1 P
# 2001 2 25 15 56 6.81 25.647 101.199 5.0 0 0 0 0 620024
EMS 82.4257 1 P
EMS 137.754 1 S
MDS 86.5565 1 P
MDS 145.635 1 S
MEK 107.274 1 P
WMP 76.3421 1 P
YZP 97.3942 1 P
# 2001 2 25 22 4 43.40 29.270 101.020 10.0 0 0 0 0 620025
MDS 37.6843 1 P
MEK 49.35 1 P
YZP 47.5755 1 P
# 2001 2 26 4 18 1.60 29.280 101.000 0.0 0 0 0 0 620026
EMS 37.9208 1 P
MDS 38.75 1 P
WMP 46.0249 1 P
# 2001 2 27 14 21 48.40 29.250 101.000 5.0 0 0 0 0 620027
MDS 38.2652 1 P
MEK 50.26 1 P
WMP 45.4123 1 P
YZP 49.78 1 P
# 2001 3 1 5 19 54.50 29.280 101.030 0.0 0 0 0 0 620029
EMS 40.75 1 P
MDS 36.26 1 P
MEK 49.69 1 P
WMP 45.02 1 P
YZP 48.34 1 P
# 2001 3 2 16 16 59.60 29.280 101.020 2.0 0 0 0 0 620030
MDS 38.0411 1 P
MEK 49.93 1 P
# 2001 3 6 11 41 4.20 26.912 100.617 6.0 0 0 0 0 620031
EMS 71.8468 1 P
EMS 113.378 1 S
MDS 72.059 1 P
MDS 115.14 1 S
WMP 68.9633 1 P
YZP 87.4971 1 P
# 2001 3 7 11 51 23.60 27.450 102.450 6.0 0 0 0 0 620032
EMS 38.32 1 P
MDS 44.85 1 P
# 2001 3 7 12 11 11.45 28.121 102.575 5.0 0 0 0 0 620033
WMP 32.2943 1 P
WMP 53.9857 1 S
# 2001 3 11 14 32 4.20 29.240 101.030 0.0 0 0 0 0 620034
EMS 42.12 1 P
MDS 38.21 1 P
MEK 50.38 1 P
WMP 44.97 1 P
YZP 50.27 1 P
# 2001 3 12 2 16 46.01 28.513 102.285 14.0 0 0 0 0 620035
MDS 37.1226 1 P
YZP 49.8902 1 P
YZP 86.531 1 S
# 2001 3 17 10 11 43.00 29.090 101.560 0.0 0 0 0 0 620037
EMS 28.33 1 P
MDS 27.17 1 P
MEK 51.075 1 P
WMP 30.53 1 P
YZP 42.1 1 P
# 2001 3 22 22 6 12.83 27.009 100.667 7.0 0 0 0 0 620038
WMP 113.422 1 S
# 2001 3 26 4 47 28.60 29.130 101.520 0.0 0 0 0 0 620039
EMS 28.8851 1 P
MDS 27.57 1 P
MEK 51.4747 1 P
WMP 30.037 1 P
YZP 42.45 1 P
# 2001 3 29 14 49 47.60 29.090 101.550 0.0 0 0 0 0 620040
EMS 28.12 1 P
MDS 26.69 1 P
MEK 50.33 1 P
YZP 41.53 1 P
# 2001 3 30 11 26 20.29 28.935 100.911 6.0 0 0 0 0 620041
EMS 48.906 1 P
MDS 45.1881 1 P
YZP 56.6344 1 P
# 2001 4 4 1 20 15.20 28.958 101.323 5.0 0 0 0 0 620042
MDS 39.7593 1 P
# 2001 4 4 10 55 20.30 28.408 102.017 5.0 0 0 0 0 620043
MEK 55.912 1 P
YZP 55.5451 1 P
YZP 93.2546 1 S
# 2001 4 6 5 2 7.80 29.290 101.050 0.0 0 0 0 0 620044
EMS 41.14 1 P
MDS 36.578 1 P
MEK 49.16 1 P
WMP 46.63 1 P
YZP 48.69 1 P
# 2001 4 7 15 46 29.00 29.280 101.040 12.0 0 0 0 0 620045
EMS 40.65 1 P
MDS 36.5729 1 P
MEK 49.06 1 P
WMP 47.0275 1 P
# 2001 4 19 4 55 34.44 31.762 102.057 9.0 0 0 0 0 620046
EMS 84.9314 1 S
MDS 65.7197 1 S
WMP 100.061 1 S
YZP 35.3584 1 P
# 2001 4 19 20 19 15.00 32.300 102.020 0.0 0 0 0 0 620047
MEK 13.2 1 P
MEK 22 1 S
WMP 66.1279 1 P
YZP 39.69 1 P
# 2001 4 24 11 15 9.98 28.520 102.172 5.0 0 0 0 0 620048
EMS 58.3528 1 S
MDS 38.9239 1 P
MDS 62.5701 1 S
MEK 113.232 1 S
YZP 52.277 1 P
YZP 86.7713 1 S
# 2001 4 27 6 39 56.90 31.200 100.560 0.0 0 0 0 0 620049
MEK 25.8 1 P
YZP 42.1221 1 P
# 2001 4 28 7 16 3.30 30.430 103.290 0.0 0 0 0 0 620050
MEK 31.3 1 P
MEK 51.7 1 S
# 2001 5 5 2 35 29.10 29.260 101.060 9.0 0 0 0 0 620051
MDS 34.7066 1 P
# 2001 5 5 5 30 24.20 29.260 101.090 13.0 0 0 0 0 620052
MEK 49.3204 1 P
WMP 46.3912 1 P
YZP 44.88 1 P
# 2001 5 5 10 41 9.20 29.280 101.060 5.0 0 0 0 0 620053
MEK 49.33 1 P
YZP 45.19 1 P
# 2001 5 5 11 39 25.10 29.110 106.010 0.0 0 0 0 0 620054
WMP 39 1 P
WMP 64.5 1 S
YZP 45.83 1 P
# 2001 5 20 3 50 47.90 32.060 101.350 1.0 0 0 0 0 620055
MEK 14.1 1 P
MEK 23.1 1 S
# 2001 5 22 18 28 37.20 28.060 103.300 5.0 0 0 0 0 620056
EMS 30.48 1 P
MDS 35.75 1 P
MEK 67.8874 1 P
WMP 20.2 1 P
WMP 34 1 S
YZP 52.7658 1 P
# 2001 5 23 22 36 27.60 27.756 102.332 14.0 0 0 0 0 620058
EMS 42.1939 1 P
MDS 39.4596 1 P
MDS 81.5132 1 S
WMP 40.782 1 P
YZP 62.4931 1 P
# 2001 5 24 1 44 11.55 27.845 99.932 5.0 0 0 0 0 620060
WMP 68.7915 1 P
# 2001 5 30 2 0 45.85 26.554 98.810 5.0 0 0 0 0 620063
MDS 93.7729 1 P
WMP 90.5431 1 P
# 2001 5 31 3 22 41.00 29.260 101.040 2.0 0 0 0 0 620064
EMS 39.5476 1 P
MDS 35.21 1 P
MEK 49.1 1 P
WMP 45.1521 1 P
YZP 47.79 1 P
# 2001 6 2 16 44 53.30 29.260 101.030 0.0 0 0 0 0 620065
MEK 50.1 1 P
MEK 83.6 1 S
WMP 47 1 P
WMP 77.5 1 S
YZP 49.1911 1 P
# 2001 6 6 22 59 23.20 29.270 101.050 8.0 0 0 0 0 620066
EMS 39.2985 1 P
MDS 36.19 1 P
MEK 49.99 1 P
WMP 45.9622 1 P
YZP 48.3159 1 P
# 2001 6 7 8 26 51.50 29.240 101.030 0.0 0 0 0 0 620067
EMS 40.9488 1 P
MDS 37.25 1 P
MEK 49.62 1 P
WMP 46.51 1 P
YZP 49.0121 1 P
# 2001 6 9 16 10 19.90 29.250 101.050 0.0 0 0 0 0 620068
EMS 39.7938 1 P
MDS 35.35 1 P
MEK 49.52 1 P
YZP 48.06 1 P
# 2001 6 14 6 19 8.93 27.216 102.935 9.0 0 0 0 0 620069
WMP 43.4122 1 P
# 2001 6 23 2 48 33.00 29.270 105.290 11.0 0 0 0 0 620071
EMS 34.09 1 P
MDS 40.65 1 P
MEK 62.755 1 P
WMP 29.72 1 P
YZP 40.21 1 P
# 2001 6 24 8 35 19.98 27.623 99.807 5.0 0 0 0 0 620072
MDS 117.487 1 S
WMP 71.924 1 P
YZP 84.7822 1 P
YZP 143.594 1 S
# 2001 6 27 1 56 13.50 29.260 105.320 15.0 0 0 0 0 620073
WMP 31.7 1 P
YZP 42.7 1 P
YZP 70.6 1 S
# 2001 7 5 5 15 47.90 32.120 103.430 6.0 0 0 0 0 620074
MDS 42.9024 1 P
MEK 26 1 P
YZP 28.2 1 P
YZP 46.5 1 S
# 2001 7 7 7 48 47.70 29.260 101.050 10.0 0 0 0 0 620075
MDS 35.9035 1 P
MEK 49.84 1 P
WMP 46.1742 1 P
YZP 48.28 1 P
# 2001 7 12 13 54 38.80 30.010 102.180 9.0 0 0 0 0 620078
EMS 21.17 1 P
MDS 12.8 1 P
MEK 35.2 1 P
MEK 59.2 1 S
WMP 30.72 1 P
YZP 25.9523 1 P
YZP 44.2 1 S
# 2001 7 15 19 28 29.54 28.296 101.072 7.0 0 0 0 0 620079
EMS 47.5524 1 P
MDS 48.9425 1 P
WMP 46.8182 1 P
WMP 87.0768 1 S
# 2001 7 25 18 24 53.98 27.473 99.886 5.0 0 0 0 0 620080
EMS 69.6344 1 P
MDS 72.2801 1 P
MDS 114.324 1 S
MEK 154.971 1 S
YZP 83.9433 1 P
# 2001 7 26 10 21 33.90 29.260 101.040 0.0 0 0 0 0 620081
EMS 39.9151 1 P
MDS 35.08 1 P
MEK 49.27 1 P
WMP 46.3222 1 P
YZP 48.14 1 P
# 2001 7 26 17 55 5.95 27.309 101.263 5.0 0 0 0 0 620082
EMS 59.0642 1 P
EMS 98.0406 1 S
MDS 60.0457 1 P
MDS 103.088 1 S
MEK 86.8797 1 P
MEK 146.844 1 S
WMP 57.5976 1 P
WMP 95.1981 1 S
YZP 73.0241 1 P
YZP 132.258 1 S
# 2001 7 26 18 27 24.20 28.269 101.956 5.0 0 0 0 0 620083
YZP 57.9132 1 P
# 2001 7 26 19 27 19.00 28.480 103.350 14.0 0 0 0 0 620084
MDS 25.99 1 P
# 2001 7 29 1 22 10.90 31.130 103.180 8.0 0 0 0 0 620085
EMS 31.4 1 P
MDS 22.93 1 P
MEK 22.9 1 P
MEK 37.3 1 S
WMP 41.1305 1 P
YZP 9.4 1 P
YZP 15.5 1 S
# 2001 8 5 5 59 22.70 29.260 101.020 0.0 0 0 0 0 620086
MDS 34.1251 1 P
MEK 48.1999 1 P
YZP 46.752 1 P
# 2001 8 5 18 12 6.44 30.374 103.205 7.0 0 0 0 0 620087
YZP 20.8268 1 P
# 2001 8 10 7 26 19.46 27.391 100.865 11.0 0 0 0 0 620088
EMS 64.0195 1 P
EMS 104.744 1 S
MDS 109.048 1 S
WMP 104.403 1 S
YZP 79.8489 1 P
# 2001 8 10 7 31 2.66 27.883 100.374 5.0 0 0 0 0 620089
EMS 62.5825 1 P
EMS 103.563 1 S
MDS 106.933 1 S
WMP 61.8329 1 P
WMP 102.126 1 S
YZP 76.4217 1 P
YZP 134.298 1 S
# 2001 8 10 8 16 14.52 27.573 100.937 7.0 0 0 0 0 620090
EMS 60.0732 1 P
MDS 61.2216 1 P
MDS 101.479 1 S
MEK 144.42 1 S
WMP 59.4808 1 P
WMP 99.7206 1 S
YZP 72.3163 1 P
# 2001 8 11 21 41 39.77 28.075 101.605 5.0 0 0 0 0 620091
EMS 47.9501 1 P
MDS 49.481 1 P
WMP 46.5323 1 P
# 2001 8 31 0 4 15.90 34.953 105.940 12.0 0 0 0 0 620092
YZP 79.502 1 P
# 2001 8 31 15 17 29.90 29.530 102.460 4.0 0 0 0 0 620093
EMS 14.32 1 P
MEK 38.94 1 P
WMP 24.17 1 P
# 2001 9 5 2 58 3.00 30.280 101.370 0.0 0 0 0 0 620094
EMS 35.4 1 P
MDS 25.75 1 P
MEK 28.8 1 P
WMP 44.32 1 P
YZP 34.32 1 P
# 2001 9 6 12 13 23.44 25.495 101.968 5.0 0 0 0 0 620095
EMS 80.7905 1 P
MDS 83.1739 1 P
WMP 76.3511 1 P
YZP 94.5011 1 P
# 2001 9 6 12 46 16.72 27.558 101.996 10.0 0 0 0 0 620096
EMS 50.9189 1 P
MDS 53.3467 1 P
WMP 46.6754 1 P
YZP 64.2722 1 P
# 2001 9 6 14 15 18.28 28.600 103.161 5.0 0 0 0 0 620097
YZP 46.8426 1 P
# 2001 9 8 23 46 20.00 30.280 101.340 1.0 0 0 0 0 620098
EMS 36.6 1 P
MEK 29.7 1 P
WMP 45.28 1 P
YZP 34.8 1 P
# 2001 9 12 8 38 27.10 29.250 101.030 10.0 0 0 0 0 620099
MDS 35.4792 1 P
MEK 49.52 1 P
WMP 47.7602 1 P
YZP 48.17 1 P
# 2001 9 14 10 39 18.77 25.406 100.573 9.0 0 0 0 0 620100
YZP 110.644 1 P
# 2001 9 20 18 18 35.60 31.360 102.490 13.0 0 0 0 0 620104
EMS 41.1844 1 P
MEK 10.1064 1 P
MEK 15.9 1 S
YZP 20.8 1 P
YZP 33.8 1 S
# 2001 9 22 22 34 47.50 31.560 102.020 2.0 0 0 0 0 620105
MEK 4.7 1 P
MEK 7.9 1 S
YZP 33.5354 1 P
# 2001 9 22 22 41 34.50 31.550 102.040 5.0 0 0 0 0 620106
MEK 11.8 1 S
YZP 33.7 1 P
# 2001 9 24 0 18 0.50 30.550 103.200 12.0 0 0 0 0 620107
EMS 26.43 1 P
MEK 27.2 1 P
MEK 45.3 1 S
WMP 35.77 1 P
YZP 5.8 1 P
# 2001 9 25 22 48 14.10 29.540 102.450 16.0 0 0 0 0 620109
EMS 14.16 1 P
MEK 38.3119 1 P
WMP 24.3 1 P
WMP 40.3 1 S
# 2001 9 27 22 31 34.40 28.220 104.430 11.0 0 0 0 0 620110
EMS 34.4997 1 P
MDS 43.12 1 P
MEK 70.22 1 P
WMP 23.1 1 P
WMP 37.8 1 S
YZP 48.96 1 P
# 2001 10 1 11 34 25.30 29.190 105.220 9.0 0 0 0 0 620111
EMS 32.7493 1 P
MDS 39.17 1 P
WMP 28.4 1 P
WMP 47.7 1 S
YZP 39.42 1 P
# 2001 10 8 17 32 21.00 29.230 101.050 0.0 0 0 0 0 620112
EMS 40.58 1 P
MDS 36.09 1 P
MEK 50.0135 1 P
YZP 48.5 1 P
# 2001 10 9 6 7 10.90 31.320 100.260 0.0 0 0 0 0 620113
MEK 31.7 1 P
MEK 52.8 1 S
# 2001 10 14 13 50 56.90 28.440 103.370 5.0 0 0 0 0 620114
MDS 28.45 1 P
MEK 57.6225 1 P
# 2001 10 25 19 29 39.80 29.400 103.140 15.0 0 0 0 0 620115
EMS 6.95 1 P
MDS 11.45 1 P
MEK 44.4021 1 P
WMP 16 1 P
WMP 26.2 1 S
YZP 25.4 1 P
# 2001 10 27 6 6 42.55 27.908 102.159 5.0 0 0 0 0 620116
MDS 48.0748 1 P
YZP 59.9887 1 P
# 2001 10 28 13 48 23.20 29.400 103.140 14.0 0 0 0 0 620117
MDS 10.7 1 P
MEK 43.9781 1 P
WMP 15.8 1 P
WMP 25.9 1 S
YZP 24.8 1 P
# 2001 10 30 21 40 22.20 29.170 105.350 11.0 0 0 0 0 620118
MDS 42.6963 1 P
WMP 31.4 1 P
# 2001 12 1 2 19 52.10 30.470 100.060 5.0 0 0 0 0 620119
MEK 43.1644 1 P
# 2001 12 1 7 25 51.00 32.460 104.130 4.0 0 0 0 0 620120
MEK 37.6 1 P
# 2001 12 5 19 4 37.10 29.090 104.490 14.0 0 0 0 0 620121
EMS 25.26 1 P
MDS 34.68 1 P
MEK 60.9317 1 P
WMP 17.4 1 P
YZP 39.3 1 P
YZP 64.3 1 S
# 2001 12 8 1 0 15.40 29.210 104.040 0.0 0 0 0 0 620122
EMS 13.46 1 P
MDS 23.37 1 P
WMP 9 1 P
WMP 14.8 1 S
YZP 30.5 1 P
YZP 51.9 1 S
# 2001 12 11 23 10 28.00 28.130 103.530 0.0 0 0 0 0 620123
EMS 29.25 1 P
MDS 39.15 1 P
WMP 19.1 1 P
WMP 31.9 1 S
YZP 47.3 1 P
YZP 82.7 1 S
# 2001 12 13 3 53 39.10 32.100 101.400 0.0 0 0 0 0 620124
MDS 47.7148 1 P
MEK 13.2 1 P
MEK 21.5 1 S
YZP 42.9047 1 P
YZP 72.3 1 S
# 2001 12 22 22 41 54.30 29.080 104.360 2.0 0 0 0 0 620125
EMS 25.44 1 P
MDS 35.09 1 P
MEK 62.0467 1 P
WMP 17.3 1 P
YZP 39.7 1 P
YZP 65.8 1 S
# 2001 12 27 9 19 52.80 30.290 103.020 12.0 0 0 0 0 620126
EMS 21.12 1 P
MDS 11.37 1 P
MEK 31 1 P
MEK 50.8 1 S
WMP 31.2 1 P
WMP 51.7 1 S
YZP 13.2 1 P
YZP 21.7 1 S
# 2001 12 27 10 1 39.30 30.270 103.040 14.0 0 0 0 0 620127
EMS 21.4667 1 P
MDS 11.43 1 P
MEK 30.6 1 P
MEK 50.8 1 S
WMP 31.3 1 P
YZP 13.4 1 P
YZP 21.9 1 S
# 2002 1 7 2 8 13.40 29.260 101.060 5.0 0 0 0 0 620128
MDS 35.24 1 P
MEK 49.29 1 P
WMP 45.72 1 P
YZP 47.95 1 P
# 2002 1 10 15 39 23.70 27.330 102.480 6.0 0 0 0 0 620129
EMS 41.9029 1 P
MDS 49.2815 1 P
WMP 35 1 P
# 2002 1 21 13 47 13.20 26.510 102.420 0.0 0 0 0 0 620130
EMS 54.2693 1 P
MDS 59.3765 1 P
# 2002 1 22 9 10 35.90 29.530 102.470 0.0 0 0 0 0 620131
EMS 14.54 1 P
MEK 38.8 1 P
WMP 23.2454 1 P
WMP 39.1 1 S
# 2002 1 26 1 14 9.10 31.250 103.040 0.0 0 0 0 0 620132
EMS 37.45 1 P
MDS 28.44 1 P
MEK 16.9 1 P
MEK 27.1 1 S
WMP 43.38 1 P
YZP 16.2 1 P
YZP 27.2 1 S
# 2002 1 31 6 0 52.80 29.510 102.470 1.0 0 0 0 0 620133
EMS 14.6 1 P
MEK 39.63 1 P
WMP 24.1 1 P
WMP 40.1 1 S
# 2002 3 2 23 4 56.20 32.330 100.480 0.0 0 0 0 0 620134
MDS 59.9917 1 P
MEK 27.6 1 P
MEK 45.8 1 S
YZP 57.1 1 P
YZP 94.6 1 S
# 2002 3 3 0 23 5.00 28.410 102.140 0.0 0 0 0 0 620135
EMS 28.59 1 P
MDS 31.78 1 P
MEK 59.7445 1 P
WMP 27.9 1 P
WMP 46.5 1 S
YZP 46.5 1 P
# 2002 3 4 3 48 27.02 32.620 100.605 14.0 0 0 0 0 620136
MDS 62.4994 1 P
YZP 58.7853 1 P
YZP 98.7816 1 S
# 2002 3 20 11 8 50.90 27.160 102.510 0.0 0 0 0 0 620138
EMS 46.0435 1 P
MDS 52.65 1 P
MEK 77.2792 1 P
WMP 39.641 1 P
WMP 65.9 1 S
YZP 62.7183 1 P
YZP 117.2 1 S
# 2002 3 20 22 26 53.20 27.190 104.190 0.0 0 0 0 0 620139
WMP 39.4 1 P
WMP 65.2 1 S
# 2002 3 31 8 25 6.10 32.160 103.320 0.0 0 0 0 0 620140
MDS 43.8544 1 P
MEK 24.4478 1 P
MEK 39.9 1 S
WMP 56.8427 1 P
YZP 29.67 1 P
# 2002 5 10 1 5 51.70 29.250 101.030 5.0 0 0 0 0 620141
EMS 42 1 P
MDS 36.78 1 P
MEK 51.3188 1 P
WMP 47.1 1 P
YZP 49.82 1 P
# 2002 5 18 13 1 47.30 32.290 107.110 6.0 0 0 0 0 620142
MDS 73.1062 1 P
YZP 60.5607 1 P
# 2002 5 23 3 51 31.10 30.400 102.420 7.0 0 0 0 0 620143
EMS 26.12 1 P
MDS 14.72 1 P
MEK 25.9 1 P
MEK 42.5 1 S
WMP 36.1 1 P
WMP 60.7 1 S
YZP 16.5003 1 P
# 2002 5 23 14 26 38.00 27.280 102.450 0.0 0 0 0 0 620144
EMS 44.09 1 P
MDS 50.4181 1 P
WMP 37.1 1 P
YZP 61.1111 1 P
# 2002 5 30 3 29 33.20 30.390 102.510 15.0 0 0 0 0 620145
MDS 15.28 1 P
MEK 25.2089 1 P
MEK 46.8 1 S
WMP 36.5 1 P
WMP 60.5 1 S
YZP 15.2 1 P
# 2002 5 31 3 53 0.10 30.190 104.110 0.0 0 0 0 0 620146
EMS 19.8 1 P
MDS 20.75 1 P
MEK 43.76 1 P
WMP 24.9336 1 P
WMP 40.8 1 S
YZP 17.1938 1 P
YZP 27.9 1 S
# 2002 7 3 11 58 24.40 29.350 103.160 0.0 0 0 0 0 620147
EMS 5.18 1 P
MDS 12.41 1 P
MEK 46.8 1 P
MEK 80.6 1 S
WMP 15.1 1 P
WMP 24.6 1 S
YZP 26.4616 1 P
# 2002 7 3 12 29 34.30 32.150 101.360 0.0 0 0 0 0 620148
MDS 49.8364 1 P
MEK 15.1735 1 P
MEK 25 1 S
WMP 120.2 1 S
YZP 44.485 1 P
YZP 75.2 1 S
# 2002 7 3 23 48 54.50 30.050 103.340 12.0 0 0 0 0 620149
EMS 12.02 1 P
MDS 11.26 1 P
MEK 41.7 1 P
MEK 68.9 1 S
WMP 21.2 1 P
WMP 35.2 1 S
YZP 17.5 1 P
YZP 28.7 1 S
# 2002 7 4 19 22 44.00 27.310 100.540 0.0 0 0 0 0 620150
EMS 57.058 1 P
MDS 58.2924 1 P
WMP 56.1 1 P
# 2002 7 5 9 27 36.90 29.070 104.350 0.0 0 0 0 0 620151
MDS 32.6285 1 P
WMP 15.1 1 P
# 2002 7 6 10 36 32.10 31.220 99.260 15.0 0 0 0 0 620152
MEK 45.1 1 P
MEK 79.4 1 S
# 2002 7 9 4 59 47.40 31.400 99.060 0.0 0 0 0 0 620153
MDS 70.6499 1 P
MEK 52.2 1 P
MEK 86 1 S
WMP 83.1247 1 P
YZP 74.6084 1 P
# 2002 7 9 23 16 39.60 31.330 99.120 5.0 0 0 0 0 620154
MEK 41.5 1 P
# 2002 7 10 14 5 50.10 31.250 99.130 0.0 0 0 0 0 620155
MEK 49.3 1 P
MEK 84.1 1 S
YZP 72.0688 1 P
# 2002 7 16 17 15 27.20 31.370 104.010 12.0 0 0 0 0 620156
EMS 39.19 1 P
MDS 34.06 1 P
MEK 32 1 P
YZP 17.9 1 P
# 2002 7 25 0 34 49.88 25.280 101.686 5.0 0 0 0 0 620157
MDS 86.0327 1 P
WMP 77.2956 1 P
YZP 96.6 1 P
# 2002 9 1 4 1 36.90 29.100 104.450 14.0 0 0 0 0 620159
EMS 25.0784 1 P
MDS 34.6751 1 P
WMP 17.7 1 P
YZP 38.6395 1 P
YZP 66 1 S
# 2002 9 1 19 23 35.90 29.110 103.540 10.0 0 0 0 0 620160
EMS 12.8056 1 P
MDS 23.82 1 P
MEK 54.0549 1 P
WMP 4.8 1 P
WMP 7.4 1 S
YZP 33.5618 1 P
YZP 55.7 1 S
# 2002 9 10 16 34 43.80 32.560 104.500 3.0 0 0 0 0 620161
EMS 61.45 1 P
WMP 67.47 1 P
# 2002 9 12 6 31 10.50 29.300 105.410 0.0 0 0 0 0 620162
EMS 38.04 1 P
MDS 44.4 1 P
WMP 33.61 1 P
YZP 43.9 1 P
YZP 73.5 1 S
# 2002 9 13 5 36 42.70 30.070 102.080 0.0 0 0 0 0 620163
EMS 26.47 1 P
MDS 16.84 1 P
MEK 32.5 1 P
MEK 53.7 1 S
WMP 36.3 1 P
WMP 59.6 1 S
YZP 28 1 P
YZP 46.5 1 S
# 2002 9 16 19 55 52.60 30.100 102.080 3.0 0 0 0 0 620164
EMS 26.3 1 P
MDS 16.72 1 P
MEK 32.7 1 P
MEK 54.1 1 S
WMP 36.1 1 P
WMP 59.5 1 S
YZP 27.9 1 P
YZP 46.4 1 S
# 2002 9 16 20 47 44.10 32.380 102.400 0.0 0 0 0 0 620165
EMS 58.4553 1 P
MDS 48.9692 1 P
MEK 16 1 P
WMP 62.0177 1 P
YZP 37.1 1 P
YZP 63.2 1 S
# 2002 9 21 22 18 26.80 31.520 104.180 5.0 0 0 0 0 620166
EMS 41.45 1 P
MDS 38.1221 1 P
WMP 47.69 1 P
YZP 23.6 1 P
# 2002 9 27 13 1 23.31 25.372 100.685 13.0 0 0 0 0 620167
MDS 96.5195 1 P
# 2002 10 20 1 19 56.30 29.070 103.540 10.0 0 0 0 0 620170
EMS 12.68 1 P
YZP 33.4 1 P
YZP 56.6 1 S
# 2002 10 23 3 13 9.60 28.430 105.490 0.0 0 0 0 0 620171
MDS 48.7479 1 P
WMP 34.7 1 P
WMP 58.7 1 S
# 2002 10 24 20 51 33.60 29.250 101.050 2.0 0 0 0 0 620172
EMS 41.1591 1 P
MDS 37.5526 1 P
MEK 50.43 1 P
WMP 46.9 1 P
WMP 78.4 1 S
YZP 49.54 1 P
# 2002 11 11 17 4 42.00 30.510 99.550 0.0 0 0 0 0 620173
MDS 53.3423 1 P
MEK 46 1 P
WMP 66.9 1 P
WMP 122.9 1 S
YZP 58.3 1 P
# 2002 11 13 15 57 36.45 26.545 106.950 5.0 0 0 0 0 620174
EMS 76.3291 1 P
WMP 71.9771 1 P
# 2002 11 16 16 17 59.20 31.040 103.370 11.0 0 0 0 0 620175
EMS 29.5 1 P
EMS 49.8 1 S
MDS 23.7496 1 P
MEK 29.3 1 P
MEK 48.7 1 S
WMP 37.2 1 P
WMP 64.4 1 S
YZP 6.6 1 P
YZP 10.7 1 S
# 2002 11 25 6 10 39.15 31.137 98.477 5.0 0 0 0 0 620177
EMS 82.0357 1 P
MDS 75.0899 1 P
MEK 97.2908 1 S
WMP 88.3962 1 P
YZP 78.4652 1 P
# 2002 11 26 17 55 23.10 30.580 103.220 0.0 0 0 0 0 620178
MEK 28.9348 1 P
MEK 46.1 1 S
YZP 7 1 P
YZP 10.4 1 S
# 2002 12 12 1 9 19.90 33.060 103.560 0.0 0 0 0 0 620179
WMP 68.5884 1 P
# 2002 12 14 15 43 38.20 29.590 104.580 12.0 0 0 0 0 620181
MDS 33.52 1 P
MEK 56.9242 1 P
YZP 31.2 1 P
YZP 51.5 1 S
# 2002 12 15 22 46 16.99 26.866 102.818 5.0 0 0 0 0 620182
EMS 53.5473 1 P
MDS 54.2785 1 P
MDS 103.167 1 S
# 2002 12 21 1 31 4.00 29.140 105.460 0.0 0 0 0 0 620183
EMS 39.5 1 P
MDS 46.253 1 P
MEK 67.6 1 P
YZP 43.5531 1 P
YZP 76.5 1 S
# 2002 12 24 5 38 48.10 28.320 102.420 5.0 0 0 0 0 620184
EMS 25.3 1 P
MDS 31.4197 1 P
WMP 22.9 1 P
YZP 46.2253 1 P
# 2003 1 1 18 40 11.40 29.260 105.550 0.0 0 0 0 0 620185
EMS 39.4 1 P
MDS 45.52 1 P
MEK 67.4226 1 P
WMP 35 1 P
YZP 46.5 1 P
YZP 77.6 1 S
# 2003 1 9 1 14 17.80 32.120 101.320 0.0 0 0 0 0 620186
MDS 46.8008 1 P
MEK 13.9555 1 P
MEK 23.8 1 S
WMP 69.7949 1 P
YZP 42.97 1 P
# 2003 1 9 9 7 20.37 29.051 102.180 9.0 0 0 0 0 620187
MDS 29.2544 1 P
WMP 33.255 1 P
# 2003 1 13 22 2 7.30 27.350 103.400 0.0 0 0 0 0 620188
EMS 44.3 1 P
EMS 74.4 1 S
MDS 50.2134 1 P
WMP 34.5 1 P
WMP 57.7 1 S
# 2003 2 2 13 58 2.30 31.280 103.550 0.0 0 0 0 0 620189
EMS 36.1 1 P
MDS 30.91 1 P
MEK 30.9 1 P
WMP 42.8 1 P
WMP 73.3 1 S
YZP 15 1 P
# 2003 2 10 14 25 47.00 29.150 102.140 0.0 0 0 0 0 620190
EMS 22.3 1 P
EMS 37 1 S
MDS 21.94 1 P
MEK 50.11 1 P
WMP 26.8 1 P
WMP 44.7 1 S
YZP 38.2 1 P
YZP 63.5 1 S
# 2003 2 14 2 57 55.00 27.450 100.520 0.0 0 0 0 0 620191
WMP 53.2 1 P
# 2003 2 20 10 4 44.20 29.160 102.150 0.0 0 0 0 0 620193
EMS 22.4 1 P
EMS 37.5 1 S
MDS 21.48 1 P
MEK 49.28 1 P
WMP 26.8 1 P
WMP 45.1 1 S
YZP 36.83 1 P
