# 2001 02 23 10 14 7.50 29.4333 101 5.000 2.3 0 0 0 1251
JLO 12.6 0.5 P
JLO 21.1 0.5 S
DFU 30.3 0.5 P
# 2001 02 23 10 19 35.90 29.4667 101.067 0.000 2.6 0 0 0 1252
DFU 29.1 0.5 P
DFU 49.1 0.5 S
JLO 12.7 0.5 P
JLO 20.5 0.5 S
GZA 23.2 0.5 P
GZA 38.6 0.5 S
SMI 23.7 0.5 P
SMI 39.7 0.5 S
# 2001 02 23 12 29 43.80 29.45 101.1 10.000 2.8 0 0 0 1255
GZA 23.4 0.5 P
GZA 39.4 0.5 S
SMI 23.8 0.5 P
SMI 39.7 0.5 S
# 2001 02 23 13 18 21.50 29.4667 101 0.000 2.7 0 0 0 1258
JLO 12.6 0.5 P
JLO 20.1 0.5 S
GZA 23.5 0.5 P
GZA 38.5 0.5 S
# 2001 02 23 15 01 42.60 29.6167 103.017 5.000 1.7 0 0 0 1261
YZP 31 1 P
YZP 51.2 1 S
# 2001 02 23 17 29 21.00 29.45 101.033 11.000 2.4 0 0 0 1263
JLO 12 0.5 P
JLO 20.4 0.5 S
GZA 23.8 0.5 P
GZA 38.6 0.5 S
# 2001 02 23 18 15 11.40 31.6333 103.85 10.000 1.9 0 0 0 1264
MXI 2.6 0.5 P
MXI 4.3 0.5 S
WCH 5.3 0.5 P
WCH 8.9 0.5 S
YZP 15.6 1 P
YZP 26.5 1 S
MEK 27 1 P
MEK 44.7 1 S
XJI 27.2 0.5 P
XJI 44.9 0.5 S
# 2001 02 23 19 20 14.00 29.4667 101 0.000 2.7 0 0 0 1265
JLO 12.7 0.5 P
JLO 20.7 0.5 S
GZA 23.8 0.5 P
GZA 40 0.5 S
DFU 29.6 0.5 P
DFU 49.8 0.5 S
# 2001 02 23 20 36 58.30 29.4833 101.033 0.000 2.5 0 0 0 1267
JLO 12.4 0.5 P
JLO 20.5 0.5 S
GZA 23.3 0.5 P
GZA 38.9 0.5 S
DFU 29.5 0.5 P
DFU 48.5 0.5 S
# 2001 02 23 23 23 15.30 29.0833 102.333 12.000 2.0 0 0 0 1273
SMI 5.1 0.5 P
SMI 8.3 0.5 S
GZA 20.4 0.5 P
GZA 33.7 0.5 S
# 2001 02 23 23 24 45.80 29.7667 104.283 12.000 2.2 0 0 0 1274
YZP 28.9 1 P
YZP 48.9 1 S
# 2001 02 24 00 08 36.00 31.5833 103.017 0.000 2.0 0 0 0 1277
DFU 33.4 0.5 P
DFU 54.6 0.5 S
WCH 10.4 0.5 P
WCH 17 0.5 S
MEK 13.7 1 P
MEK 22.2 1 S
MXI 15.1 0.5 P
MXI 24.3 0.5 S
XJI 15.4 0.5 P
XJI 25 0.5 S
YZP 17.3 1 P
YZP 28.6 1 S
# 2001 02 24 00 55 18.30 29.4333 101.067 5.000 2.9 0 0 0 1279
JLO 13 0.5 P
JLO 21.2 0.5 S
GZA 23.9 0.5 P
GZA 39.7 0.5 S
SMI 24.2 0.5 P
SMI 40.6 0.5 S
DFU 29.9 0.5 P
DFU 49.7 0.5 S
# 2001 02 24 02 22 20.00 29.4167 101.033 0.000 2.7 0 0 0 1281
JLO 12.5 0.5 P
JLO 20.4 0.5 S
GZA 23.4 0.5 P
GZA 38.6 0.5 S
SMI 24 0.5 P
SMI 40 0.5 S
DFU 29.2 0.5 P
DFU 49 0.5 S
# 2001 02 25 02 05 9.10 29.4333 101.05 5.000 2.6 0 0 0 1285
JLO 12.4 0.5 P
JLO 20.5 0.5 S
GZA 23.2 0.5 P
GZA 38.7 0.5 S
SMI 23.9 0.5 P
SMI 38.9 0.5 S
DFU 29.7 0.5 P
DFU 48.7 0.5 S
# 2001 02 25 06 28 9.30 29.5 101.033 11.000 2.0 0 0 0 1287
JLO 12.5 0.5 P
JLO 21.2 0.5 S
GZA 23.3 0.5 P
GZA 38.7 0.5 S
SMI 24.3 0.5 P
SMI 40.1 0.5 S
DFU 28.7 0.5 P
DFU 47.7 0.5 S
# 2001 02 25 07 42 40.10 29.4333 101.05 5.000 3.0 0 0 0 1288
GZA 24.3 0.5 P
GZA 40.3 0.5 S
SMI 24.7 0.5 P
SMI 40.9 0.5 S
DFU 30.3 0.5 P
DFU 50.3 0.5 S
JLO 13.1 0.5 P
JLO 21.7 0.5 S
# 2001 02 25 10 01 4.20 28.25 103.367 0.000 2.0 0 0 0 1291
LBO 4.6 0.5 P
LBO 7.8 0.5 S
GZA 44.2 0.5 P
GZA 73.4 0.5 S
# 2001 02 25 10 24 29.70 31.4833 104.1 0.000 1.7 0 0 0 1292
MXI 9.7 0.5 P
MXI 15.9 0.5 S
WCH 10.9 0.5 P
WCH 17.5 0.5 S
# 2001 02 25 14 57 26.90 29.4667 101.05 12.000 3.0 0 0 0 1298
JLO 12.3 0.5 P
JLO 20 0.5 S
GZA 22.8 0.5 P
GZA 37.3 0.5 S
SMI 23.1 0.5 P
SMI 38.1 0.5 S
DFU 29.1 0.5 P
DFU 48.9 0.5 S
# 2001 02 25 16 47 4.20 29.4667 101.033 14.000 2.7 0 0 0 1300
JLO 12 0.5 P
JLO 19.8 0.5 S
GZA 23 0.5 P
GZA 38.5 0.5 S
SMI 23.3 0.5 P
SMI 38.5 0.5 S
DFU 29.2 0.5 P
DFU 49.2 0.5 S
# 2001 02 26 01 30 43.10 31.1833 103.7 5.000 1.4 0 0 0 1308
WCH 9.3 0.5 P
WCH 14.9 0.5 S
YZP 10.4 1 P
YZP 17.7 1 S
MXI 13.2 0.5 P
MXI 21.2 0.5 S
# 2001 02 26 06 04 43.40 29.45 101.033 10.000 3.0 0 0 0 1311
GZA 23.6 0.5 P
GZA 38.8 0.5 S
SMI 24 0.5 P
SMI 39.7 0.5 S
DFU 29.3 0.5 P
DFU 49.2 0.5 S
JLO 13.2 0.5 P
JLO 21.1 0.5 S
# 2001 02 26 06 12 39.80 28.3667 104.883 14.000 2.4 0 0 0 1312
WMP 25.8 1 P
WMP 42.4 1 S
# 2001 02 26 11 39 42.30 29.4333 101.1 5.000 1.9 0 0 0 1320
JLO 11.9 0.5 P
JLO 19.4 0.5 S
SMI 22.5 0.5 P
SMI 37.2 0.5 S
GZA 23.1 0.5 P
GZA 38.3 0.5 S
# 2001 02 26 12 18 1.60 29.4667 101 0.000 2.8 0 0 0 1321
JLO 12.8 0.5 P
JLO 21.5 0.5 S
SMI 24.8 0.5 P
SMI 40.6 0.5 S
GZA 24.9 0.5 P
GZA 40.6 0.5 S
DFU 30.9 0.5 P
DFU 50.9 0.5 S
# 2001 02 27 02 46 21.80 29.4333 101.017 7.000 2.2 0 0 0 1331
JLO 12.6 0.5 P
JLO 20.6 0.5 S
SMI 23.2 0.5 P
SMI 38.2 0.5 S
GZA 23.6 0.5 P
GZA 38.8 0.5 S
DFU 29.4 0.5 P
DFU 49.1 0.5 S
# 2001 02 27 14 18 43.90 32.1 105.067 14.000 2.2 0 0 0 1342
MXI 24.9 0.5 P
MXI 41.4 0.5 S
# 2001 02 27 22 21 48.40 29.4167 101 5.000 3.2 0 0 0 1352
JLO 13.1 0.5 P
JLO 21.6 0.5 S
GZA 24.2 0.5 P
GZA 40.4 0.5 S
SMI 24.4 0.5 P
SMI 40.3 0.5 S
DFU 29.6 0.5 P
DFU 49.4 0.5 S
# 2001 02 28 04 00 14.70 28.2667 103.35 0.000 2.2 0 0 0 1353
LBO 4.2 0.5 P
LBO 6.3 0.5 S
WMP 17.8 1 P
WMP 28.7 1 S
# 2001 02 28 14 43 59.60 31.6167 104.233 5.000 1.5 0 0 0 1365
MXI 7.4 0.5 P
MXI 12.4 0.5 S
WCH 11 0.5 P
WCH 17.9 0.5 S
# 2001 03 01 11 33 37.00 30.3167 102.55 0.000 1.4 0 0 0 1385
GZA 14 0.5 P
XJI 18.9 0.5 P
XJI 30.4 0.5 S
# 2001 03 01 13 19 54.50 29.4667 101.05 0.000 3.5 0 0 0 1388
JLO 12.2 0.5 P
JLO 19.5 0.5 S
GZA 23 0.5 P
GZA 38.5 0.5 S
SMI 23 0.5 P
SMI 38 0.5 S
DFU 29.5 0.5 P
DFU 48.9 0.5 S
XJI 36.8 0.5 P
XJI 63.9 0.5 S
# 2001 03 01 18 44 56.30 31.2833 104.233 14.000 1.5 0 0 0 1392
MXI 8.7 0.5 P
MXI 14.7 0.5 S
WCH 11.5 0.5 P
WCH 19.3 0.5 S
# 2001 03 01 20 31 23.70 29.4333 101.067 5.000 2.3 0 0 0 1395
JLO 12.4 0.5 P
JLO 20.2 0.5 S
GZA 23.8 0.5 P
GZA 38.9 0.5 S
# 2001 03 02 11 22 17.70 29.2833 101.983 5.000 1.8 0 0 0 1404
JLO 8.3 0.5 P
JLO 13.8 0.5 S
SMI 9.1 0.5 P
SMI 15.1 0.5 S
GZA 18.3 0.5 P
GZA 30.7 0.5 S
# 2001 03 02 20 13 22.70 31.8333 102.05 14.000 1.8 0 0 0 1418
MEK 4.6 1 P
MEK 7.1 1 S
XJI 20.5 0.5 P
XJI 34.3 0.5 S
DFU 25.7 0.5 P
DFU 42.1 0.5 S
# 2001 03 03 00 16 59.60 29.4667 101.033 2.000 2.9 0 0 0 1424
JLO 13 0.5 P
JLO 20.9 0.5 S
GZA 23.9 0.5 P
GZA 39.4 0.5 S
SMI 24.6 0.5 P
SMI 39.8 0.5 S
DFU 29.8 0.5 P
DFU 49.8 0.5 S
# 2001 03 03 00 41 21.30 29.4667 101.05 12.000 2.5 0 0 0 1426
JLO 12.8 0.5 P
JLO 20.6 0.5 S
GZA 23.3 0.5 P
GZA 38.7 0.5 S
DFU 29.7 0.5 P
DFU 50.1 0.5 S
# 2001 03 03 14 00 18.80 29.2333 102.283 11.000 1.5 0 0 0 1436
SMI 2.2 0.5 P
SMI 3.4 0.5 S
JLO 13.8 0.5 P
JLO 22.8 0.5 S
# 2001 03 03 14 18 33.50 30.9833 103.267 0.000 1.7 0 0 0 1437
WCH 20.1 0.5 S
YZP 6.7 1 P
YZP 10.9 1 S
XJI 17.1 0.5 P
XJI 28.5 0.5 S
# 2001 03 03 15 48 7.20 30.3167 102.583 18.000 2.7 0 0 0 1439
GZA 10.2 0.5 P
GZA 16.6 0.5 S
XJI 13.7 0.5 P
XJI 21.7 0.5 S
YZP 19 1 P
YZP 31.6 1 S
EMS 36 1 S
SMI 22.8 0.5 P
SMI 37.9 0.5 S
WCH 25.1 0.5 P
WCH 41.5 0.5 S
DFU 27.6 0.5 P
DFU 46.2 0.5 S
MEK 29.5 1 P
MEK 48.5 1 S
WMP 31.2 1 P
WMP 51.5 1 S
JLO 32.8 0.5 P
JLO 54.4 0.5 S
# 2001 03 03 17 28 49.10 31.2333 103.933 11.000 1.4 0 0 0 1441
YZP 12.5 1 P
YZP 20.5 1 S
WCH 8.6 0.5 P
WCH 14.5 0.5 S
MXI 10.7 0.5 P
MXI 17.5 0.5 S
# 2001 03 03 17 38 4.50 30.95 103.267 7.000 2.1 0 0 0 1442
YZP 5.7 1 P
YZP 9.7 1 S
WCH 11.3 0.5 P
WCH 18.7 0.5 S
XJI 16.6 0.5 P
XJI 27.2 0.5 S
MXI 16.9 0.5 P
MXI 27.9 0.5 S
MEK 26.7 1 P
MEK 44.4 1 S
EMS 46.3 1 S
# 2001 03 03 18 22 43.10 32.2 103.733 0.000 1.7 0 0 0 1445
WCH 17.1 0.5 P
WCH 28.5 0.5 S
MXI 13.7 0.5 P
MXI 22.1 0.5 S
# 2001 03 03 18 49 32.90 29.0667 102.733 9.000 1.9 0 0 0 1446
SMI 8.4 0.5 P
SMI 13.7 0.5 S
WMP 17.3 1 P
WMP 29.2 1 S
JLO 21.4 0.5 P
JLO 34.3 0.5 S
GZA 22.1 0.5 P
GZA 36.5 0.5 S
# 2001 03 03 23 40 12.50 31.3833 101.167 0.000 2.1 0 0 0 1453
DFU 9.3 0.5 P
DFU 15.3 0.5 S
MEK 21.1 1 P
MEK 34.5 1 S
XJI 22.9 0.5 P
XJI 38.2 0.5 S
GZA 30.5 0.5 P
GZA 51.5 0.5 S
# 2001 03 04 02 07 1.00 29.4667 101.033 0.000 2.6 0 0 0 1457
JLO 13.2 0.5 P
JLO 20.8 0.5 S
GZA 24.6 0.5 P
GZA 40 0.5 S
SMI 24.7 0.5 P
SMI 40.8 0.5 S
DFU 29.6 0.5 P
DFU 49.8 0.5 S
# 2001 03 04 11 21 59.50 28.3833 104.933 10.000 2.3 0 0 0 1472
WMP 24.4 1 P
WMP 40.6 1 S
LBO 27.5 0.5 P
LBO 45.3 0.5 S
# 2001 03 04 13 35 17.00 29.4 101.067 0.000 2.4 0 0 0 1476
JLO 12.7 0.5 P
JLO 21 0.5 S
GZA 23.4 0.5 P
GZA 38.6 0.5 S
SMI 24 0.5 P
SMI 39.6 0.5 S
# 2001 03 04 14 32 54.30 31.7167 102.583 11.000 1.8 0 0 0 1478
MEK 6 1 P
MEK 10 1 S
XJI 14.3 0.5 P
XJI 23.3 0.5 S
WCH 16.1 0.5 P
WCH 26.9 0.5 S
MXI 21.1 0.5 P
MXI 34.5 0.5 S
# 2001 03 04 15 49 11.10 31.6167 100.617 0.000 2.1 0 0 0 1481
DFU 16.5 0.5 P
DFU 26.7 0.5 S
MEK 30.2 1 P
MEK 50.4 1 S
XJI 33.5 0.5 P
XJI 55.1 0.5 S
# 2001 03 04 21 10 45.30 29 101.85 7.000 2.7 0 0 0 1487
GZA 22.1 0.5 P
GZA 36.7 0.5 S
EMS 49 1 S
XJI 38.7 0.5 P
XJI 65.1 0.5 S
JLO 7.3 0.5 P
JLO 11.3 0.5 S
SMI 10.4 0.5 P
SMI 16.7 0.5 S
# 2001 03 04 23 25 1.10 31.85 101.1 5.000 1.6 0 0 0 1488
MEK 19.9 1 P
MEK 32.8 1 S
DFU 20.1 0.5 P
DFU 33.5 0.5 S
# 2001 03 05 02 33 14.00 29.4667 101.083 0.000 2.3 0 0 0 1490
JLO 12 0.5 P
JLO 19.6 0.5 S
GZA 22.8 0.5 P
GZA 37.6 0.5 S
DFU 30 0.5 P
DFU 49.2 0.5 S
# 2001 03 05 13 35 2.50 29.4667 101.067 13.000 2.5 0 0 0 1496
JLO 11.8 0.5 P
JLO 19.3 0.5 S
GZA 22.5 0.5 P
GZA 37.9 0.5 S
SMI 23.7 0.5 P
SMI 38 0.5 S
DFU 30.1 0.5 P
DFU 49.9 0.5 S
# 2001 03 05 19 47 47.50 31.2167 103.783 11.000 1.3 0 0 0 1508
WCH 8.9 0.5 P
WCH 14.7 0.5 S
YZP 10.7 1 P
YZP 17.1 1 S
MXI 12.3 0.5 P
MXI 20.1 0.5 S
# 2001 03 06 00 38 31.90 29.4667 101.1 12.000 2.3 0 0 0 1511
DFU 29.5 0.5 P
DFU 48.7 0.5 S
JLO 11.3 0.5 P
JLO 18.8 0.5 S
GZA 23.1 0.5 P
GZA 38.1 0.5 S
# 2001 03 06 15 12 29.10 30.9667 104.583 7.000 2.0 0 0 0 1522
YZP 18.9 1 P
YZP 31.1 1 S
MXI 18.9 0.5 P
MXI 31.7 0.5 S
# 2001 03 06 19 41 24.70 27.8167 100.933 0.000 3.5 0 0 0 1525
GZA 46.5 0.5 P
JLO 25.1 0.5 P
JLO 41.5 0.5 S
# 2001 03 07 00 09 22.00 29.9333 103.033 15.000 2.0 0 0 0 1530
EMS 20.5 1 S
GZA 15.8 0.5 P
GZA 26 0.5 S
YZP 21.3 1 P
YZP 34.9 1 S
WMP 21.5 1 P
WMP 34.8 1 S
XJI 23.1 0.5 P
XJI 38.4 0.5 S
# 2001 03 07 19 51 23.60 27.75 102.75 6.000 4.2 0 0 0 1550
GZA 44.7 0.5 P
WCH 62.3 0.5 P
MEK 69.9 1 P
LBO 18.6 0.5 P
LBO 31.4 0.5 S
SMI 29.4 0.5 P
SMI 49.4 0.5 S
WMP 30.2 1 P
WMP 52 1 S
JLO 30.9 0.5 P
JLO 53.2 0.5 S
# 2001 03 07 20 11 14.60 27.75 102.75 9.000 2.8 0 0 0 1551
LBO 19.4 0.5 P
LBO 31.6 0.5 S
SMI 27.9 0.5 P
SMI 48.9 0.5 S
# 2001 03 07 21 55 13.20 27.7333 102.717 15.000 2.2 0 0 0 1559
LBO 16.8 0.5 P
LBO 28 0.5 S
SMI 28.4 0.5 P
SMI 47.1 0.5 S
# 2001 03 08 14 23 31.10 29.45 101.05 10.000 2.3 0 0 0 1581
DFU 29.4 0.5 P
DFU 48.9 0.5 S
JLO 12.1 0.5 P
JLO 19.6 0.5 S
GZA 23.1 0.5 P
GZA 38.3 0.5 S
# 2001 03 08 19 33 41.30 31.5333 102.383 9.000 2.1 0 0 0 1585
YZP 23.3 1 P
YZP 38.9 1 S
MXI 23.6 0.5 P
MXI 38.9 0.5 S
MEK 7.5 1 P
MEK 12.4 1 S
XJI 11.1 0.5 P
XJI 18.1 0.5 S
WCH 18.3 0.5 P
WCH 30.5 0.5 S
# 2001 03 08 20 48 35.70 31.7833 102.367 13.000 1.8 0 0 0 1587
MEK 4.4 1 P
MEK 6.6 1 S
XJI 18.1 0.5 P
XJI 29.9 0.5 S
# 2001 03 09 04 35 49.80 29.4667 101.067 8.000 2.4 0 0 0 1597
JLO 12.9 0.5 P
JLO 20.8 0.5 S
GZA 23.8 0.5 P
GZA 39.2 0.5 S
DFU 30 0.5 P
DFU 49.8 0.5 S
# 2001 03 09 13 01 9.00 31.1833 104.083 5.000 1.7 0 0 0 1602
WCH 9.6 0.5 P
WCH 16 0.5 S
MXI 12 0.5 P
MXI 20 0.5 S
YZP 13.2 1 P
YZP 22 1 S
# 2001 03 09 14 00 26.70 31.9167 103.683 10.000 2.0 0 0 0 1603
MXI 6.9 0.5 P
MXI 11.5 0.5 S
WCH 8.7 0.5 P
WCH 14.5 0.5 S
YZP 21.9 1 P
YZP 36 1 S
MEK 23.5 1 P
MEK 38.7 1 S
XJI 28.5 0.5 P
XJI 46.9 0.5 S
# 2001 03 09 15 53 14.50 32.1 101.033 0.000 2.1 0 0 0 1606
MEK 21.6 1 P
MEK 35.6 1 S
DFU 23 0.5 P
DFU 38.3 0.5 S
XJI 31.7 0.5 P
XJI 52.3 0.5 S
# 2001 03 09 18 19 10.40 29.4667 101.067 0.000 2.5 0 0 0 1609
JLO 11.5 0.5 P
JLO 19.1 0.5 S
GZA 22.2 0.5 P
GZA 36.9 0.5 S
DFU 28.8 0.5 P
DFU 47.6 0.5 S
# 2001 03 10 01 26 28.00 29.0167 103.667 0.000 1.9 0 0 0 1615
WMP 1.4 1 P
WMP 3.4 1 S
LBO 15 0.5 P
LBO 25.3 0.5 S
# 2001 03 11 16 37 23.40 30.4333 103.367 11.000 2.3 0 0 0 1644
YZP 11.6 1 P
YZP 18.4 1 S
EMS 31.3 1 S
WCH 20.6 0.5 P
WCH 34.2 0.5 S
XJI 21.1 0.5 P
XJI 34.1 0.5 S
GZA 21.8 0.5 P
GZA 35.2 0.5 S
MXI 26.1 0.5 P
MXI 43 0.5 S
SMI 29.6 0.5 P
SMI 49.3 0.5 S
MEK 34.2 1 P
MEK 57.1 1 S
# 2001 03 11 22 32 4.20 29.4 101.05 0.000 3.5 0 0 0 1651
JLO 13.2 0.5 P
JLO 21 0.5 S
SMI 24.2 0.5 P
SMI 41.2 0.5 S
GZA 24.7 0.5 P
GZA 40.4 0.5 S
DFU 30 0.5 P
DFU 49.8 0.5 S
# 2001 03 12 10 16 46.90 29.4667 101.067 12.000 3.0 0 0 0 1659
GZA 23.3 0.5 P
GZA 38.7 0.5 S
SMI 24.1 0.5 P
SMI 40.1 0.5 S
DFU 29.7 0.5 P
DFU 52.1 0.5 S
JLO 12.5 0.5 P
JLO 20.2 0.5 S
# 2001 03 12 13 27 29.90 27.3667 102.017 9.000 3.0 0 0 0 1663
JLO 33.5 0.5 P
JLO 56.6 0.5 S
LBO 34.1 0.5 P
LBO 56.1 0.5 S
# 2001 03 13 10 33 56.00 31.5167 104.05 11.000 1.4 0 0 0 1675
MXI 8 0.5 P
MXI 13 0.5 S
WCH 8.6 0.5 P
WCH 14.4 0.5 S
YZP 17.8 1 P
YZP 30.4 1 S
# 2001 03 13 10 44 49.30 32.05 105.2 14.000 2.0 0 0 0 1676
MXI 42.2 0.5 S
WCH 30 0.5 P
WCH 49.4 0.5 S
# 2001 03 13 18 37 8.40 30.4667 101.567 0.000 2.0 0 0 0 1684
GZA 12.6 0.5 P
GZA 20.8 0.5 S
XJI 16.6 0.5 P
XJI 27.2 0.5 S
JLO 28.2 0.5 P
JLO 47.3 0.5 S
JLO 28.2 0.5 P
JLO 47.3 0.5 S
# 2001 03 13 22 20 12.00 29.4333 101.1 10.000 2.4 0 0 0 1688
JLO 11.1 0.5 P
JLO 17.8 0.5 S
GZA 23 0.5 P
GZA 38 0.5 S
DFU 30.6 0.5 P
DFU 50.8 0.5 S
# 2001 03 13 23 00 7.00 31.3833 103.967 0.000 1.2 0 0 0 1690
MXI 6.4 0.5 P
MXI 10.8 0.5 S
WCH 6.9 0.5 P
WCH 11.6 0.5 S
# 2001 03 14 01 51 22.20 29 102.317 12.000 1.9 0 0 0 1691
SMI 5.5 0.5 P
SMI 9.4 0.5 S
# 2001 03 14 13 40 16.70 31.4667 104.033 0.000 1.1 0 0 0 1699
WCH 8.3 0.5 P
WCH 13.9 0.5 S
YZP 18.3 1 P
# 2001 03 14 18 28 54.30 29.4333 103.417 5.000 2.4 0 0 0 1706
EMS 12 1 S
WMP 11.9 1 P
WMP 19.1 1 S
LBO 28.5 0.5 P
GZA 28.7 0.5 P
GZA 47.7 0.5 S
YZP 32.3 1 P
# 2001 03 14 23 14 19.70 30.5167 101.55 0.000 2.1 0 0 0 1715
GZA 12.5 0.5 P
GZA 20.7 0.5 S
DFU 12.6 0.5 P
DFU 21.1 0.5 S
XJI 16.8 0.5 P
XJI 27.9 0.5 S
# 2001 03 15 08 17 45.30 29.2833 104.317 19.000 2.6 0 0 0 1723
EMS 30.5 1 S
LBO 24.3 0.5 P
LBO 39.3 0.5 S
YZP 31.9 1 P
YZP 54.3 1 S
SMI 32.3 0.5 P
SMI 55.7 0.5 S
WMP 9.1 1 P
WMP 15.8 1 S
# 2001 03 15 09 20 3.20 28.3333 103.833 5.000 2.6 0 0 0 1725
LBO 5.6 0.5 P
LBO 9.8 0.5 S
WMP 16 1 P
WMP 26.8 1 S
EMS 48.6 1 S
SMI 32.8 0.5 P
SMI 55.8 0.5 S
# 2001 03 15 10 50 59.50 29.2833 102.05 0.000 2.1 0 0 0 1726
SMI 8.5 0.5 P
SMI 14.2 0.5 S
GZA 17.9 0.5 P
GZA 30 0.5 S
# 2001 03 15 22 27 33.90 29.4667 101.05 0.000 2.5 0 0 0 1733
JLO 12.4 0.5 P
JLO 20.4 0.5 S
GZA 23.6 0.5 P
GZA 39.3 0.5 S
SMI 24.3 0.5 P
SMI 39.3 0.5 S
# 2001 03 16 02 51 15.10 31.6167 103.65 5.000 1.1 0 0 0 1736
MXI 4.6 0.5 P
MXI 7.3 0.5 S
WCH 5.2 0.5 P
WCH 8.3 0.5 S
YZP 16.9 1 P
YZP 28.4 1 S
# 2001 03 16 17 20 1.50 29.6667 102.433 3.000 1.6 0 0 0 1753
GZA 9.5 0.5 P
GZA 15.5 0.5 S
SMI 12 0.5 P
SMI 19.8 0.5 S
JLO 23.5 0.5 P
JLO 38.9 0.5 S
# 2001 03 17 12 20 43.00 31.6833 101.883 12.000 2.5 0 0 0 1770
XJI 18.7 0.5 P
XJI 30.5 0.5 S
DFU 20.3 0.5 P
DFU 32.7 0.5 S
MEK 8.5 1 P
MEK 13.8 1 S
# 2001 03 17 18 11 43.00 29.15 101.933 0.000 3.1 0 0 0 1774
GZA 18.6 0.5 P
GZA 30.6 0.5 S
JLO 8.5 0.5 P
JLO 13.6 0.5 S
SMI 9.4 0.5 P
SMI 15.8 0.5 S
# 2001 03 18 19 38 50.90 29.3833 103.417 8.000 2.4 0 0 0 1796
WMP 9.6 1 P
WMP 15.6 1 S
EMS 8.2 1 S
EMS 8.2 1 S
EMS 8.2 1 S
# 2001 03 18 22 29 38.40 31.3667 103.85 5.000 2.2 0 0 0 1801
WCH 6.6 0.5 P
WCH 10.8 0.5 S
MXI 7.5 0.5 P
MXI 11.7 0.5 S
YZP 13.4 1 P
YZP 22.2 1 S
# 2001 03 19 21 29 56.80 29.2167 101.883 3.000 1.8 0 0 0 1824
JLO 7.4 0.5 P
JLO 12.2 0.5 S
SMI 8.4 0.5 P
SMI 14.8 0.5 S
GZA 17.8 0.5 P
GZA 28.6 0.5 S
# 2001 03 19 22 01 20.60 29.1833 102.267 7.000 2.0 0 0 0 1825
SMI 5.2 0.5 P
SMI 8.1 0.5 S
JLO 15.8 0.5 P
JLO 26 0.5 S
GZA 19.4 0.5 P
GZA 31.9 0.5 S
# 2001 03 20 00 01 36.20 31.1167 101.083 0.000 1.7 0 0 0 1826
GZA 41.8 0.5 S
MEK 25 1 P
MEK 41.3 1 S
DFU 2.1 0.5 P
DFU 3.8 0.5 S
# 2001 03 23 05 02 1.40 27.9167 101.017 0.000 2.6 0 0 0 1887
JLO 26.2 0.5 P
JLO 42.6 0.5 S
# 2001 03 23 09 08 53.40 29.2167 102 9.000 2.1 0 0 0 1890
JLO 8 0.5 P
JLO 12.9 0.5 S
SMI 9.1 0.5 P
SMI 15.4 0.5 S
GZA 18.6 0.5 P
GZA 30.8 0.5 S
# 2001 03 23 11 20 34.10 29.4667 101.05 17.000 2.8 0 0 0 1895
DFU 29.7 0.5 P
DFU 48.9 0.5 S
JLO 12.4 0.5 P
JLO 20.5 0.5 S
GZA 23.3 0.5 P
GZA 38.9 0.5 S
# 2001 03 23 14 59 53.20 28.2667 103.6 6.000 2.5 0 0 0 1899
LBO 3.2 0.5 P
LBO 4.8 0.5 S
LBO 3.2 0.5 P
LBO 4.8 0.5 S
LBO 3.2 0.5 P
LBO 4.8 0.5 S
LBO 3.2 0.5 P
LBO 4.8 0.5 S
LBO 3.2 0.5 P
LBO 4.8 0.5 S
LBO 3.2 0.5 P
LBO 4.8 0.5 S
LBO 3.2 0.5 P
LBO 4.8 0.5 S
LBO 3.2 0.5 P
LBO 4.8 0.5 S
LBO 3.2 0.5 P
LBO 4.8 0.5 S
LBO 3.2 0.5 P
LBO 4.8 0.5 S
# 2001 03 23 22 46 56.20 29.2833 105.633 8.000 2.5 0 0 0 1908
WMP 30.8 1 P
WMP 51 1 S
# 2001 03 24 00 34 17.00 31.5167 104.067 9.000 1.9 0 0 0 1909
MXI 7.5 0.5 P
MXI 12 0.5 S
WCH 9.4 0.5 P
WCH 15.2 0.5 S
YZP 16.5 1 P
YZP 27.5 1 S
# 2001 03 24 02 29 21.70 31.5833 102.383 9.000 2.0 0 0 0 1910
MEK 6.8 1 P
MEK 10.7 1 S
XJI 12.6 0.5 P
XJI 20.3 0.5 S
WCH 20.1 0.5 P
WCH 33.3 0.5 S
YZP 24.3 1 P
YZP 41.7 1 S
DFU 25.3 0.5 P
DFU 41.5 0.5 S
# 2001 03 24 12 37 33.10 31.8667 104.333 0.000 1.5 0 0 0 1921
MXI 8.9 0.5 P
MXI 15.3 0.5 S
# 2001 03 24 16 55 41.30 29.5333 103.083 11.000 1.5 0 0 0 1925
GZA 20.7 0.5 P
GZA 33.7 0.5 S
EMS 13.8 1 S
SMI 15.1 0.5 P
SMI 25.1 0.5 S
# 2001 03 25 00 23 17.50 29.4833 101.05 9.000 2.8 0 0 0 1932
JLO 12.8 0.5 P
JLO 20.7 0.5 S
GZA 23.6 0.5 P
GZA 38.9 0.5 S
SMI 24 0.5 P
SMI 40 0.5 S
DFU 29.1 0.5 P
DFU 49.9 0.5 S
# 2001 03 25 02 57 34.50 29.2167 101.967 2.000 1.9 0 0 0 1940
JLO 8.1 0.5 P
JLO 12.9 0.5 S
SMI 8.8 0.5 P
SMI 14.8 0.5 S
GZA 18.5 0.5 P
GZA 30.3 0.5 S
# 2001 03 25 06 34 51.00 29.3833 102 0.000 1.5 0 0 0 1947
JLO 11.6 0.5 P
JLO 18.1 0.5 S
GZA 13 0.5 P
GZA 22.2 0.5 S
SMI 7.3 0.5 P
SMI 12.9 0.5 S
# 2001 03 25 13 10 50.80 29.1833 102.017 0.000 2.3 0 0 0 1956
GZA 18.4 0.5 P
GZA 30.2 0.5 S
JLO 7.8 0.5 P
JLO 12.9 0.5 S
SMI 8.6 0.5 P
SMI 14.6 0.5 S
SMI 14.6 0.5 S
# 2001 03 25 13 12 28.70 29.2333 102 6.000 2.6 0 0 0 1957
JLO 7.7 0.5 P
JLO 12.7 0.5 S
SMI 8.5 0.5 P
SMI 14.5 0.5 S
GZA 18.5 0.5 P
GZA 30.3 0.5 S
# 2001 03 25 13 33 59.80 29.2167 101.95 9.000 2.3 0 0 0 1959
JLO 8.1 0.5 P
JLO 12.9 0.5 S
SMI 9 0.5 P
SMI 15 0.5 S
GZA 18.6 0.5 P
GZA 30.6 0.5 S
# 2001 03 25 13 51 12.80 29.2333 101.967 1.000 1.7 0 0 0 1960
JLO 7.5 0.5 P
JLO 12.3 0.5 S
SMI 8.2 0.5 P
SMI 14.1 0.5 S
GZA 18.2 0.5 P
GZA 30.2 0.5 S
# 2001 03 25 13 51 46.10 29.2333 101.95 4.000 1.8 0 0 0 1961
JLO 8 0.5 P
JLO 12.3 0.5 S
SMI 8.3 0.5 P
SMI 14.4 0.5 S
# 2001 03 25 17 42 27.40 31.6833 102.65 10.000 2.0 0 0 0 1969
MEK 6.9 1 P
MEK 11.8 1 S
XJI 17.9 0.5 P
XJI 28.9 0.5 S
# 2001 03 25 18 16 20.60 29.2333 101.967 0.000 1.7 0 0 0 1971
JLO 7.8 0.5 P
JLO 12.8 0.5 S
SMI 8.6 0.5 P
SMI 14.5 0.5 S
GZA 18.6 0.5 P
GZA 30.6 0.5 S
# 2001 03 26 06 49 58.00 29.2833 102.183 0.000 1.5 0 0 0 1992
SMI 4 0.5 P
SMI 6.5 0.5 S
JLO 13.2 0.5 P
JLO 22 0.5 S
GZA 16 0.5 P
GZA 26.4 0.5 S
# 2001 03 26 11 31 6.40 31.5333 104.033 0.000 1.4 0 0 0 1994
WCH 8.6 0.5 P
WCH 14.4 0.5 S
YZP 15 1 P
YZP 24.6 1 S
# 2001 03 26 12 47 28.60 29.2167 101.867 0.000 2.9 0 0 0 1997
XJI 35.7 0.5 P
XJI 58.2 0.5 S
JLO 8.9 0.5 P
JLO 13.8 0.5 S
SMI 9.4 0.5 P
SMI 15.4 0.5 S
GZA 18.8 0.5 P
GZA 31.1 0.5 S
EMS 48.4 1 S
# 2001 03 26 13 44 10.40 29.1833 101.883 0.000 2.6 0 0 0 2002
JLO 7.7 0.5 P
JLO 12.5 0.5 S
SMI 8.8 0.5 P
SMI 14.7 0.5 S
# 2001 03 26 17 02 58.00 29.2333 101.833 5.000 1.7 0 0 0 2011
JLO 8 0.5 P
JLO 13 0.5 S
SMI 9.2 0.5 P
SMI 15 0.5 S
GZA 18.6 0.5 P
GZA 31.6 0.5 S
# 2001 03 27 03 45 12.50 28.3833 105.583 0.000 2.8 0 0 0 2032
WMP 32.1 1 P
WMP 53 1 S
# 2001 03 27 05 04 55.80 29.1 101.85 12.000 1.7 0 0 0 2034
JLO 8.2 0.5 P
JLO 13.1 0.5 S
SMI 9.1 0.5 P
SMI 15 0.5 S
# 2001 03 27 06 12 56.40 29.4833 101 0.000 2.6 0 0 0 2035
JLO 12.8 0.5 P
JLO 20.8 0.5 S
GZA 24.2 0.5 P
GZA 39.8 0.5 S
DFU 29.8 0.5 P
DFU 50.2 0.5 S
# 2001 03 27 07 09 36.80 29.1833 101.85 1.000 1.7 0 0 0 2037
JLO 7.9 0.5 P
JLO 12.6 0.5 S
SMI 8.7 0.5 P
SMI 14.8 0.5 S
GZA 18.4 0.5 P
GZA 30.6 0.5 S
# 2001 03 27 13 12 45.90 29.1333 101.867 0.000 1.4 0 0 0 2043
JLO 6.6 0.5 P
JLO 11.2 0.5 S
# 2001 03 27 19 15 25.10 31.2667 103.883 0.000 1.2 0 0 0 2047
WCH 7.9 0.5 P
WCH 13.1 0.5 S
YZP 10.5 1 P
YZP 16.9 1 S
# 2001 03 28 06 38 53.40 29.2 101.85 11.000 2.7 0 0 0 2059
JLO 7.7 0.5 P
JLO 12.6 0.5 S
SMI 8.7 0.5 P
SMI 14.7 0.5 S
GZA 18 0.5 P
GZA 30.4 0.5 S
XJI 34.9 0.5 P
XJI 58.2 0.5 S
# 2001 03 28 07 41 27.50 31.5167 104.083 5.000 1.7 0 0 0 2063
MXI 7 0.5 P
MXI 11.1 0.5 S
WCH 9.1 0.5 P
WCH 14.8 0.5 S
YZP 16.3 1 P
YZP 26.9 1 S
# 2001 03 28 09 55 21.40 29.2167 101.883 0.000 2.1 0 0 0 2065
JLO 7.5 0.5 P
JLO 12.3 0.5 S
SMI 8.4 0.5 P
SMI 14.3 0.5 S
GZA 18.4 0.5 P
GZA 30.2 0.5 S
# 2001 03 28 17 15 0.10 30.6667 102.783 5.000 2.5 0 0 0 2077
XJI 14.5 0.5 P
XJI 23.9 0.5 S
YZP 16.9 1 P
YZP 28.5 1 S
GZA 18.3 0.5 P
GZA 29.1 0.5 S
WCH 22.9 0.5 P
WCH 38.1 0.5 S
EMS 46.5 1 S
MEK 29.3 1 P
MEK 48.7 1 S
MXI 30.6 0.5 P
MXI 51.1 0.5 S
