# 2001 06 07 16 26 51.50 29.4 101.05 0.000 3.2 0 0 0 4006
JLO 12.5 0.5 P
JLO 20.3 0.5 S
GZA 23.3 0.5 P
GZA 38.7 0.5 S
SMI 23.5 0.5 P
SMI 38.9 0.5 S
# 2001 06 07 16 28 44.80 28.6333 102.617 8.000 1.8 0 0 0 4007
JLO 34.7 0.5 S
SMI 13 0.5 P
SMI 22 0.5 S
# 2001 06 08 02 50 50.80 29.2167 101.9 3.000 1.6 0 0 0 4017
SMI 15.2 0.5 S
JLO 7.9 0.5 P
JLO 13.5 0.5 S
# 2001 06 08 15 20 17.60 31.2167 103.867 8.000 1.7 0 0 0 4034
WCH 9.4 0.5 P
WCH 15.9 0.5 S
YZP 11.1 1 P
YZP 18.1 1 S
MXI 11.4 0.5 P
MXI 19 0.5 S
# 2001 06 09 06 09 21.10 29.1 102.467 5.000 2.2 0 0 0 4050
SMI 4.5 0.5 P
SMI 7.3 0.5 S
JLO 16.4 0.5 P
JLO 27.8 0.5 S
GZA 20.2 0.5 P
GZA 34.1 0.5 S
WMP 23.4 1 P
WMP 37.3 1 S
# 2001 06 09 18 12 48.10 31.5167 104.067 11.000 2.1 0 0 0 4059
YZP 16.5 1 P
MXI 7.5 0.5 P
MXI 11.9 0.5 S
WCH 9.9 0.5 P
WCH 16.3 0.5 S
# 2001 06 10 00 10 19.90 29.4167 101.083 0.000 3.1 0 0 0 4065
JLO 10.1 0.5 P
JLO 17.3 0.5 S
SMI 21.5 0.5 P
SMI 36.1 0.5 S
GZA 22.3 0.5 P
GZA 37.1 0.5 S
DFU 29.9 0.5 P
DFU 50.1 0.5 S
XJI 36.7 0.5 P
XJI 63.7 0.5 S
# 2001 06 10 16 15 10.10 29.6667 103.15 13.000 2.1 0 0 0 4082
EMS 12.2 1 S
WMP 17.1 1 P
WMP 28.2 1 S
YZP 25 1 P
YZP 41.4 1 S
# 2001 06 11 07 06 56.90 29.2 101.85 0.000 1.7 0 0 0 4095
JLO 8 0.5 P
JLO 12.8 0.5 S
# 2001 06 11 07 21 17.60 29.0667 102.35 5.000 1.8 0 0 0 4096
SMI 5.3 0.5 P
SMI 8.7 0.5 S
JLO 15.2 0.5 P
JLO 25.2 0.5 S
# 2001 06 11 10 55 8.50 31.5 102.433 0.000 2.4 0 0 0 4100
MEK 8.8 1 P
MEK 13.8 1 S
XJI 10.5 0.5 P
XJI 16.5 0.5 S
WCH 19.1 0.5 P
WCH 31.1 0.5 S
YZP 22.5 1 P
YZP 38.1 1 S
MXI 24 0.5 P
MXI 39.7 0.5 S
DFU 24.3 0.5 P
DFU 41.3 0.5 S
GZA 26.9 0.5 P
GZA 44.1 0.5 S
# 2001 06 12 06 18 20.80 32.35 103.533 0.000 1.4 0 0 0 4113
MXI 14.6 0.5 P
MXI 24 0.5 S
# 2001 06 13 06 34 37.10 31.2333 103.383 0.000 2.0 0 0 0 4128
WCH 8.1 0.5 P
WCH 12.9 0.5 S
YZP 8.5 1 P
YZP 14.5 1 S
MXI 13.2 0.5 P
MXI 21.5 0.5 S
XJI 16.9 0.5 P
XJI 27.8 0.5 S
# 2001 06 14 01 55 24.20 31.85 102.067 8.000 1.6 0 0 0 4148
MEK 4.4 1 P
MEK 7 1 S
XJI 19.2 0.5 P
XJI 31.8 0.5 S
# 2001 06 14 11 31 45.80 29.2333 101.95 1.000 2.1 0 0 0 4156
JLO 7.2 0.5 P
JLO 12.2 0.5 S
SMI 8.4 0.5 P
SMI 14.5 0.5 S
GZA 17.9 0.5 P
GZA 29.8 0.5 S
# 2001 06 14 12 55 24.80 29.4333 101.05 0.000 2.1 0 0 0 4160
JLO 12.1 0.5 P
JLO 20.3 0.5 S
SMI 24.2 0.5 P
SMI 40.2 0.5 S
GZA 24.4 0.5 P
GZA 39.2 0.5 S
# 2001 06 14 14 19 10.40 27.0167 103.167 5.000 2.8 0 0 0 4166
LBO 26.6 0.5 P
LBO 43.6 0.5 S
# 2001 06 14 16 52 50.50 30.7333 101.733 11.000 2.3 0 0 0 4172
DFU 11.2 0.5 P
DFU 18.8 0.5 S
XJI 13.3 0.5 P
XJI 21.6 0.5 S
GZA 14.5 0.5 P
GZA 23.9 0.5 S
MEK 24.5 1 P
MEK 40.5 1 S
YZP 32.1 1 P
YZP 53.5 1 S
# 2001 06 14 22 48 5.80 30.7333 101.683 10.000 1.8 0 0 0 4177
DFU 11.5 0.5 P
DFU 18.8 0.5 S
XJI 13.4 0.5 P
XJI 21.4 0.5 S
GZA 15 0.5 P
GZA 24.2 0.5 S
MEK 24.8 1 P
MEK 41 1 S
# 2001 06 15 04 31 8.70 28.25 104.95 0.000 2.3 0 0 0 4184
LBO 27.9 0.5 P
LBO 45.9 0.5 S
# 2001 06 15 04 35 30.20 29.1833 101.933 0.000 1.6 0 0 0 4185
JLO 7.5 0.5 P
JLO 12.2 0.5 S
# 2001 06 16 03 35 32.40 31.5 104.067 0.000 1.3 0 0 0 4207
MXI 7.6 0.5 P
MXI 12.6 0.5 S
WCH 10.2 0.5 P
WCH 17.4 0.5 S
# 2001 06 16 07 41 57.30 30.6667 103.067 7.000 1.8 0 0 0 4211
YZP 10.7 1 P
YZP 17.7 1 S
XJI 14.6 0.5 P
XJI 24 0.5 S
GZA 18.1 0.5 P
GZA 30.5 0.5 S
WCH 18.3 0.5 P
WCH 30.1 0.5 S
MXI 23.3 0.5 P
MXI 38.7 0.5 S
MEK 28.8 1 P
MEK 47.1 1 S
# 2001 06 17 00 58 43.50 28.5333 103.717 9.000 1.7 0 0 0 4231
EMS 36.8 1 S
LBO 6.9 0.5 P
LBO 11.1 0.5 S
WMP 11.9 1 P
WMP 19.1 1 S
# 2001 06 17 15 57 20.60 31.5333 104.1 12.000 1.8 0 0 0 4243
MXI 7.2 0.5 P
MXI 11.8 0.5 S
WCH 10.2 0.5 P
WCH 16.4 0.5 S
YZP 16.8 1 P
YZP 27.4 1 S
# 2001 06 17 22 11 58.70 27.1333 103.083 5.000 1.8 0 0 0 4252
LBO 23.3 0.5 P
LBO 39.3 0.5 S
# 2001 06 18 05 49 11.90 31.3833 103.183 0.000 1.9 0 0 0 4260
WCH 5.9 0.5 P
WCH 10.5 0.5 S
YZP 10.5 1 P
YZP 19.1 1 S
MXI 11.2 0.5 P
MXI 19.6 0.5 S
XJI 14.3 0.5 P
XJI 24.2 0.5 S
MEK 17.6 1 P
MEK 29.9 1 S
# 2001 06 20 05 19 58.40 30.1167 102.5 15.000 2.1 0 0 0 4290
GZA 6.6 0.5 P
GZA 10.6 0.5 S
SMI 17.4 0.5 P
SMI 28.8 0.5 S
XJI 17.4 0.5 P
XJI 28.2 0.5 S
EMS 33.5 1 S
YZP 23.3 1 P
YZP 39.2 1 S
JLO 27.6 0.5 P
JLO 45.9 0.5 S
WMP 30.3 1 P
WMP 50.8 1 S
# 2001 06 21 00 58 4.90 28.5833 104.433 8.000 2.3 0 0 0 4303
LBO 19.3 0.5 P
LBO 31.5 0.5 S
# 2001 06 21 11 36 2.30 29.1667 101.917 0.000 1.6 0 0 0 4312
SMI 8.9 0.5 P
SMI 14.7 0.5 S
GZA 18.1 0.5 P
GZA 30.7 0.5 S
# 2001 06 21 14 06 9.00 31.5333 104.483 0.000 1.7 0 0 0 4322
MXI 10 0.5 P
MXI 16.7 0.5 S
WCH 14.5 0.5 P
WCH 24.4 0.5 S
# 2001 06 22 14 07 15.90 32.1833 103.55 13.000 1.9 0 0 0 4340
MXI 11.7 0.5 P
MXI 19.3 0.5 S
WCH 14.1 0.5 P
WCH 23.3 0.5 S
MEK 22.8 1 P
MEK 37.9 1 S
# 2001 06 22 15 27 7.60 31.5167 102.383 5.000 1.9 0 0 0 4343
MEK 6.4 1 P
MEK 10.9 1 S
XJI 11.5 0.5 P
XJI 18.7 0.5 S
# 2001 06 22 21 34 26.90 31.2667 103.933 4.000 1.9 0 0 0 4346
MEK 36.4 1 P
WCH 10.1 0.5 P
WCH 17.5 0.5 S
MXI 11.4 0.5 P
MXI 18.5 0.5 S
# 2001 06 23 00 00 59.70 32.1167 103.533 0.000 1.6 0 0 0 4351
MXI 12.5 0.5 P
MXI 20.6 0.5 S
WCH 15.1 0.5 P
WCH 24.3 0.5 S
# 2001 06 23 10 16 13.20 29.8167 102.35 14.000 1.7 0 0 0 4359
GZA 7.9 0.5 P
GZA 12.2 0.5 S
SMI 10.4 0.5 P
SMI 17.4 0.5 S
JLO 19.9 0.5 P
JLO 32.6 0.5 S
XJI 21.7 0.5 P
XJI 36.7 0.5 S
# 2001 06 23 10 48 33.00 29.45 105.483 11.000 4.9 0 0 0 4360
WMP 30.2 1 P
LBO 37.2 0.5 P
LBO 63.8 0.5 S
WCH 45 0.5 P
GZA 50.2 0.5 P
MEK 62.4 1 P
# 2001 06 23 11 46 12.90 29.4 105.517 0.000 2.6 0 0 0 4361
LBO 39.1 0.5 P
LBO 64.8 0.5 S
# 2001 06 24 02 00 56.80 28.2833 102.267 10.000 2.1 0 0 0 4386
SMI 19.3 0.5 P
SMI 32.4 0.5 S
JLO 20.3 0.5 P
JLO 33.2 0.5 S
# 2001 06 24 03 04 11.80 29.2167 101.9 0.000 1.6 0 0 0 4390
JLO 7.6 0.5 P
JLO 12.3 0.5 S
SMI 8.6 0.5 P
SMI 14.5 0.5 S
GZA 18.4 0.5 P
GZA 30.7 0.5 S
# 2001 06 24 16 35 35.00 27.6667 100.917 0.000 4.1 0 0 0 4401
JLO 31.3 0.5 P
JLO 51.2 0.5 S
GZA 52.2 0.5 P
WCH 76 0.5 P
MEK 78.7 1 P
# 2001 06 24 22 58 48.10 29.4 101.083 0.000 2.3 0 0 0 4408
GZA 22.7 0.5 P
GZA 37.7 0.5 S
SMI 23.4 0.5 P
SMI 38.5 0.5 S
JLO 10.9 0.5 P
JLO 18 0.5 S
# 2001 06 25 01 10 45.30 29.4333 101.1 0.000 2.7 0 0 0 4411
GZA 22.2 0.5 P
GZA 37.7 0.5 S
SMI 22.3 0.5 P
SMI 36.5 0.5 S
DFU 29.4 0.5 P
DFU 49.7 0.5 S
XJI 36.3 0.5 P
XJI 62 0.5 S
EMS 67.3 1 S
YZP 49.9 1 P
YZP 83.6 1 S
JLO 9.8 0.5 P
JLO 17 0.5 S
# 2001 06 25 06 31 37.10 31.3833 103.817 5.000 2.5 0 0 0 4417
XJI 25.3 0.5 P
XJI 41.7 0.5 S
MEK 28.5 1 P
MEK 47.2 1 S
GZA 35.9 0.5 P
GZA 59.3 0.5 S
WCH 5.7 0.5 P
WCH 9.1 0.5 S
MXI 6.9 0.5 P
MXI 11.1 0.5 S
YZP 12.6 1 P
YZP 20.9 1 S
# 2001 06 25 10 16 22.00 29.3167 102.217 9.000 2.1 0 0 0 4423
WMP 44.8 1 S
SMI 3.2 0.5 P
SMI 5.2 0.5 S
JLO 14.1 0.5 P
JLO 22.9 0.5 S
GZA 15.6 0.5 P
GZA 25.8 0.5 S
# 2001 06 25 11 22 35.00 31.4833 104.1 10.000 1.1 0 0 0 4424
MXI 6.5 0.5 P
MXI 10.2 0.5 S
WCH 9 0.5 P
WCH 15 0.5 S
# 2001 06 25 19 00 15.10 27.6833 100.8 14.000 2.8 0 0 0 4431
JLO 29.1 0.5 P
JLO 48.2 0.5 S
# 2001 06 26 05 53 27.10 29.3833 101.05 0.000 2.5 0 0 0 4439
JLO 10.7 0.5 P
JLO 17.7 0.5 S
GZA 22.3 0.5 P
GZA 36.7 0.5 S
SMI 22.9 0.5 P
SMI 38.1 0.5 S
# 2001 06 26 16 35 38.60 29.0667 102.367 12.000 1.8 0 0 0 4452
SMI 5.6 0.5 P
SMI 9.2 0.5 S
JLO 15.3 0.5 P
JLO 25.6 0.5 S
# 2001 06 27 09 56 13.50 29.4333 105.533 15.000 2.9 0 0 0 4472
WMP 31.7 1 P
WMP 52.8 1 S
EMS 60.6 1 S
LBO 39 0.5 P
LBO 65 0.5 S
YZP 42.7 1 P
YZP 70.6 1 S
# 2001 06 27 19 47 22.90 31.15 103.617 5.000 1.7 0 0 0 4486
YZP 8.1 1 P
YZP 13.5 1 S
WCH 8.5 0.5 P
WCH 14.1 0.5 S
MXI 12.7 0.5 P
MXI 20.9 0.5 S
# 2001 06 29 00 11 42.70 27.6833 100.917 0.000 2.3 0 0 0 4516
JLO 28.3 0.5 P
JLO 46.3 0.5 S
# 2001 06 29 02 49 32.20 28.3667 104.083 8.000 2.5 0 0 0 4519
LBO 8.8 0.5 P
LBO 14.8 0.5 S
WMP 19.2 1 P
WMP 32.1 1 S
EMS 50.4 1 S
SMI 35.3 0.5 P
SMI 58.4 0.5 S
# 2001 06 29 21 13 10.20 31.5667 104.2 7.000 1.3 0 0 0 4537
MXI 5.6 0.5 P
MXI 9.2 0.5 S
WCH 10.8 0.5 P
WCH 17.8 0.5 S
# 2001 06 30 18 40 43.20 29.2333 102.283 14.000 1.8 0 0 0 4557
SMI 3.8 0.5 P
SMI 6 0.5 S
JLO 15.1 0.5 P
JLO 24.9 0.5 S
GZA 18.8 0.5 P
GZA 30.3 0.5 S
# 2001 06 30 19 20 46.30 32.8167 103.567 12.000 1.8 0 0 0 4558
MXI 43.7 0.5 S
# 2001 07 01 06 15 4.60 28.9833 102.467 10.000 1.9 0 0 0 4565
SMI 6.9 0.5 P
SMI 11.6 0.5 S
JLO 17.2 0.5 P
JLO 28.7 0.5 S
# 2001 07 01 08 31 14.80 31.1 103.667 0.000 1.9 0 0 0 4568
YZP 7.4 1 P
YZP 11.8 1 S
WCH 8.2 0.5 P
WCH 14 0.5 S
MXI 11.6 0.5 P
MXI 19.4 0.5 S
# 2001 07 01 08 46 5.10 31.1333 103.683 11.000 1.9 0 0 0 4569
XJI 38.8 0.5 S
YZP 7.1 1 P
YZP 11.7 1 S
WCH 8.3 0.5 P
WCH 13.9 0.5 S
MXI 11.5 0.5 P
MXI 19.3 0.5 S
# 2001 07 01 11 27 39.60 32.1167 101.3 12.000 1.8 0 0 0 4572
XJI 28.3 0.5 P
XJI 48.6 0.5 S
MEK 16.5 1 P
MEK 27.1 1 S
# 2001 07 02 03 48 30.20 27.9833 103.55 4.000 2.0 0 0 0 4590
LBO 9.2 0.5 P
LBO 14.8 0.5 S
WMP 23.9 1 P
WMP 39.4 1 S
# 2001 07 02 10 33 11.00 29.1 102.317 9.000 1.9 0 0 0 4596
SMI 4.8 0.5 P
SMI 8.1 0.5 S
JLO 14.6 0.5 P
JLO 24.6 0.5 S
# 2001 07 02 15 47 29.90 29.8833 103.317 15.000 2.0 0 0 0 4599
EMS 19.3 1 S
YZP 24 1 P
YZP 41.8 1 S
# 2001 07 02 15 55 17.90 29.0667 102.317 9.000 1.4 0 0 0 4600
SMI 4.4 0.5 P
SMI 7.7 0.5 S
# 2001 07 02 18 28 18.10 29.25 103.033 0.000 1.7 0 0 0 4602
EMS 19.9 1 S
WMP 15.7 1 P
WMP 25.6 1 S
# 2001 07 02 19 57 6.60 31.0667 103.883 5.000 1.7 0 0 0 4605
YZP 8.5 1 P
YZP 13.6 1 S
WCH 10.8 0.5 P
WCH 18.4 0.5 S
MXI 13.4 0.5 P
MXI 22.4 0.5 S
# 2001 07 03 09 01 49.30 28.1833 103.217 5.000 1.8 0 0 0 4609
WMP 20.6 1 P
WMP 34.3 1 S
LBO 8.5 0.5 P
LBO 14.5 0.5 S
# 2001 07 03 12 55 12.60 28.7833 104.333 8.000 2.3 0 0 0 4613
WMP 10.5 1 P
WMP 17.8 1 S
LBO 17.9 0.5 P
LBO 29.6 0.5 S
# 2001 07 03 20 00 5.20 29.8167 103.033 0.000 1.7 0 0 0 4618
GZA 14.2 0.5 P
GZA 23.6 0.5 S
EMS 22.8 1 S
WMP 24.1 1 P
# 2001 07 03 21 50 56.60 27.75 100.85 0.000 2.3 0 0 0 4621
JLO 28 0.5 P
JLO 46 0.5 S
# 2001 07 04 09 31 31.10 28.45 104.783 2.000 2.3 0 0 0 4628
LBO 25.5 0.5 P
# 2001 07 05 13 15 47.90 32.2 103.717 6.000 2.8 0 0 0 4649
MXI 12.5 0.5 P
MXI 20.6 0.5 S
WCH 16.3 0.5 P
WCH 26.9 0.5 S
MEK 26 1 P
MEK 43.4 1 S
YZP 28.2 1 P
YZP 46.5 1 S
XJI 33.8 0.5 P
XJI 56.2 0.5 S
# 2001 07 05 20 16 50.30 32.1833 103.783 4.000 2.1 0 0 0 4653
MXI 10.3 0.5 P
MXI 17.9 0.5 S
WCH 14.1 0.5 P
WCH 23.3 0.5 S
# 2001 07 06 02 16 0.10 29.1167 102.333 14.000 2.0 0 0 0 4658
SMI 5.3 0.5 P
SMI 8.9 0.5 S
JLO 15.4 0.5 P
JLO 25.2 0.5 S
GZA 20.7 0.5 P
GZA 34.1 0.5 S
# 2001 07 06 03 19 38.40 29.3833 101.1 0.000 2.1 0 0 0 4659
GZA 22.4 0.5 P
GZA 37.4 0.5 S
JLO 11.3 0.5 P
JLO 18.7 0.5 S
# 2001 07 06 05 18 29.50 31.3167 103.883 8.000 1.5 0 0 0 4660
WCH 6.9 0.5 P
WCH 11.3 0.5 S
MXI 7.4 0.5 P
MXI 12.2 0.5 S
YZP 11.9 1 P
YZP 18.3 1 S
# 2001 07 06 20 56 40.50 29.1833 101.917 0.000 1.5 0 0 0 4667
GZA 31.9 0.5 S
JLO 7.1 0.5 P
JLO 11.7 0.5 S
SMI 8.3 0.5 P
SMI 14 0.5 S
# 2001 07 06 21 27 11.50 28.8333 102.633 15.000 2.1 0 0 0 4668
SMI 10.7 0.5 P
SMI 17.5 0.5 S
JLO 19.6 0.5 P
JLO 33 0.5 S
WMP 20.8 1 P
WMP 34.1 1 S
GZA 26.5 0.5 P
GZA 44.5 0.5 S
# 2001 07 07 05 01 6.50 31.55 103.9 7.000 1.6 0 0 0 4674
MXI 2.4 0.5 P
MXI 3.7 0.5 S
WCH 5.7 0.5 P
WCH 9.1 0.5 S
YZP 15.3 1 P
YZP 25.6 1 S
# 2001 07 07 15 48 47.70 29.4333 101.083 10.000 3.0 0 0 0 4684
SMI 22.3 0.5 P
SMI 37.3 0.5 S
GZA 22.9 0.5 P
GZA 37.9 0.5 S
DFU 29.5 0.5 P
DFU 50.6 0.5 S
JLO 11.4 0.5 P
JLO 18.7 0.5 S
# 2001 07 07 16 18 30.10 31.6333 102.367 5.000 2.1 0 0 0 4687
MEK 5.5 1 P
MEK 9.4 1 S
XJI 11.8 0.5 P
XJI 19.2 0.5 S
# 2001 07 07 17 28 57.40 29.4333 101.083 9.000 2.8 0 0 0 4689
JLO 11.5 0.5 P
JLO 18.7 0.5 S
GZA 22.8 0.5 P
GZA 38 0.5 S
SMI 23 0.5 P
SMI 37.9 0.5 S
DFU 29.8 0.5 P
DFU 51.6 0.5 S
# 2001 07 07 22 07 20.50 29.4167 101.1 0.000 2.4 0 0 0 4697
JLO 10.9 0.5 P
JLO 18.1 0.5 S
GZA 22.3 0.5 P
GZA 37.3 0.5 S
DFU 29.7 0.5 P
DFU 49.8 0.5 S
# 2001 07 08 04 21 9.00 32.0667 103.717 0.000 1.7 0 0 0 4709
MXI 10 0.5 P
MXI 16.2 0.5 S
WCH 13.1 0.5 P
WCH 21.5 0.5 S
# 2001 07 09 01 56 10.30 29.8667 101.267 0.000 2.7 0 0 0 4738
GZA 15.9 0.5 P
GZA 26.1 0.5 S
JLO 16.1 0.5 P
JLO 27.3 0.5 S
SMI 21.8 0.5 P
SMI 36.1 0.5 S
DFU 22.1 0.5 P
DFU 37.1 0.5 S
XJI 28.6 0.5 P
XJI 47 0.5 S
# 2001 07 09 01 57 20.20 29.1833 101.9 0.000 2.4 0 0 0 4739
XJI 59.3 0.5 S
JLO 7.5 0.5 P
JLO 12.2 0.5 S
SMI 8.7 0.5 P
SMI 14.4 0.5 S
GZA 18.6 0.5 P
GZA 30.4 0.5 S
# 2001 07 09 17 57 4.40 31.45 104.05 12.000 1.5 0 0 0 4753
WCH 7.4 0.5 P
WCH 12.1 0.5 S
MXI 7.8 0.5 P
MXI 12.6 0.5 S
# 2001 07 10 00 33 10.60 31.3833 104.1 15.000 1.8 0 0 0 4767
WCH 7.4 0.5 P
WCH 12 0.5 S
MXI 8.1 0.5 P
MXI 12.9 0.5 S
XJI 26.9 0.5 P
XJI 44.3 0.5 S
# 2001 07 11 16 46 26.40 29.3667 105.55 5.000 2.6 0 0 0 4793
WMP 31.2 1 P
WMP 52.5 1 S
LBO 39.2 0.5 P
LBO 65.4 0.5 S
# 2001 07 11 17 10 50.20 28.9833 102.483 0.000 1.7 0 0 0 4794
JLO 16.8 0.5 P
JLO 28.4 0.5 S
SMI 6.6 0.5 P
SMI 11.1 0.5 S
# 2001 07 12 01 08 15.80 30.5167 103.267 15.000 2.4 0 0 0 4799
YZP 10.4 1 P
YZP 17.9 1 S
XJI 18 0.5 P
XJI 30.1 0.5 S
GZA 20.2 0.5 P
GZA 33 0.5 S
WCH 20.8 0.5 P
WCH 33.8 0.5 S
MXI 26.1 0.5 P
MXI 42.6 0.5 S
WMP 30.6 1 P
WMP 50.4 1 S
MEK 32.8 1 P
MEK 53.7 1 S
# 2001 07 12 06 16 23.00 29.3833 101.1 0.000 1.8 0 0 0 4802
JLO 11.2 0.5 P
JLO 19 0.5 S
GZA 22.2 0.5 P
GZA 37.8 0.5 S
SMI 22.8 0.5 P
SMI 38.4 0.5 S
# 2001 07 12 11 22 19.20 27.5667 103.933 0.000 2.1 0 0 0 4810
LBO 19 0.5 P
LBO 30.6 0.5 S
WMP 32.7 1 P
WMP 55 1 S
# 2001 07 12 11 40 15.70 31.6833 103.683 8.000 1.9 0 0 0 4811
MXI 4.4 0.5 P
MXI 7 0.5 S
WCH 5.5 0.5 P
WCH 8.7 0.5 S
XJI 26.1 0.5 P
XJI 42.8 0.5 S
# 2001 07 12 13 52 22.80 29.1 103.783 0.000 2.0 0 0 0 4813
WMP 4.7 1 P
WMP 7.9 1 S
LBO 22.2 0.5 P
# 2001 07 12 13 57 58.00 29.0667 103.767 9.000 2.0 0 0 0 4814
WMP 3.1 1 P
WMP 5.6 1 S
LBO 19.4 0.5 P
LBO 32 0.5 S
# 2001 07 12 21 54 38.80 30.0167 102.3 9.000 3.2 0 0 0 4821
EMS 35 1 S
JLO 23.6 0.5 P
JLO 38.6 0.5 S
YZP 26.7 1 P
YZP 44.2 1 S
DFU 27.5 0.5 P
DFU 45.4 0.5 S
WCH 33.2 0.5 P
WCH 56.8 0.5 S
MEK 35.2 1 P
MEK 59.2 1 S
GZA 4.2 0.5 P
GZA 6.6 0.5 S
SMI 15 0.5 P
SMI 25.4 0.5 S
XJI 18.6 0.5 P
XJI 31 0.5 S
# 2001 07 12 23 49 25.50 31.8333 103.983 8.000 1.9 0 0 0 4827
MXI 5 0.5 P
MXI 8 0.5 S
WCH 9.9 0.5 P
WCH 15.6 0.5 S
MEK 28.8 1 P
MEK 49.1 1 S
XJI 31 0.5 P
XJI 51.1 0.5 S
# 2001 07 13 03 56 51.90 29.2167 101.883 4.000 1.3 0 0 0 4832
SMI 8.2 0.5 P
SMI 14.2 0.5 S
JLO 7.2 0.5 P
JLO 12.1 0.5 S
# 2001 07 13 10 44 12.80 31.7667 101.05 0.000 1.7 0 0 0 4836
DFU 16.8 0.5 P
DFU 27.2 0.5 S
MEK 20.1 1 P
MEK 33.2 1 S
# 2001 07 13 12 42 54.80 27.6833 100.817 0.000 2.5 0 0 0 4842
JLO 29.7 0.5 P
JLO 49.1 0.5 S
# 2001 07 13 17 38 48.80 31.6 104.117 8.000 1.6 0 0 0 4846
WCH 12.3 0.5 P
WCH 19.9 0.5 S
MXI 8.9 0.5 P
MXI 13.7 0.5 S
# 2001 07 13 18 07 47.90 30.1167 103 0.000 2.5 0 0 0 4847
EMS 24.4 1 S
GZA 15.1 0.5 P
GZA 24.7 0.5 S
YZP 19.7 1 P
YZP 32.4 1 S
SMI 20.3 0.5 P
SMI 34.1 0.5 S
XJI 21.4 0.5 P
XJI 35.4 0.5 S
WMP 24.7 1 P
WMP 41.4 1 S
# 2001 07 13 18 20 15.30 29.2167 101.9 9.000 1.7 0 0 0 4848
JLO 7.9 0.5 P
JLO 12.8 0.5 S
SMI 9.1 0.5 P
SMI 15.1 0.5 S
GZA 18.7 0.5 P
GZA 31.3 0.5 S
# 2001 07 14 07 34 33.70 29.15 101.833 8.000 2.2 0 0 0 4860
JLO 7.7 0.5 P
JLO 12.6 0.5 S
SMI 8.8 0.5 P
SMI 14.7 0.5 S
GZA 18.6 0.5 P
GZA 30.7 0.5 S
# 2001 07 14 08 59 32.10 28.1333 103.617 0.000 2.2 0 0 0 4864
LBO 4.7 0.5 P
LBO 7.2 0.5 S
# 2001 07 14 15 16 52.90 31.2333 103.883 13.000 1.4 0 0 0 4873
WCH 9.4 0.5 P
WCH 15.3 0.5 S
MXI 10.8 0.5 P
MXI 18 0.5 S
YZP 12.4 1 P
YZP 20.6 1 S
# 2001 07 14 18 34 30.60 30.4667 101.583 0.000 2.2 0 0 0 4877
GZA 12.7 0.5 P
GZA 20.8 0.5 S
DFU 13.8 0.5 P
DFU 23 0.5 S
XJI 18 0.5 P
XJI 29.2 0.5 S
MEK 30.5 1 P
MEK 51.4 1 S
# 2001 07 15 11 05 25.30 31.6333 102.767 0.000 1.8 0 0 0 4889
MEK 9.7 1 P
MEK 15.9 1 S
XJI 13.7 0.5 P
XJI 22.7 0.5 S
WCH 13.9 0.5 P
WCH 22.9 0.5 S
MXI 17.8 0.5 P
MXI 29.4 0.5 S
# 2001 07 15 15 15 25.20 29.2333 101.883 3.000 1.4 0 0 0 4897
JLO 7.3 0.5 P
JLO 11.9 0.5 S
SMI 8.2 0.5 P
SMI 14 0.5 S
GZA 18.2 0.5 P
GZA 30.3 0.5 S
# 2001 07 15 15 44 9.10 27.65 100.833 11.000 2.9 0 0 0 4899
JLO 30 0.5 P
JLO 50.3 0.5 S
# 2001 07 16 02 04 47.80 31.6167 104.067 8.000 2.1 0 0 0 4914
XJI 30.7 0.5 P
XJI 50.4 0.5 S
MEK 31 1 P
MEK 52.2 1 S
MXI 5.3 0.5 P
MXI 8.6 0.5 S
WCH 9.2 0.5 P
WCH 14.7 0.5 S
# 2001 07 16 02 07 44.20 31.6333 104.083 11.000 1.8 0 0 0 4916
MXI 5.4 0.5 P
MXI 9 0.5 S
WCH 9.6 0.5 P
WCH 15.6 0.5 S
# 2001 07 16 03 28 19.80 27.6333 100.833 0.000 3.5 0 0 0 4918
GZA 53.8 0.5 P
JLO 31.3 0.5 P
JLO 52.2 0.5 S
# 2001 07 16 03 42 6.90 27.6833 100.85 5.000 2.4 0 0 0 4919
JLO 28.6 0.5 P
JLO 46.7 0.5 S
# 2001 07 16 18 05 15.90 31.1167 103.117 0.000 2.1 0 0 0 4934
YZP 8.6 1 P
YZP 14.8 1 S
WCH 11.2 0.5 P
WCH 18.3 0.5 S
XJI 12.9 0.5 P
XJI 21.3 0.5 S
MXI 16.8 0.5 P
MXI 27.3 0.5 S
MEK 21.7 1 P
MEK 35.7 1 S
# 2001 07 16 23 48 20.50 29.8667 103.067 5.000 1.7 0 0 0 4938
WMP 33.8 1 S
EMS 16.7 1 S
GZA 16.2 0.5 P
GZA 26.7 0.5 S
YZP 23.7 1 P
XJI 26.4 0.5 P
XJI 42.4 0.5 S
# 2001 07 17 02 30 40.50 27.6333 100.883 0.000 2.3 0 0 0 4940
JLO 30.3 0.5 P
JLO 51.1 0.5 S
# 2001 07 17 14 26 14.40 29.1167 101.883 9.000 2.6 0 0 0 4947
JLO 8.2 0.5 P
JLO 12.8 0.5 S
SMI 8.6 0.5 P
SMI 14.4 0.5 S
GZA 18.4 0.5 P
GZA 30.4 0.5 S
# 2001 07 17 21 55 44.50 29.2167 101.917 0.000 2.0 0 0 0 4955
GZA 18.3 0.5 P
GZA 30.5 0.5 S
JLO 7.5 0.5 P
JLO 12.4 0.5 S
SMI 8.3 0.5 P
SMI 14.2 0.5 S
# 2001 07 17 22 24 25.10 29.2333 101.9 0.000 2.0 0 0 0 4957
JLO 7.6 0.5 P
JLO 12.1 0.5 S
SMI 8.5 0.5 P
SMI 14.6 0.5 S
GZA 18.3 0.5 P
GZA 30.3 0.5 S
# 2001 07 18 07 58 42.60 31.6167 104.183 11.000 1.4 0 0 0 4965
MXI 6.9 0.5 P
MXI 11.1 0.5 S
WCH 11.8 0.5 P
WCH 19.4 0.5 S
# 2001 07 18 20 11 7.20 31.5167 103.967 5.000 3.1 0 0 0 4978
MXI 7.3 0.5 P
MXI 11.1 0.5 S
WCH 8.4 0.5 P
WCH 13.2 0.5 S
YZP 14.8 1 P
YZP 24.8 1 S
XJI 29.2 0.5 P
XJI 48.4 0.5 S
MEK 31.3 1 P
MEK 50.8 1 S
# 2001 07 18 23 20 35.80 29.2333 101.9 3.000 1.9 0 0 0 4980
JLO 7.8 0.5 P
JLO 12.7 0.5 S
SMI 8.6 0.5 P
SMI 14.5 0.5 S
GZA 18.8 0.5 P
GZA 31 0.5 S
# 2001 07 19 10 49 23.90 29.3833 101.083 14.000 2.7 0 0 0 4991
JLO 11.1 0.5 P
JLO 18 0.5 S
SMI 22.6 0.5 P
SMI 37.1 0.5 S
GZA 22.8 0.5 P
GZA 37.3 0.5 S
DFU 29.2 0.5 P
DFU 51.1 0.5 S
# 2001 07 19 16 17 59.20 29.2167 101.917 0.000 1.6 0 0 0 5000
JLO 7.4 0.5 P
JLO 12.2 0.5 S
# 2001 07 20 07 54 33.10 29.2167 101.917 0.000 2.0 0 0 0 5021
JLO 7.4 0.5 P
JLO 12.3 0.5 S
SMI 8 0.5 P
SMI 13.7 0.5 S
GZA 18.1 0.5 P
GZA 30.5 0.5 S
# 2001 07 20 08 07 51.30 29.2167 101.9 0.000 1.9 0 0 0 5022
SMI 8.9 0.5 P
SMI 14.1 0.5 S
GZA 18.1 0.5 P
GZA 30.1 0.5 S
JLO 7.3 0.5 P
JLO 12.1 0.5 S
# 2001 07 20 09 47 22.50 31.6667 103.233 5.000 1.9 0 0 0 5025
WCH 8.1 0.5 P
WCH 13.1 0.5 S
MXI 11.6 0.5 P
MXI 19.2 0.5 S
MEK 15.6 1 P
MEK 26.2 1 S
XJI 18.1 0.5 P
XJI 30 0.5 S
# 2001 07 20 14 51 14.90 29.2167 101.9 0.000 1.3 0 0 0 5029
JLO 7.2 0.5 P
JLO 11.9 0.5 S
# 2001 07 20 16 42 44.30 27.6833 100.8 0.000 2.2 0 0 0 5034
JLO 29.7 0.5 P
JLO 48.7 0.5 S
# 2001 07 21 03 41 55.90 27.6667 100.833 15.000 2.9 0 0 0 5046
JLO 29.1 0.5 P
JLO 47.1 0.5 S
# 2001 07 21 09 30 5.70 31.4167 103.917 9.000 1.5 0 0 0 5052
MXI 6 0.5 P
MXI 9.5 0.5 S
WCH 6.7 0.5 P
WCH 10.9 0.5 S
# 2001 07 22 22 35 48.00 31.6333 104.417 0.000 1.5 0 0 0 5106
WCH 13.2 0.5 P
WCH 22 0.5 S
MXI 14 0.5 P
MXI 23.2 0.5 S
YZP 20 1 P
YZP 33 1 S
# 2001 07 23 07 10 6.20 31.15 104.033 5.000 1.9 0 0 0 5114
WCH 10.4 0.5 P
WCH 17.8 0.5 S
YZP 12.8 1 P
YZP 20.8 1 S
# 2001 07 23 08 23 0.10 30.4333 101.667 0.000 1.7 0 0 0 5115
GZA 11.9 0.5 P
GZA 19.9 0.5 S
DFU 13.3 0.5 P
DFU 21.9 0.5 S
XJI 16.6 0.5 P
XJI 27.4 0.5 S
# 2001 07 23 13 53 51.80 28.1167 103.6 5.000 3.2 0 0 0 5120
LBO 5.2 0.5 P
LBO 8.1 0.5 S
# 2001 07 23 20 30 30.20 32.1333 103.583 4.000 1.9 0 0 0 5128
MXI 11.3 0.5 P
MXI 18.8 0.5 S
WCH 13.8 0.5 P
WCH 22.8 0.5 S
# 2001 07 24 01 53 42.10 29.1667 101.883 5.000 2.5 0 0 0 5134
GZA 18.9 0.5 P
GZA 31.1 0.5 S
JLO 7.5 0.5 P
JLO 12.3 0.5 S
SMI 8.3 0.5 P
SMI 14.3 0.5 S
# 2001 07 24 19 59 31.40 29.1667 102.217 9.000 2.3 0 0 0 5142
SMI 4.4 0.5 P
SMI 7.8 0.5 S
JLO 10.6 0.5 P
JLO 17.4 0.5 S
GZA 18.4 0.5 P
GZA 30.2 0.5 S
# 2001 07 24 22 40 55.70 30.9667 101.15 9.000 1.4 0 0 0 5143
XJI 21.3 0.5 P
XJI 35.1 0.5 S
MEK 25.5 1 P
MEK 42.3 1 S
DFU 2.3 0.5 P
DFU 3.7 0.5 S
# 2001 07 25 06 26 28.40 30.4167 101.683 0.000 1.9 0 0 0 5151
GZA 12 0.5 P
GZA 19.8 0.5 S
DFU 13.2 0.5 P
DFU 22.6 0.5 S
XJI 17.4 0.5 P
XJI 28.1 0.5 S
# 2001 07 25 15 29 31.00 29.8 102.267 5.000 1.8 0 0 0 5157
YZP 30.4 1 P
YZP 51.5 1 S
GZA 8 0.5 P
GZA 12.7 0.5 S
SMI 11.9 0.5 P
SMI 19.4 0.5 S
XJI 23.6 0.5 P
XJI 39 0.5 S
